id,name,street,pcode,city,email,url,contact_url,phone,comment,state,created_at,updated_at,mailing_mode,cached_tag_list,slug,approved_at,inquiry_kind,department,objection_kind,gv_numer,gv_number,tag_ids
82,Acxiom Deutschland GmbH,Martin-Behaim-Str. 12,63263,Neu-Isenburg,datenschutz@acxiom.com,http://www.acxiom.de/,http://www.acxiom.de/about_us/AcxiomDeutschland/Pages/AcxiomDeutschland.aspx,061027363,"(23.07.2013) Auf Wunsch d. Datenschutzbeauftragten hinzugefügt:
""Sehr geehrte Verbraucher,

wir möchten Sie darüber informieren, dass wir bei Anfragen die über Selbstauskunft.net an uns herangetragen werden ausschließlich Positivauskünfte erteilen. Wenn Ihre Adresse nicht in unserem Datenbestand gespeichert ist, erhalten Sie daher kein Antwortschreiben von uns. Generell empfehlen wir allen Verbrauchern die keine unerwünschte personalisierte Werbung erhalten möchten, sich auf der Robinsonliste des DDV  zu registrieren. Selbstverständlich ist es allen Verbrauchern freigestellt, sich mit ihrer Anfragen auch direkt an uns zu wenden. Diese Anfragen werden mit Priorität beantwortet.

Vielen Dank für Ihr Verständnis.

Ihr Datenschutz-Team von Acxiom Deutschland""

Acxiom bietet Informationen zur Segmentierung und Profilierung für über 37 Millionen Haushalte in Deutschland. Unseren Kunden stehen mehr als 250 mikrogeographische Einzelmerkmale zur Verfügung, die aus amtlichen Daten und Marktforschungsergebnissen abgeleitet und in den Raum projiziert werden. Das Ergebnis sind die Zielgruppensegmentierung Personicx™, in der Räume nach ihrer Einwohnerstruktur beschrieben werden, sowie die mikrogeographische Datensuite MIKROTYP®, die aus zahlreichen soziodemografischen, sozioökonomischen und soziopsychischen Kriterien sowie Verbrauchertypologien und Branchenscores besteht.",approved,2010-05-11T02:01:17.000+02:00,2013-07-23T11:01:38.000+02:00,fax,Adresshändler,,2010-05-11T02:01:17.000+02:00,bdsg34,,,,,[5]
741,"Arnold, Demmerer & Partner GmbH",Mittlerer Pfad 26,70499,Stuttgart,post@arnold-demmerer.de,http://www.zielgruppenmarketing.de,http://www.zielgruppenmarketing.de/kontakt.html,0711887130,"26.03.2012 Deaktiviert auf Grund folgender Stellungnahme:

""[...] Die Arnold, Demmerer & Partner GmbH speichert und verarbeitet keine eigenen personenbezogenen Daten. [...]""",blocked,2012-03-09T18:48:24.000+01:00,2012-03-26T12:16:41.000+02:00,,Adresshändler,arnold-demmerer-und-partner,2012-03-16T17:46:49.000+01:00,bdsg34,,,,,[5]
66,AZ Direct GmbH,Carl-Bertelsmann-Straße 161 S,33311,Gütersloh,az.datenschutz@bertelsmann.de,http://www.az-direct.com/,http://www.az-direct.com/site/de/meta/about.html,05241805438,"""Über 40 Millionen Privatadressen und mehr als 3 Millionen bonitätsgeprüfte Firmenadressen stehen für Ihre Neukundengewinnung zur Auswahl. Profitieren Sie von mehr als 200 Merkmalen zur Eingrenzung Ihrer Wunsch-Zielgruppe.""
http://www.az-direct.com/site/de/adressen.html",approved,2010-04-27T01:04:18.000+02:00,2013-06-10T12:43:06.000+02:00,fax,Adresshändler,,2010-04-27T01:04:18.000+02:00,bdsg34,,,,,[5]
67,Deutsche Post Adress GmbH & Co. KG,Am Anger 33,33332,Gütersloh,,http://www.deutschepost.de/dpag?xmlFile=link1015294_1007948,http://www.deutschepost.de/dpag?tab=1&skin=hi&check=yes&lang=de_DE&xmlFile=link1015294_1007951,0524153930,"Gemeinschaftsunternehmen der Deutschen Post und Bertelsmann. Auch ein Adresshändler, der sich vor allem darauf spezialisiert hat, nach Umzügen die Datenbestände anderer Adresshändler auf den aktuellen Stand zu bringen.

11.01.2012 deaktiviert, weil nach Angabe des Unternehmens nur Personen mit Nachsendeantrag betroffen sind.
12.04.2013 aufgrund des Erhalts eines BigBrother-Awards reaktiviert",approved,2010-04-27T01:35:51.000+02:00,2013-04-15T10:34:57.000+02:00,fax,Adresshändler,deutsche-post-adress,2013-04-12T19:03:35.000+02:00,bdsg34,,,,,[5]
81,Deutsche Post Direkt GmbH ,Junkersring 57,53844,Troisdorf,info@postdirekt.de,http://www.deutschepost.de/dpag?tab=1&skin=hi&check=yes&lang=de_DE&xmlFile=link1015302_1008014,http://www.deutschepost.de/dpag?tab=1&skin=hi&check=yes&lang=de_DE&xmlFile=link1015302_1008019,0224126610,"Haushaltsadressen zur Miete: ""37 Mio. Qualitätsadressen aus der Vermietdatenbank. Mehr als 1 Mrd. Merkmale für die Zielgruppenselektion.""
http://www.deutschepost.de/dpag?tab=1&skin=hi&check=yes&lang=de_DE&xmlFile=link1015302_1021492

28.02.2012 Faxnummer aktualisiert
20.03.2013 Wechsel des Faxservers aufgrund von Verbindungsproblemen
26.01.2015 Anschrift lt. Schreiben aktualisiert
04.11.2015: aktualisiert, da Faxnummer inzw. anderweitig vergeben",approved,2010-05-10T12:31:47.000+02:00,2015-11-04T10:19:44.000+01:00,fax,Adresshändler,,2010-05-10T12:31:47.000+02:00,bdsg34,,,,,[5]
141,Dialoghaus GmbH,Hardt 22,40764,Langenfeld,,http://www.dialoghaus.com/,http://www.dialoghaus.com/de/Impressum/Impressum,0217384830,"""Die Dialoghaus Haushaltsdatenbank Ubiquidata liefert mit insgesamt mehr als 20 Mio. Haushaltsadressen [..]. Die Adressen sind nach über 100 verschiedenen Merkmalen selektierbar.""
http://www.dialoghaus.com/de/Haushaltsadressen/Haushaltsadressen-zielgruppengenau-und-marktabdeckend
30.11.2012: gemäß postalischem Schreiben vom 27.11.2012 (Herrn Jürgen Grundmann) deaktiviert",blocked,2011-08-26T01:43:07.000+02:00,2012-11-30T14:26:10.000+01:00,,Adresshändler,,2011-08-26T01:43:07.000+02:00,bdsg34,,,,,[5]
744,Direkta Gesellschaft für Marketing GmbH,Hoyendonk 12,47638,Straelen,,,,0208432103,"Die Direkta Gesellschaft für Marketing GmbH stellt ihre Daten u.a. der AZ DIRECT GmbH und der GEZ zur Verfügung.

http://www.sueddeutsche.de/wirtschaft/unserioeser-werbemethoden-dem-glueck-auf-der-spur-1.411614-3

08.08.2013: Vorerst deaktiviert, weil das Unternehmen angibt lediglich zu ""vermitteln""",blocked,2012-03-10T13:19:36.000+01:00,2013-08-09T03:19:05.000+02:00,,Adresshändler,direkta,2013-07-23T11:48:36.000+02:00,bdsg34,,,,,[5]
160,eGentic GmbH,Oberliederbacher Weg 25,65843,Sulzbach/Ts.,info@planet49.com,http://www.egentic.com/,http://www.egentic.com/impressum/,,"""Seit drei Jahren wandern die Adressdaten in sechs firmeneigene Callcenter und werden überprüft. 7,5 Millionen Adressen wurden bisher bei Planet49 eingegeben. Nicht jede Adresse stimmt. Nach dem Abgleich mit der Robinson-Liste bleiben immerhin noch 4 Millionen Adressen übrig. Das heißt, jeder zwanzigste Bundesbürger ist bei Planet49 angemeldet, in der Hoffnung auf Autos und Millionengewinne.""
http://marken-gewinnspiele.de/vorsicht-falle-bei-online-gewinnspielen/planet49-daten-sind-wertvoll/ (abgerufen am 25.02.2012)

Hieß bis zum 23.01.2012 ""planet49 GmbH""

02.03.2012 Faxe kommen nicht mehr an - Umstellung auf Postversand

25.04.2012 Aus der Liste der Empfohlenen Unternehmen entfernt, da nur Daten vorhanden sind, sofern diese über Double-Opt-In gesammelt wurden. Andernfalls sind keine Daten vorhanden.

22.03.2013 Faxe kommen teilweise durch",approved,2012-01-05T14:01:33.000+01:00,2013-06-14T08:05:33.000+02:00,fax,Adresshändler,egentic,2012-02-25T19:39:31.000+01:00,bdsg34,,,,,[5]
743,GECKO selections GmbH,Otto-Holst-Straße 11,21629,Neu Wulmstorf,office@gecko-selections.de,http://www.gecko-selections.de,http://www.gecko-selections.de/kontakt/,04168900745,19.03.2012 GECKO selections ist lediglich Adress-Broker und besitzt keine eigene Datenbank.,blocked,2012-03-09T19:03:14.000+01:00,2012-03-19T09:23:02.000+01:00,,Adresshändler,gecko-selections-gmbh,2012-03-16T17:32:04.000+01:00,bdsg34,,,,,[5]
62,GEMINI DIRECT marketing solutions GmbH,Black-und-Decker-Str. 17 C,65510,Idstein,,http://www.geminidirect.de/,http://www.geminidirect.de/de/welcome/feedback.html,061269519610,"
29.04.2009: Unternehmen will Ausweiskopie

22.03.2012 Deaktiviert, auf Basis der folgenden Stellungnahme:

""in Sachen GEMINI DIRECT marketing solutions GmbH bestätige ich Ihnen, dass das Unternehmen nach meiner Befragung keine eigene Datenbank betreibt, für die es verantwortliche Stelle im Sinne des BDSG wäre. Insofern ist es nicht befugt, Auskunftsanfragen zu beantworten. Es sei denn, ein Eigner von Daten beauftragt das Unternehmen damit, diese Antworten auch im Auftrag zu geben.""",blocked,2010-04-22T16:34:27.000+02:00,2012-03-22T11:45:30.000+01:00,,Adresshändler,,2010-04-22T16:34:27.000+02:00,bdsg34,,,,,[5]
65,Global Group Dialog Solutions AG,Itzbachweg 16 – 20,65510,Idstein,info@global-group.de,http://www.global-group.de/,http://www.global-group.de/Deutsch/Spezial/Impressum/index.phtml,0612693750,"""In unserer GD Consumer Marketing-Database haben wir Zugriff auf bis zu 65 Mio. Adressangaben mit vielen beschreibenden Merkmalen.""
http://www.global-group.de/Deutsch/Services/Daten/index.phtml

Zur Zeit in Korrespondenz mit Anwalt",blocked,2010-04-27T00:59:57.000+02:00,2013-09-25T02:19:43.000+02:00,,Adresshändler,,2010-04-27T00:59:57.000+02:00,bdsg34,,,,,[5]
90,Karin Frick Adressenverlag,Neuffenstraße 8,73553,Alfdorf,frick-adress@t-online.de,http://www.adressenverlag-frick.de/,http://www.adressenverlag-frick.de/impressum.htm,071723528,"Bietet Werbetreibenden ""über 5 Mio gepflegte Adressen Für Ihre Kundendialoge"" an. Weiter heißt es ""Alle Adressen die wir anbieten, sind von uns selbst und direkt ermittelt.""

19.01.2012 Faxzustellung unterbrochen - wer kennt eine gültige Faxnummer?

23.08.2012 Annahme von postalischen Anfragen wird verweigert: http://blog.selbstauskunft.net/2012/08/annahme-verweigert/

18.02.2013: Domain/Seite: ""adressenverlag-frick.de"" existiert nicht mehr und steht zum Verkauf.",blocked,2010-08-06T19:21:45.000+02:00,2013-02-18T10:33:49.000+01:00,,Adresshändler,,2010-08-06T19:21:45.000+02:00,bdsg34,,,,,[5]
142,microm Micromarketing-Systeme und Consult GmbH,Hellersbergstr. 11,41460,Neuss,info@microm-online.de,http://www.microm-online.de/,http://www.microm-online.de/Deutsch/Microm/Sekundaernavigation/impressum.jsp,02131109701,"""microm CONSUMER ist mit mehr als 35 Mio. BDSG-konformen Privatadressen eine der größten und umfassendsten Adressdatenbanken in Deutschland. Mit dieser außerordentlich breiten Adressbasis erreichen Sie nahezu den gesamten Markt. Umzüge, Todesfälle und Unzustellbare fließen umgehend in die Datenbank ein.""

Zur Zeit in Korrespondenz mit Anwalt",blocked,2011-08-26T01:55:35.000+02:00,2013-09-25T02:21:13.000+02:00,,Adresshändler,,2011-08-26T01:55:35.000+02:00,bdsg34,,,,,[5]
640,Nexiga GmbH,Marienforster Straße 52,53177,Bonn,,http://www.nexiga.com,http://www.nexiga.com/kontakt/,022884960,"""Für gezielte Direktmarketingaktionen stehen gut gepflegte, umfangreiche Datenbestände sowohl B-2-B als auch B-2-C zur Verfügung. [...] Haushaltsdatenbank mit 35 Mio. Privatadressen selektierbar nach mikrogeographischen Merkmalen +Mehr als 5 Mio. Lifestyle-Adressen selektierbar nach konkreten Kaufabsichten, Konsumschwerpunkten und Interessen""
http://www.infas-geodaten.de/index.php?id=50 (abgerufen am 26.02.2012)

27.02.2012 Unternehmen deaktiviert, aufgrund folgender Stellungnahme:

Wir gehören zum Unternehmensverbund der Schober Group - sind aber komplett autark. Schober ist seit 60 Jahren Spezialist im Direktmarketing und Adresshändler. Deshalb kam auf unserer Website auch das Thema ""Adressen"" vor. Faktisch aber verkaufen wir keine Adressen, sondern leiten entsprechende Anfragen direkt an Schober weiter. Dieser Sachverhalt war auf unserer Website missverständlich dargestellt. Wir haben den gemeinten Hinweis bereits entfernt.

01.04.2014: Firmierung lt. Mail bzw. Impressum aktualisiert auf: Nexiga GmbH (vormals: infas GEOdaten GmbH - http://www.infas-geodaten.de )",blocked,2012-02-25T21:24:37.000+01:00,2014-04-03T15:50:28.000+02:00,,Adresshändler,infas-geodaten,2012-02-26T14:08:27.000+01:00,bdsg34,,,,,[5]
109,Palette-Adressenverlag GmbH,Hans-Nitsche-Str. 1,65510,Idstein,service@paletteadressen.de,http://www.paletteadressen.de/,http://www.paletteadressen.de/kontakt.php,06126957588,"Weitere Telefon und Faxnummer:
Telefon: +49 (0) 6126 / 20 42
Telefax: +49 (0) 6126 / 51 89 0

Ein Nutzer hat gemeldet:
""Die Firma hat meine Daten von der insolventen Firma Euro Adress Consulting AG, Multergasse 2a in CH-9004 St. Gallen gekauft.

Meine Daten wurden weitergegeben an:
AZ Direct GmbH in Gütersloh bzw. die GEZ""

07.07.2011: Faxnummer aktualisiert
03.01.2018: Die Liquidation wurde im Bundesanzeiger bekannt gegeben",blocked,2011-05-05T17:19:19.000+02:00,2018-03-19T16:09:17.548+01:00,,Adresshändler,,2011-05-05T17:19:19.000+02:00,bdsg34,,,,,[5]
151,Present-Service Ullrich GmbH & Co. KG,Wetterkreuz 11,91058,Erlangen,info@present-service.com,http://www.present-service.com/,http://www.present-service.com/impressum.html,09131692200,"""Die höchste Abdeckung in der Zielgruppe entstehender Familien - bei jährlich ca. 650.000 Geburten in Deutschland.""
http://www.present-service.com/leistungen/zeitpunkt-marketing/facts.html

06.09.2011: Anfragen an das Unternehmen eingestellt, weil es in direktem Kontakt zu den Kundinnen (ausschließlich Frauen) bleibt.",blocked,2011-09-06T12:01:20.000+02:00,2012-02-22T17:13:15.000+01:00,,Adresshändler,,,bdsg34,,,,,[5]
920,Regis24 GmbH,Wallstraße 58,10179,Berlin,info@regis24.de,http://www.regis24.de/index.php,http://www.regis24.de/kontakt.php,03044350240,"Führt laut Verein digital-courage ein ""Schatten-Melderegister"":
https://bigbrotherawards.de/2013/tadelnde-erwaehnungen-2013",approved,2013-01-05T20:45:48.000+01:00,2016-12-07T09:24:41.000+01:00,fax,Adresshändler,regis24,2013-05-21T10:00:00.000+02:00,bdsg34,,,,,[5]
184,SAZ Marketing GmbH,Gutenbergstraße 1-5,30823,Garbsen,,http://www.saz.com/de/index.html,http://www.saz.com/de/region/europe/germany.html,,"Ein Nutzer hat uns hierzu geschrieben: ""Ich kenne das Unternehmen und weiß, dass es nicht nur mit Adressen handelt, sonder auch erfasst und sammelt. Auch deren Homepage macht keinen Hehl daraus.""

„Die SAZ Haushaltsdatenbanken beinhalten bis zu 220 Einzelinformationen pro Adresse und können z.B. für die Erstellung von Kundenprofilen oder die Selektion von Adresslisten genutzt werden.“
http://www.saz.com/de/target-groups-and-information/target-groups-information.html
http://www.saz.com/de/target-groups-and-information/household-databases.html
Der Sitz ist u.a. in der Schweiz. Es gibt aber auch undurchsichtige Töchterunternehmen in Deutschland http://www.saz.com/de/region/europe/germany.html die vermutlich aber auch alle Zugriff auf die Daten haben.

10.03.2012 Deaktiviert, da keine Daten in Deutschland vorhanden sind",blocked,2012-02-17T14:12:19.000+01:00,2012-03-10T12:15:12.000+01:00,,"Adresshändler, Empfohlen",saz-marketing,2012-02-17T14:12:19.000+01:00,bdsg34,,,,,"[1, 5]"
643,Silver Media Direct Marketing GmbH,Kurgartenstraße 37,90762,Fürth,info@silvermedia.de,http://www.silvermedia.de/,http://www.silvermedia.de/kontakt.html,0911766624200,"sammelt auch überwiegend bei Gewinnspielen Adressen (siehe gewinnspiele.com).
""Unser Leistungsspektrum umfasst Adressgewinnung, E-Mail Marketing,
Affiliate Marketing, Display Advertising, SEM & SEO, Social Media Marketing und Mobile Marketing.""

27.02.2012 Unternehmen deaktiviert; Haben nur Adressen, die im Zusammenhang mit den angemeldeten E-Mails bestehen. Weiterverkaut findet nicht statt.",blocked,2012-02-25T21:39:24.000+01:00,2012-02-27T12:42:25.000+01:00,,Adresshändler,,2012-02-26T13:49:03.000+01:00,bdsg34,,,,,[5]
641,SuperComm Data Marketing GmbH,Auguststr. 19,53229,Bonn,info@supercomm.de,http://www.supercomm.de/,http://www.supercomm.de/kontakt,02286881100,"""Wir bieten Ihnen über 5 Millionen Endverbraucher-Adressen sowie ca. 80.000 Empfänger unterschiedlicher Branchen und betreiben bzw. vermarkten mehr als 200 Internetseiten.""

23.02.2012 Deaktiviert auf Grund folgender Stellungnahme:

""[...] Hierbei liegt der Fokus für uns als Online-Unternehmen auf der E-Mail-Adresse, welche aus Ihrem Schreiben nicht ersichtlich ist. Bei zahlreichen der kostenfreien Projekte wie z.B. treiber.de und freeware-archiv.de werden sogar im Rahmen der Download-Anforderung und Bestätigung ausschließlich unpersonalisierte E-Mail-Adressen im DOI Verfahren generiert. [...]""",blocked,2012-02-25T21:30:41.000+01:00,2012-03-23T17:40:01.000+01:00,,Adresshändler,supercomm-data-marketing-gmbh,2012-03-16T15:57:47.000+01:00,bdsg34,,,,,[5]
