id,name,street,pcode,city,email,url,contact_url,phone,comment,state,created_at,updated_at,mailing_mode,cached_tag_list,slug,approved_at,inquiry_kind,department,objection_kind,gv_numer,gv_number,tag_ids
707,Bankhaus Max Flessa KG,Luitpoldstraße 2 - 6,97421,Schweinfurt ,info@flessabank.de,http://www.flessabank.de,http://www.flessabank.de/impressum.php,097215310,,approved,2012-03-03T21:51:56.000+01:00,2012-03-05T09:47:45.000+01:00,fax,Banken,bankhaus-max-flessa,2012-03-05T09:47:45.000+01:00,bdsg34,,,,,[9]
464,Berliner Sparkasse,Alexanderplatz 2,10178,Berlin,,http://www.berliner-sparkasse.de/,,030869801,,approved,2012-02-24T00:00:09.000+01:00,2013-05-08T09:57:20.000+02:00,manual,Banken,,2012-02-24T00:00:09.000+01:00,bdsg34,,,,,[9]
773,Berliner Volksbank eG,Budapester Straße 35,10892,Berlin,service@berliner-volksbank.de,http://www.berliner-volksbank.de,http://www.berliner-volksbank.de/service/impressum.html,03030630,,approved,2012-03-25T15:05:01.000+02:00,2012-03-29T23:56:29.000+02:00,fax,Banken,berliner-volksbank-eg,2012-03-29T23:56:29.000+02:00,bdsg34,,,,,[9]
456,Bezirkssparkasse Reichenau,Abt-Berno-Straße 1,78479,Reichenau,,http://www.spk-reichenau.de/,,075348000,"21.11.2012 lt. Tel. Auskunft des Datenschutzbeauftragten, wünscht dieses Unternehmen ab sofort eine postalische Zustellung mit eigenhändiger Unterschrift wg. der vielen ""Spassanfragen""; daher umgestellt auf postalische Zustellung.",approved,2012-02-24T00:00:08.000+01:00,2013-02-14T14:37:58.000+01:00,manual,Banken,,2012-02-24T00:00:08.000+01:00,bdsg34,,,,,[9]
558,Bordesholmer Sparkasse AG,Bahnhofstraße 43-47,24582,Bordesholm,,http://www.bordesholmer-sparkasse.de/,,04347711500,09.04.2013: lt. Mail d. Datenschutzbeauftragten umgestellt auf manual,approved,2012-02-24T00:00:15.000+01:00,2013-04-09T11:16:19.000+02:00,manual,Banken,,2012-02-24T00:00:15.000+01:00,bdsg34,,,,,[9]
588,Braunschweigische Landessparkasse,Friedrich-Wilhelm-Platz,38100,Braunschweig,,http://www.blsk.de/,,01802221919,,approved,2012-02-24T00:00:16.000+01:00,2012-02-24T00:00:16.000+01:00,fax,Banken,,2012-02-24T00:00:16.000+01:00,bdsg34,,,,,[9]
638,comdirect bank AG,Pascalkehre 15,25451,Quickborn,info@comdirect.de,http://www.comdirect.de/,http://www.comdirect.de/cms/service-kontakt-impressum.html,041067080,,approved,2012-02-25T13:46:27.000+01:00,2012-02-25T14:38:29.000+01:00,fax,Banken,comdirect-bank,2012-02-25T14:38:23.000+01:00,bdsg34,,,,,[9]
619,Commerzbank AG,-,60261,Frankfurt am Main,,https://www.commerzbank.de/,https://www.commerzbank.de/de/metanavigation/kontakt/kontakt.html,06913620,,approved,2012-02-24T00:46:07.000+01:00,2012-02-24T20:16:47.000+01:00,fax,Banken,commerzbank,2012-02-24T00:46:07.000+01:00,bdsg34,,,,,[9]
1419,Consorsbank,Bahnhofstraße 55,90402,Nürnberg,datenschutz@consorsbank.de,https://www.consorsbank.de/,https://www.consorsbank.de/ev/Transversal/Impressum,09113690,"ehemals Cortal Consors.

Die Consorsbank ist Teil der französischen Großbank BNP Paribas.",approved,2015-01-02T12:03:33.000+01:00,2015-02-04T14:43:54.000+01:00,fax,Banken,consorsbank,2015-02-04T14:43:54.000+01:00,bdsg34,,,,,[9]
624,"Credit Europe Bank N.V., Niederlassung Deutschland",Untermainkai 27 - 28,60329,Frankfurt am Main,info@crediteurope.de,http://www.crediteurope.de/,http://www.crediteurope.de/fb/sites/de/de/about/disclaimer/,0692562600,,approved,2012-02-24T10:51:03.000+01:00,2012-02-24T20:30:41.000+01:00,fax,Banken,credit-europe-bank,2012-02-24T20:30:41.000+01:00,bdsg34,,,,,[9]
618,Deutsche Bank AG,Taunusanlage 12,60262,Frankfurt am Main,,http://www.deutsche-bank.de/,http://www.deutsche-bank.de/de/content/impressum.htm,06991000,,approved,2012-02-24T00:45:10.000+01:00,2012-02-24T20:18:52.000+01:00,fax,Banken,deutsche-bank,2012-02-24T00:45:10.000+01:00,bdsg34,,,,,[9]
621,Deutsche Kreditbank AG,Taubenstraße 7–9,10117,Berlin,info@dkb.de,https://www.dkb.de/,https://www.dkb.de/info/impressum/,03012030000,,approved,2012-02-24T10:45:49.000+01:00,2012-02-24T15:38:16.000+01:00,fax,Banken,deutsche-kreditbank,2012-02-24T10:45:49.000+01:00,bdsg34,,,,,[9]
182,Deutsche Postbank AG,Friedrich-Ebert-Allee 114-126,53113,Bonn,,http://www.postbank.de,http://www.postbank.de/postbank/wu_impressum.html,02289200,,approved,2012-02-09T20:11:04.000+01:00,2012-02-24T01:24:57.000+01:00,fax,Banken,postbank,2012-02-09T20:11:04.000+01:00,bdsg34,,,,,[9]
3421,Fidor Bank AG,Sandstr. 33,80335,München,info@fidor.de,https://www.fidor.de,https://www.fidor.de/help,089189085233,"Hinweise zum Datenschutz: https://www.fidor.de/document-center/privacy-policy
Dort unter ""Auskunftsrecht"": ""Sie haben jederzeit das Recht auf Auskunft über die bezüglich Ihrer Person gespeicherten Daten, deren Herkunft und Empfänger sowie den Zweck der Datenverarbeitung.""",approved,2018-01-10T14:57:48.209+01:00,2018-05-15T11:22:28.597+02:00,fax,Banken,fidor,2018-05-15T11:22:28.594+02:00,bdsg34,Datenschutzbeauftragter,,,,[9]
270,Förde Sparkasse,Lorentzendamm 28-30,24103,Kiel,,http://www.foerde-sparkasse.de/,,04315923663,05.02.213 lt. Mail d. Datenschutzbeauftragten umgestellt auf manual,approved,2012-02-23T23:59:13.000+01:00,2013-03-05T12:47:06.000+01:00,manual,Banken,,2012-02-23T23:59:13.000+01:00,bdsg34,,,,,[9]
348,Frankfurter Sparkasse,Neue Mainzer Straße 47-53,60311,Frankfurt,,http://www.frankfurter-sparkasse.de/,,06926410,,approved,2012-02-23T23:59:59.000+01:00,2012-03-22T12:34:33.000+01:00,fax,Banken,,2012-02-23T23:59:59.000+01:00,bdsg34,,,,,[9]
769,GLS Gemeinschaftsbank eG,Christstraße 9,44789,Bochum,kundendialog@gls.de,http://www.gls.de/,,023457975100,,approved,2012-03-23T21:27:58.000+01:00,2013-06-06T01:17:36.000+02:00,fax,Banken,gls-bank,2013-06-06T01:17:36.000+02:00,bdsg34,,,,,[9]
538,Hamburger Sparkasse (Haspa),Ecke Adolphsplatz / Gr. Burstah,20457,Hamburg,,http://www.haspa.de/,,,,approved,2012-02-24T00:00:13.000+01:00,2012-02-24T00:06:55.000+01:00,fax,Banken,,2012-02-24T00:00:13.000+01:00,bdsg34,,,,,[9]
363,Herner Sparkasse,Berliner Platz 1,44623,Herne,,http://www.herner-sparkasse.de/,,023235900,,approved,2012-02-24T00:00:00.000+01:00,2012-02-24T00:00:00.000+01:00,fax,Banken,,2012-02-24T00:00:00.000+01:00,bdsg34,,,,,[9]
623,Ikano Bank GmbH,Otto-von-Guericke-Ring 15,65205,Wiesbaden ,kontakt@ikanobank.de,http://www.ikanobank.de/,http://www.ikanobank.de/impressum.htm,061229990,,approved,2012-02-24T10:49:32.000+01:00,2012-02-24T20:18:28.000+01:00,fax,Banken,ikano-bank,2012-02-24T20:18:28.000+01:00,bdsg34,,,,,[9]
622,ING-DiBa AG,Theodor-Heuss-Allee 106,60486,Frankfurt am Main,,https://www.ing-diba.de/,https://www.ing-diba.de/impressum/,06950500105,,approved,2012-02-24T10:48:14.000+01:00,2012-02-24T15:40:52.000+01:00,fax,Banken,ing-diba,2012-02-24T10:48:14.000+01:00,bdsg34,,,,,[9]
532,Kasseler Sparkasse,Wolfsschlucht 9,34117,Kassel,,http://www.kasseler-sparkasse.de/,,0561712456789,01.03.2013: lt. Mail d. Datenschutzbeauftragten umgestellt auf manual,approved,2012-02-24T00:00:13.000+01:00,2013-03-01T09:39:57.000+01:00,manual,Banken,,2012-02-24T00:00:13.000+01:00,bdsg34,,,,,[9]
536,Kreissparkasse Ahrweiler,Wilhelmstraße 1-7,53474,Bad Neuenahr-Ahrweiler,,http://www.ksk-ahrweiler.de/,,026413800,,approved,2012-02-24T00:00:13.000+01:00,2012-02-24T00:00:13.000+01:00,fax,Banken,,2012-02-24T00:00:13.000+01:00,bdsg34,,,,,[9]
278,Kreissparkasse Altenkirchen,Schloßplatz 1,57610,Altenkirchen,,http://www.kreissparkassealtenkirchen.de/,,02681870,08.02.2013: Lt. Mail d. Datenschutzbeauftragten umgestellt auf manual.,approved,2012-02-23T23:59:14.000+01:00,2013-02-08T14:25:34.000+01:00,manual,Banken,,2012-02-23T23:59:14.000+01:00,bdsg34,,,,,[9]
591,Kreissparkasse Anhalt-Zerbst,Alte Brücke 45,39261,Zerbst,,http://www.ksk-anhalt-zerbst.de/,,039237590,,approved,2012-02-24T00:00:17.000+01:00,2012-02-24T00:00:17.000+01:00,fax,Banken,,2012-02-24T00:00:17.000+01:00,bdsg34,,,,,[9]
355,Kreissparkasse Aue-Schwarzenberg,Altmarkt 6,08280,Aue,,http://www.sparkasse-aue-schwarzenberg.de/,,03771100,,approved,2012-02-23T23:59:59.000+01:00,2012-02-23T23:59:59.000+01:00,fax,Banken,,2012-02-23T23:59:59.000+01:00,bdsg34,,,,,[9]
202,Kreissparkasse Augsburg,Martin-Luther-Platz 5,86150,Augsburg,,http://www.kreissparkasse-augsburg.de,,082132510,,approved,2012-02-23T00:19:24.000+01:00,2012-02-23T00:19:24.000+01:00,fax,Banken,,2012-02-23T00:19:24.000+01:00,bdsg34,,,,,[9]
548,Kreissparkasse Bautzen,Kornmarkt 1,02625,Bautzen,,http://www.ksk-bautzen.de/,,0359135650,,approved,2012-02-24T00:00:14.000+01:00,2012-02-24T00:00:14.000+01:00,fax,Banken,,2012-02-24T00:00:14.000+01:00,bdsg34,,,,,[9]
596,Kreissparkasse Bersenbrück,Lindenstrasse 4,49593,Bersenbrück,,http://www.ksk-bersenbrueck.de/,,05439630,12.02.2013: lt. Mail d. Datenschutzbeauftragten umgestellt auf manual,approved,2012-02-24T00:00:17.000+01:00,2013-02-12T14:13:30.000+01:00,manual,Banken,,2012-02-24T00:00:17.000+01:00,bdsg34,,,,,[9]
522,Kreissparkasse Biberach,Zeppelinring 27-29,88400,Biberach,,http://www.ksk-bc.de/,,073515700,05.02.2013 lt. Mail d. Datenschutzbeauftragten umgestellt auf manual,approved,2012-02-24T00:00:13.000+01:00,2013-03-05T12:49:31.000+01:00,manual,Banken,,2012-02-24T00:00:13.000+01:00,bdsg34,,,,,[9]
430,Kreissparkasse Birkenfeld,Auf der Idar 2,55743,Idar-Oberstein,,http://www.ksk-birkenfeld.de/,,06781601223,07.02.2013: lt. Mail umgestellt auf manual,approved,2012-02-24T00:00:07.000+01:00,2013-02-07T09:45:00.000+01:00,manual,Banken,,2012-02-24T00:00:07.000+01:00,bdsg34,,,,,[9]
486,Kreissparkasse Bitburg-Prüm,Trierer Straße 46,54634,Bitburg,,http://www.kskbitburg-pruem.de/,,0656116138,,approved,2012-02-24T00:00:10.000+01:00,2013-03-27T11:16:49.000+01:00,manual,Banken,,2012-02-24T00:00:10.000+01:00,bdsg34,,,,,[9]
356,Kreissparkasse Bitterfeld,Lindenstraße 27,06749,Bitterfeld,,http://www.ksk-bitterfeld.de/,,03493390,,approved,2012-02-23T23:59:59.000+01:00,2012-02-23T23:59:59.000+01:00,fax,Banken,,2012-02-23T23:59:59.000+01:00,bdsg34,,,,,[9]
279,Kreissparkasse Böblingen,Wolfgang-Brumme-Allee 1,71034,Böblingen,,https://www.kskbb.de/,,07031771000,,approved,2012-02-23T23:59:14.000+01:00,2012-02-23T23:59:14.000+01:00,fax,Banken,,2012-02-23T23:59:14.000+01:00,bdsg34,,,,,[9]
572,Kreissparkasse Börde,Lindenstraße 17-18,39287,Oschersleben,,http://www.boerdesparkasse.de/,,039499110,,approved,2012-02-24T00:00:15.000+01:00,2012-02-24T00:05:34.000+01:00,fax,Banken,,2012-02-24T00:00:15.000+01:00,bdsg34,,,,,[9]
272,Kreissparkasse Döbeln,Ritterstraße 51,04720,Döbeln,,http://www.sparkasse-doebeln.de/,,034315773,,approved,2012-02-23T23:59:13.000+01:00,2012-02-23T23:59:13.000+01:00,fax,Banken,,2012-02-23T23:59:13.000+01:00,bdsg34,,,,,[9]
616,Kreissparkasse Düsseldorf,Kasernenstr. 69,40213,Düsseldorf,,http://www.kreissparkasse-duesseldorf.de/,,02118730,,approved,2012-02-24T00:10:58.000+01:00,2012-02-24T00:11:35.000+01:00,fax,Banken,,2012-02-24T00:10:58.000+01:00,bdsg34,,,,,[9]
509,Kreissparkasse Eichsfeld,Franz-Weinrich-Str. 1,37339,Leinefelde-Worbis,,http://www.kreissparkasse-eichsfeld.de/,,036074910,,approved,2012-02-24T00:00:12.000+01:00,2016-01-22T14:22:59.000+01:00,fax,Banken,,2012-02-24T00:00:12.000+01:00,bdsg34,,,,,[9]
589,Kreissparkasse Esslingen-Nürtingen,Bahnhofstraße 8,73728,Esslingen,,http://www.ksk-es.de/,,07113985000,,approved,2012-02-24T00:00:16.000+01:00,2012-02-24T00:00:16.000+01:00,fax,Banken,,2012-02-24T00:00:16.000+01:00,bdsg34,,,,,[9]
317,Kreissparkasse Fallingbostel in Walsrode,Moorstraße 1,29664,Walsrode,,http://www.ksk-walsrode.de/,,051616010,15.02.2013: lt. Mail d. Datenschutzbeauftragten umgestellt auf manual.,approved,2012-02-23T23:59:57.000+01:00,2013-02-15T09:37:20.000+01:00,manual,Banken,,2012-02-23T23:59:57.000+01:00,bdsg34,,,,,[9]
516,Kreissparkasse Freiberg,Poststraße 1a,09599,Freiberg,,http://www.spk-freiberg.de/,,03731250,,approved,2012-02-24T00:00:12.000+01:00,2012-02-24T00:00:12.000+01:00,fax,Banken,,2012-02-24T00:00:12.000+01:00,bdsg34,,,,,[9]
298,Kreissparkasse Freudenstadt,Stuttgarter Straße 31,72250,Freudenstadt,,http://www.ksk-fds.de/,,074415330,,approved,2012-02-23T23:59:16.000+01:00,2012-02-23T23:59:16.000+01:00,fax,Banken,,2012-02-23T23:59:16.000+01:00,bdsg34,,,,,[9]
226,Kreissparkasse Garmisch-Partenkirchen,Bahnhofstr. 40+42,82467,Garmisch-Partenkirchen,,http://www.sparkasse-garmisch.de,,088217070,,approved,2012-02-23T00:19:25.000+01:00,2012-02-23T00:19:25.000+01:00,fax,Banken,,2012-02-23T00:19:25.000+01:00,bdsg34,,,,,[9]
518,Kreissparkasse Gelnhausen,Barbarossastraße 2,63571,Gelnhausen,,http://www.ksk-gelnhausen.de/,,060518250,,approved,2012-02-24T00:00:12.000+01:00,2012-02-24T00:00:12.000+01:00,fax,Banken,,2012-02-24T00:00:12.000+01:00,bdsg34,,,,,[9]
281,Kreissparkasse Göppingen,Marktstraße 2,73033,Göppingen,,http://www.ksk-gp.de/,,071616030,,approved,2012-02-23T23:59:14.000+01:00,2012-02-23T23:59:14.000+01:00,fax,Banken,,2012-02-23T23:59:14.000+01:00,bdsg34,,,,,[9]
341,Kreissparkasse Gotha,Lutherstraße 2-4,99867,Gotha,,http://www.kreissparkasse-gotha.de/,,036212210,,approved,2012-02-23T23:59:58.000+01:00,2012-02-23T23:59:58.000+01:00,fax,Banken,,2012-02-23T23:59:58.000+01:00,bdsg34,,,,,[9]
512,Kreissparkasse Grafschaft Bentheim zu Nordhorn,Bahnhofstraße 11,48529,Nordhorn,,http://www.sparkasse-nordhorn.de/,,05921980,06.02.2013: lt. Mail d. Datenschutzbeauftragten umgestellt auf manual,approved,2012-02-24T00:00:12.000+01:00,2013-03-05T12:51:14.000+01:00,manual,Banken,,2012-02-24T00:00:12.000+01:00,bdsg34,,,,,[9]
307,Kreissparkasse Grafschaft Diepholz,Wellestraße 24,49356,Diepholz,,http://www.kreissparkasse-diepholz.de/,,05441910,,approved,2012-02-23T23:59:16.000+01:00,2012-02-23T23:59:16.000+01:00,fax,Banken,,2012-02-23T23:59:16.000+01:00,bdsg34,,,,,[9]
373,Kreissparkasse Groß-Gerau,Darmstädter Straße 22,64521,Groß-Gerau,,http://www.kskgg.de/,,061527131,,approved,2012-02-24T00:00:00.000+01:00,2012-02-24T00:00:00.000+01:00,fax,Banken,,2012-02-24T00:00:00.000+01:00,bdsg34,,,,,[9]
291,Kreissparkasse Halberstadt,Domplatz 12,38820,Halberstadt,,http://www.sparkasse-halberstadt.de/,,0394143101,,approved,2012-02-23T23:59:15.000+01:00,2012-02-23T23:59:15.000+01:00,fax,Banken,,2012-02-23T23:59:15.000+01:00,bdsg34,,,,,[9]
342,Kreissparkasse Halle (Westf.),Bahnhofstraße 27,33790,Halle,,http://www.kskhalle.de/,,052018930,,approved,2012-02-23T23:59:58.000+01:00,2012-02-23T23:59:58.000+01:00,fax,Banken,,2012-02-23T23:59:58.000+01:00,bdsg34,,,,,[9]
412,Kreissparkasse Heidenheim,Schnaitheimer Straße 12,89520,Heidenheim,,http://www.ksk-heidenheim.de/,,073213440,"31.01.2013: Lt. Mail d. Datenschutzbeauftragten umgestellt auf: ""manual""",approved,2012-02-24T00:00:06.000+01:00,2013-03-05T12:52:02.000+01:00,manual,Banken,,2012-02-24T00:00:06.000+01:00,bdsg34,,,,,[9]
599,Kreissparkasse Heilbronn,Am Wollhaus 14,74072,Heilbronn,,http://www.ksk-hn.de/,,071316380,,approved,2012-02-24T00:00:17.000+01:00,2012-02-24T00:00:17.000+01:00,fax,Banken,,2012-02-24T00:00:17.000+01:00,bdsg34,,,,,[9]
328,Kreissparkasse Heinsberg,Dr.-Eberle-Platz 1,41812,Erkelenz,,http://www.kreissparkasse-heinsberg.de/,,024318040,,approved,2012-02-23T23:59:57.000+01:00,2012-02-23T23:59:57.000+01:00,fax,Banken,,2012-02-23T23:59:57.000+01:00,bdsg34,,,,,[9]
402,Kreissparkasse Herzogtum Lauenburg,Am Markt 4-5,23909,Ratzeburg,,http://www.ksk-ratzeburg.de/,,01801223311,,approved,2012-02-24T00:00:05.000+01:00,2012-02-24T00:00:05.000+01:00,fax,Banken,,2012-02-24T00:00:05.000+01:00,bdsg34,,,,,[9]
295,Kreissparkasse Hildburghausen,Friedrich-Rückert-Straße 14-18,98646,Hildburghausen,,http://www.sparkasse-hildburghausen.de/,,036857750,05.02.2013 lt. Mail d. Datenschutzbeauftragten umgestellt auf manual,approved,2012-02-23T23:59:15.000+01:00,2013-03-05T12:53:41.000+01:00,manual,Banken,,2012-02-23T23:59:15.000+01:00,bdsg34,,,,,[9]
230,Kreissparkasse Höchstadt a. d. Aisch,Marktplatz 1,91315,Höchstadt/Aisch,,http://www.kreissparkassehoechstadt.de,,09193300,,approved,2012-02-23T00:19:25.000+01:00,2012-02-23T00:19:25.000+01:00,fax,Banken,,2012-02-23T00:19:25.000+01:00,bdsg34,,,,,[9]
408,Kreissparkasse Kaiserslautern,Am Altenhof 12-14,67655,Kaiserslautern,,http://www.kskkl.de/,,063136360,,approved,2012-02-24T00:00:05.000+01:00,2012-02-24T00:00:05.000+01:00,fax,Banken,,2012-02-24T00:00:05.000+01:00,bdsg34,,,,,[9]
233,Kreissparkasse Kelheim,Schäfflerstr. 3,93309,Kelheim,,http://www.kreissparkasse-kelheim.de,,094412990,,approved,2012-02-23T00:19:25.000+01:00,2012-02-23T00:19:25.000+01:00,fax,Banken,,2012-02-23T00:19:25.000+01:00,bdsg34,,,,,[9]
301,Kreissparkasse Köln,Neumarkt 18-24,50667,Köln,,http://www.ksk-koeln.de/,,022122701,,approved,2012-02-23T23:59:16.000+01:00,2012-02-23T23:59:16.000+01:00,fax,Banken,,2012-02-23T23:59:16.000+01:00,bdsg34,,,,,[9]
413,Kreissparkasse Kusel,Gartenstraße4,66869,Kusel,,http://www.ksk-kusel.de/,,063819110,05.03.2013: lt. Mail d. Datenschutzbeauftragten umgestellt auf manual.,approved,2012-02-24T00:00:06.000+01:00,2013-03-05T11:12:37.000+01:00,manual,Banken,,2012-02-24T00:00:06.000+01:00,bdsg34,,,,,[9]
440,Kreissparkasse Limburg,Schiede 41,65549,Limburg a.d. Lahn,,http://www.ksk-limburg.de/,,064312020,,approved,2012-02-24T00:00:07.000+01:00,2012-02-24T00:00:07.000+01:00,fax,Banken,,2012-02-24T00:00:07.000+01:00,bdsg34,,,,,[9]
299,Kreissparkasse Ludwigsburg,Schillerplatz 6,71638,Ludwigsburg,,http://www.ksklb.de/,,071411480,,approved,2012-02-23T23:59:16.000+01:00,2012-02-23T23:59:16.000+01:00,fax,Banken,,2012-02-23T23:59:16.000+01:00,bdsg34,,,,,[9]
325,Kreissparkasse Luechow-Dannenberg,Mühlentor 1-3,29451,Dannenberg,,http://www.ksk-luechow-dannenberg.de/,,058619820,21.02.2013: lt. Mail d. Datenschutzbeauftragten inzwischen fusioniert zu Sparkasse Uelzen Lüchow-Dannenberg,blocked,2012-02-23T23:59:57.000+01:00,2013-02-21T14:58:52.000+01:00,,Banken,,2012-02-23T23:59:57.000+01:00,bdsg34,,,,,[9]
562,Kreissparkasse Mayen,St.Veit-Straße 22-24,56727,Mayen,,http://www.kskmayen.de/,,02651870,,approved,2012-02-24T00:00:15.000+01:00,2012-02-24T00:00:15.000+01:00,fax,Banken,,2012-02-24T00:00:15.000+01:00,bdsg34,,,,,[9]
613,Kreissparkasse Melle,Mühlenstraße 28,49324,Melle,,http://www.ksk-melle.de/,,054221021,,approved,2012-02-24T00:00:18.000+01:00,2012-02-24T00:00:18.000+01:00,fax,Banken,,2012-02-24T00:00:18.000+01:00,bdsg34,,,,,[9]
239,Kreissparkasse Miesbach-Tegernsee,Bahnhofplatz 2,83714,Miesbach,,http://www.ksk-mbteg.de,,080252890,,approved,2012-02-23T00:19:25.000+01:00,2012-02-23T00:19:25.000+01:00,fax,Banken,,2012-02-23T00:19:25.000+01:00,bdsg34,,,,,[9]
496,Kreissparkasse Mittweida,Neustadt 2,09648,Mittweida,,http://www.ksk-mittweida.de/,,037279540,,approved,2012-02-24T00:00:11.000+01:00,2012-02-24T00:00:11.000+01:00,fax,Banken,,2012-02-24T00:00:11.000+01:00,bdsg34,,,,,[9]
243,Kreissparkasse München Starnberg Ebersberg,Sendlinger-Tor-Platz 1,80336,München,,http://www.kskms.de,,089238010,,approved,2012-02-23T00:19:25.000+01:00,2012-02-23T00:19:25.000+01:00,fax,Banken,,2012-02-23T00:19:25.000+01:00,bdsg34,,,,,[9]
580,Kreissparkasse Nordhausen,Kornmarkt 9,99734,Nordhausen,,http://www.kreissparkasse-nordhausen.de/,,036314280,,approved,2012-02-24T00:00:16.000+01:00,2012-02-24T00:00:16.000+01:00,fax,Banken,,2012-02-24T00:00:16.000+01:00,bdsg34,,,,,[9]
292,Kreis-Sparkasse Northeim,Am Münster 29,37154,Northeim,,http://www.ksn-northeim.de/,,055517090,05.02.2013 lt. Mail d. Datenschutzbeauftragten umgestellt auf manual,approved,2012-02-23T23:59:15.000+01:00,2013-03-05T12:48:28.000+01:00,manual,Banken,,2012-02-23T23:59:15.000+01:00,bdsg34,,,,,[9]
397,Kreissparkasse Ostalb,Katharinenstraße 2,73525,Schwäbisch Gmünd,,http://www.ksk-ostalb.de/,,071716080,"04.02.2013: Lt. Mail d. Datenschutzbeauftragten umgestellt von Faxversand auf ""manual"".",approved,2012-02-24T00:00:05.000+01:00,2013-03-05T12:54:52.000+01:00,manual,Banken,,2012-02-24T00:00:05.000+01:00,bdsg34,,,,,[9]
461,Kreissparkasse Osterholz,Bahnhofstraße 45,27711,Osterholz-Scharmbeck,,http://www.kreissparkasse-osterholz.de/,,04791150,,approved,2012-02-24T00:00:08.000+01:00,2012-02-24T00:00:08.000+01:00,fax,Banken,,2012-02-24T00:00:08.000+01:00,bdsg34,,,,,[9]
451,Kreissparkasse Peine,Celler Straße 25,31224,Peine,,http://www.ksk-peine.de/,,05171420,,approved,2012-02-24T00:00:08.000+01:00,2012-02-24T00:00:08.000+01:00,fax,Banken,,2012-02-24T00:00:08.000+01:00,bdsg34,,,,,[9]
310,Kreissparkasse Quedlinburg,Turnstraße 8,06484,Quedlinburg,,http://www.sparkasse-quedlinburg.de/,,039469050,,approved,2012-02-23T23:59:16.000+01:00,2012-02-23T23:59:16.000+01:00,fax,Banken,,2012-02-23T23:59:16.000+01:00,bdsg34,,,,,[9]
309,Kreissparkasse Ravensburg,Meersburgerstraße 1,88213,Ravensburg,,http://www.kreissparkasse-ravensburg.de/,,07518410,05.02.2013 lt. Mail d. Datenschutzbeauftragten umgestellt auf manual,approved,2012-02-23T23:59:16.000+01:00,2013-03-05T12:55:31.000+01:00,manual,Banken,,2012-02-23T23:59:16.000+01:00,bdsg34,,,,,[9]
546,Kreissparkasse Reutlingen,Tübinger Straße 74,72762,Reutlingen,,http://www.ksk-reutlingen.de/,,071213310,08.02.2013: lt. Mail d. Datenschutzbeauftragten umgestellt auf manual,approved,2012-02-24T00:00:14.000+01:00,2013-02-08T15:12:10.000+01:00,manual,Banken,,2012-02-24T00:00:14.000+01:00,bdsg34,,,,,[9]
409,Kreissparkasse Rhein-Hunsrück,Vor dem Tor 1,55469,Simmern,,https://www.kskrh.de,,067618510,,approved,2012-02-24T00:00:05.000+01:00,2017-01-27T13:21:37.000+01:00,fax,Banken,,2012-02-24T00:00:05.000+01:00,bdsg34,,,,,[9]
444,Kreissparkasse Rhein-Pfalz,Berliner Platz 2,67059,Ludwigshafen,,http://www.kreissparkasse-rhein-pfalz.de/,,062159880,,approved,2012-02-24T00:00:07.000+01:00,2012-02-24T00:00:07.000+01:00,fax,Banken,,2012-02-24T00:00:07.000+01:00,bdsg34,,,,,[9]
537,Kreissparkasse Rottweil,Königstraße 44,78628,Rottweil,,http://www.sparkasse-rottweil.de/,,07412420,,approved,2012-02-24T00:00:13.000+01:00,2012-02-24T00:00:13.000+01:00,fax,Banken,,2012-02-24T00:00:13.000+01:00,bdsg34,,,,,[9]
541,Kreissparkasse Saale-Orla,Am Sparkassenplatz 1,07907,Schleiz,,http://www.kreissparkasse-saale-orla.de/,,036634610,,approved,2012-02-24T00:00:14.000+01:00,2012-02-24T00:00:14.000+01:00,fax,Banken,,2012-02-24T00:00:14.000+01:00,bdsg34,,,,,[9]
467,Kreissparkasse Saalfeld-Rudolstadt,Markt 20,07318,Saalfeld,,http://www.sparkasse-saalfeld-rudolstadt.de/,,036718880,,approved,2012-02-24T00:00:09.000+01:00,2012-02-24T00:00:09.000+01:00,fax,Banken,,2012-02-24T00:00:09.000+01:00,bdsg34,,,,,[9]
424,Kreissparkasse Schlüchtern,Obertorstraße45,36381,Schlüchtern,,http://www.ksk-schluechtern.de/,,06661880,,approved,2012-02-24T00:00:06.000+01:00,2012-02-24T00:00:06.000+01:00,fax,Banken,,2012-02-24T00:00:06.000+01:00,bdsg34,,,,,[9]
261,Kreissparkasse Schongau,Münzstr. 36,86956,Schongau,,http://www.sparkasse-schongau.de,,08861216888,,approved,2012-02-23T00:19:25.000+01:00,2012-02-23T00:19:25.000+01:00,fax,Banken,,2012-02-23T00:19:25.000+01:00,bdsg34,,,,,[9]
289,Kreissparkasse Schwalm-Eder,Sparkassenplatz 1,34212,Melsungen,,http://www.kreissparkasse-schwalm-eder.de/,,056617070,05.02.2013 lt. Mail d. Datenschutzbeauftragten umgestellt auf manual,approved,2012-02-23T23:59:14.000+01:00,2013-03-05T12:56:24.000+01:00,manual,Banken,,2012-02-23T23:59:14.000+01:00,bdsg34,,,,,[9]
498,Kreissparkasse Sigmaringen - Hohenzollerische LB,Leopoldplatz 5,72488,Sigmaringen,,http://www.ksk-sigmaringen.de/,,075711030,05.02.2013 lt. Mail d. Datenschutzbeauftragten umgestellt auf manual,approved,2012-02-24T00:00:11.000+01:00,2013-03-05T12:56:52.000+01:00,manual,Banken,,2012-02-24T00:00:11.000+01:00,bdsg34,,,,,[9]
314,Kreissparkasse Soltau,Rühberg 9-11,29614,Soltau,,http://www.ksk-soltau.de/,,05191860,,approved,2012-02-23T23:59:57.000+01:00,2012-02-23T23:59:57.000+01:00,fax,Banken,,2012-02-23T23:59:57.000+01:00,bdsg34,,,,,[9]
634,Kreissparkasse Stade ,Große Schmiedestraße 12 ,21682,Stade,info@ksk-stade.de,https://www.ksk-stade.de/,https://www.ksk-stade.de/module/static/impressum/index.php?n=%2Fmodule%2Fstatic%2Fimpressum%2F&IFLBSERVERID=IF@@024@@IF,041411090,"Nicht(!) identisch mit Sparkasse Stade - Altes Land

06.02.2013: lt. Mail d. Datenschutzbeauftragten  umgestellt auf manual",approved,2012-02-24T14:53:30.000+01:00,2013-03-05T12:57:26.000+01:00,manual,Banken,kreissparkasse-stade,2012-02-24T14:53:30.000+01:00,bdsg34,,,,,[9]
593,Kreissparkasse Steinfurt,Bachstrasse 14,49477,Ibbenbüren,,http://www.ksk-steinfurt.de/,,054515510000,11.02.2013: lt. Mail d. Datenschutzbeauftragten umgestellt aus manual,approved,2012-02-24T00:00:17.000+01:00,2013-02-11T14:33:49.000+01:00,manual,Banken,,2012-02-24T00:00:17.000+01:00,bdsg34,,,,,[9]
455,Kreissparkasse Stendal,Arneburger Straße 28,39576,Stendal,,http://www.ksk-stendal.de/,,039316030,,approved,2012-02-24T00:00:08.000+01:00,2012-02-24T00:00:08.000+01:00,fax,Banken,,2012-02-24T00:00:08.000+01:00,bdsg34,,,,,[9]
534,Kreissparkasse Syke,Mühlendamm 4,28857,Syke,,http://www.ksk-syke.de/,,042421610,,approved,2012-02-24T00:00:13.000+01:00,2012-02-24T00:00:13.000+01:00,fax,Banken,,2012-02-24T00:00:13.000+01:00,bdsg34,,,,,[9]
354,Kreissparkasse Torgau-Oschatz,Blomberger Straße 2,04758,Oschatz,,http://www.sparkasse-torgau-oschatz.de/,,034359740,07.02.2013: lt. Mail fusioniert mit Sparkasse Leipzig,blocked,2012-02-23T23:59:59.000+01:00,2013-02-07T14:04:05.000+01:00,,Banken,,2012-02-23T23:59:59.000+01:00,bdsg34,,,,,[9]
265,Kreissparkasse Traunstein-Trostberg,Ludwig-Thoma-Str. 4,83278,Traunstein,,http://www.spk-ts.de,,0861660,,approved,2012-02-23T00:19:25.000+01:00,2012-02-23T00:19:25.000+01:00,fax,Banken,,2012-02-23T00:19:25.000+01:00,bdsg34,,,,,[9]
554,Kreissparkasse Tübingen,Am Lustnauer Tor 3,72074,Tübingen,,http://www.ksk-tuebingen.de/,,070712051296,,approved,2012-02-24T00:00:14.000+01:00,2012-02-24T00:00:14.000+01:00,fax,Banken,,2012-02-24T00:00:14.000+01:00,bdsg34,,,,,[9]
571,Kreissparkasse Tuttlingen,Bahnhofstraße 89,78532,Tuttlingen,,http://www.ksk-tut.de/,,074617000,05.02.2013 lt. Mail d. Datenschutzbeauftragten umgestellt auf manual,approved,2012-02-24T00:00:15.000+01:00,2013-03-05T12:58:33.000+01:00,manual,Banken,,2012-02-24T00:00:15.000+01:00,bdsg34,,,,,[9]
337,Kreissparkasse Verden,Ostertorstraße 16,27283,Verden,,http://www.ksk-verden.de/,,04231160,,approved,2012-02-23T23:59:58.000+01:00,2012-02-23T23:59:58.000+01:00,fax,Banken,,2012-02-23T23:59:58.000+01:00,bdsg34,,,,,[9]
493,Kreissparkasse Vulkaneifel,Leopoldstraße 13,54550,Daun,,http://www.ksk-vulkaneifel.de/,,065929350,,approved,2012-02-24T00:00:11.000+01:00,2012-02-24T00:00:11.000+01:00,fax,Banken,,2012-02-24T00:00:11.000+01:00,bdsg34,,,,,[9]
577,Kreissparkasse Weilburg,Odersbacher Weg 1,35781,Weilburg,,http://www.ksk-weilburg.de/,,064713120,08.02.2013: lt. mail d. Datenschutzbeauftragten umgestellt auf manual,approved,2012-02-24T00:00:16.000+01:00,2013-02-08T09:52:28.000+01:00,manual,Banken,,2012-02-24T00:00:16.000+01:00,bdsg34,,,,,[9]
540,Kreissparkasse Wernigerode,Gustav-Petri-Straße 8,38855,Wernigerode,,http://www.sparkasse-wernigerode.de/,,039436580,,approved,2012-02-24T00:00:14.000+01:00,2012-02-24T00:00:14.000+01:00,fax,Banken,,2012-02-24T00:00:14.000+01:00,bdsg34,,,,,[9]
387,Kreissparkasse Wesermünde-Hadeln,Friedrich-Ebert-Straße 64,27570,Bremerhaven,,http://www.ksk-wesermuende-hadeln.de/,,04711440,,approved,2012-02-24T00:00:01.000+01:00,2012-02-24T00:00:01.000+01:00,fax,Banken,,2012-02-24T00:00:01.000+01:00,bdsg34,,,,,[9]
285,Kreissparkasse Westerwald,Bismarckstraße 16,56470,Bad Marienberg,,http://www.ksk-westerwald.de/,,026616200,,approved,2012-02-23T23:59:14.000+01:00,2012-02-23T23:59:14.000+01:00,fax,Banken,,2012-02-23T23:59:14.000+01:00,bdsg34,,,,,[9]
364,Kreissparkasse Wiedenbrück,Wasserstraße 8-12,33378,Rheda-Wiedenbrück,,http://www.kskwd.de/,,052425990,,approved,2012-02-24T00:00:00.000+01:00,2012-02-24T00:00:00.000+01:00,fax,Banken,,2012-02-24T00:00:00.000+01:00,bdsg34,,,,,[9]
504,Kreissparkasse Wittmund,Dohuser Weg 34,26409,Wittmund,,http://www.sparkasse-wittmund.de/,,044629870,,approved,2012-02-24T00:00:11.000+01:00,2012-02-24T00:00:11.000+01:00,fax,Banken,,2012-02-24T00:00:11.000+01:00,bdsg34,,,,,[9]
214,Kreis- und Stadtsparkasse Dillingen a. d. Donau,Königstr. 36,89407,Dillingen/Donau,,http://www.sparkasse-dillingen.de,,090715040,,approved,2012-02-23T00:19:24.000+01:00,2012-02-23T00:19:24.000+01:00,fax,Banken,,2012-02-23T00:19:24.000+01:00,bdsg34,,,,,[9]
215,Kreis- und Stadtsparkasse Dinkelsbühl,Mönchsrother Str. 3,91550,Dinkelsbühl,,http://www.sparkasse-dinkelsbuehl.de,,098519080,,approved,2012-02-23T00:19:24.000+01:00,2012-02-23T00:19:24.000+01:00,fax,Banken,,2012-02-23T00:19:24.000+01:00,bdsg34,,,,,[9]
218,Kreis- und Stadtsparkasse Erding-Dorfen,Alois-Schießl-Platz 4,85435,Erding,,http://www.spked.de,,0812255110,,approved,2012-02-23T00:19:24.000+01:00,2012-02-23T00:19:24.000+01:00,fax,Banken,,2012-02-23T00:19:24.000+01:00,bdsg34,,,,,[9]
445,Kreis- und Stadtsparkasse Hof,Sonnenplatz 6,95028,Hof,,http://www.sparkasse-hof.de/,,092818170,,approved,2012-02-24T00:00:07.000+01:00,2012-02-24T00:00:07.000+01:00,fax,Banken,,2012-02-24T00:00:07.000+01:00,bdsg34,,,,,[9]
232,Kreis- und Stadtsparkasse Kaufbeuren,Ludwigstr. 26,87600,Kaufbeuren,,http://www.sparkasse-kaufbeuren.de,,083418080,,approved,2012-02-23T00:19:25.000+01:00,2012-02-24T00:07:41.000+01:00,fax,Banken,,2012-02-23T00:19:25.000+01:00,bdsg34,,,,,[9]
336,Kreis- und Stadtsparkasse Speyer,Wormser Straße 39,67343,Speyer,,http://www.sparkasse-speyer.de/,,062321030,,approved,2012-02-23T23:59:58.000+01:00,2012-02-23T23:59:58.000+01:00,fax,Banken,,2012-02-23T23:59:58.000+01:00,bdsg34,,,,,[9]
266,Kreis- und Stadtsparkasse Wasserburg am Inn,Rosenheimer Str. 1-2,83512,Wasserburg/Inn,,http://www.sparkassewasserburg.de,,080711010,,approved,2012-02-23T00:19:25.000+01:00,2012-02-23T00:19:25.000+01:00,fax,Banken,,2012-02-23T00:19:25.000+01:00,bdsg34,,,,,[9]
542,Kyffhäusersparkasse Artern-Sondershausen,Ulrich-von-Hutten-Straße 19,99706,Sondershausen,,http://www.kyffhaeusersparkasse.de/,,036326580,,approved,2012-02-24T00:00:14.000+01:00,2012-02-24T00:18:58.000+01:00,fax,Banken,,2012-02-24T00:00:14.000+01:00,bdsg34,,,,,[9]
485,Landesbank Baden-Württemberg - Datenschutz,Am Hauptbahnhof 2,70173,Stuttgart,,http://www.lbbw.de/,,07111270,"""Da der Landesbank Baden-Württemberg der Datenschutz sehr wichtig ist,
lassen Sie bitte dieser Ihre Anfrage im Original und eigenhändig von Ihnen
unterschrieben
zukommen, um die Möglichkeit zu gewährleisten einen Abgleich mit
hinterlegten Identifikationsmerkmalen durchzuführen. Nutzen Sie bitte den
hier hinterlegten
Selbstauskunftsbogen als Ausdruck.
Unter Bezugnahme auf § 34 Absatz 1 Satz 2 BDSG bittet Sie die Landesbank
Baden-Württemberg
weiterhin um einen entsprechenden Hinweis, um welche Art von
personenbezogenen Daten
es Ihnen bei Ihrer Selbstauskunft geht bzw. in welcher Funktion Sie Kontakt
mit Ihr hatten
(z. B. Bankkunde, Lieferant, Bewerber, Mitarbeiter, Interessent usw.).""",approved,2012-02-24T00:00:10.000+01:00,2013-06-18T11:02:19.000+02:00,postal,Banken,,2012-02-24T00:00:10.000+01:00,bdsg34,,,,,[9]
754,Landesbank Berlin AG,Alexanderplatz 2,10178,Berlin,,http://www.lbb.de/,http://www.lbb.de/landesbank/de/hidden/impressum/index.html,030869801,,approved,2012-03-12T23:06:57.000+01:00,2013-05-08T09:57:28.000+02:00,manual,Banken,landesbank-berlin,2012-03-16T00:46:11.000+01:00,bdsg34,,,,,[9]
614,Landessparkasse zu Oldenburg,Berliner Platz 1,26123,Oldenburg,,http://www.lzo.com/,,04412300,(22.01.2014): Lt. Mail d. Datenschutzbeauftragten umgestellt auf manuell.,approved,2012-02-24T00:00:18.000+01:00,2014-01-22T10:54:16.000+01:00,manual,Banken,,2012-02-24T00:00:18.000+01:00,bdsg34,,,,,[9]
576,Landsparkasse Schenefeld,Holstenstraße 42-46,25560,Schenefeld,,http://www.landsparkasse.de/,,0489280080,,approved,2012-02-24T00:00:16.000+01:00,2012-02-24T00:00:16.000+01:00,fax,Banken,,2012-02-24T00:00:16.000+01:00,bdsg34,,,,,[9]
751,LBS Westdeutsche Landesbausparkasse,Himmelreichallee 40,48149,Münster,,,https://www.lbs.de/west/kontakt,025141202,,approved,2012-03-12T22:51:19.000+01:00,2012-03-16T00:44:22.000+01:00,fax,Banken,lbs,2012-03-16T00:44:22.000+01:00,bdsg34,,,,,[9]
799,Mercedes Benz Bank,Siemensstraße 7,70469,Stuttgart,kundenservice@mercedes-benz-bank.com,http://www.mercedes-benz-bank.de/,http://www.mercedes-benz-bank.de/intrade/cms/Kontakt.html?linkArea=fnavi-ep,071125740,,approved,2012-04-09T22:34:53.000+02:00,2013-05-26T22:58:00.000+02:00,fax,Banken,mercedes-benz-bank,2013-05-26T22:58:00.000+02:00,bdsg34,,,,,[9]
506,Mittelbrandenburgische Sparkasse in Potsdam,Saarmunder Straße 61,14478,Potsdam,,http://www.mbs-potsdam.de/,,0331890,,approved,2012-02-24T00:00:12.000+01:00,2012-02-24T00:00:12.000+01:00,fax,Banken,,2012-02-24T00:00:12.000+01:00,bdsg34,,,,,[9]
723,MLP Finanzdiensleistungen AG,Alte Heerstraße 40,69168,Wiesloch,info@mlp.de,http://www.mlp.de,http://www.mlp.de/#/mlp-finanzdienstleistungen-ag/kontakt,062223080,,approved,2012-03-05T11:19:26.000+01:00,2012-03-29T16:39:16.000+02:00,fax,"Banken, Versicherungen",mlp-finanzdienstleistungen-ag,2012-03-29T16:39:16.000+02:00,bdsg34,,,,,"[8, 9]"
441,Müritz-Sparkasse,Friedensstraße 9-10,17192,Waren (Müritz),,http://www.mueritz-sparkasse.de/,,039916360,,approved,2012-02-24T00:00:07.000+01:00,2012-02-24T00:00:07.000+01:00,fax,Banken,,2012-02-24T00:00:07.000+01:00,bdsg34,,,,,[9]
431,Nassauische Sparkasse,Rheinstrasse 42-46,65185,Wiesbaden,,http://www.naspa.de/,,06113640,,approved,2012-02-24T00:00:07.000+01:00,2012-02-24T00:00:07.000+01:00,fax,Banken,,2012-02-24T00:00:07.000+01:00,bdsg34,,,,,[9]
921,netbank AG,Max-Brauer-Allee 62-64,22765,Hamburg,datenschutz@netbank.de,http://www.netbank.de,http://www.netbank.de/nb/impressum.jsp,04038083888,,approved,2013-01-06T11:03:39.000+01:00,2013-05-21T02:59:50.000+02:00,fax,Banken,netbank,2013-05-21T02:59:50.000+02:00,bdsg34,,,,,[9]
276,Nord-Ostsee Sparkasse,Holm 22-28,24937,Flensburg,,http://www.nospa.de/,,046115005555,,approved,2012-02-23T23:59:13.000+01:00,2012-02-23T23:59:13.000+01:00,fax,Banken,,2012-02-23T23:59:13.000+01:00,bdsg34,,,,,[9]
479,Ohrekreis-Sparkasse,Hagenstraße 39,39340,Haldensleben,,http://www.ohrekreis-sparkasse.de/,,039044760,,approved,2012-02-24T00:00:10.000+01:00,2012-02-24T00:00:10.000+01:00,fax,Banken,,2012-02-24T00:00:10.000+01:00,bdsg34,,,,,[9]
411,Ostsächsische Sparkasse Dresden,Güntzplatz 5,01307,Dresden,,http://www.ostsaechsische-sparkasse-dresden.de/,,03514556677,05.02.2013 lt. Mail d. Datenschutzbeauftragten umgestellt auf manual,approved,2012-02-24T00:00:05.000+01:00,2013-03-05T13:00:00.000+01:00,manual,Banken,,2012-02-24T00:00:05.000+01:00,bdsg34,,,,,[9]
476,OstseeSparkasse Rostock,Am Vögenteich 23,18057,Rostock,,http://www.ospa.de/,,03816430,11.03.2014: lt. Mail d. Datenschutzbeauftragten umgestellt auf manuell,approved,2012-02-24T00:00:09.000+01:00,2014-03-11T14:56:41.000+01:00,manual,Banken,,2012-02-24T00:00:09.000+01:00,bdsg34,,,,,[9]
642,PSD Bank Nürnberg eG,Willy-Brandt-Platz 8,90402,Nürnberg,info@psd-nuernberg.de,http://www.psd-nuernberg.de/,http://www.psd-nuernberg.de/Impressum/c413.html,091123850,,approved,2012-02-25T21:33:05.000+01:00,2012-02-26T14:04:42.000+01:00,fax,Banken,psd-bank-nuernberg,2012-02-26T14:04:42.000+01:00,bdsg34,,,,,[9]
549,Rhön-Rennsteig-Sparkasse,Leipziger Straße 4,98617,Meiningen,,http://www.rhoen-rennsteig-sparkasse.de/,,036934680,,approved,2012-02-24T00:00:14.000+01:00,2012-02-24T00:00:14.000+01:00,fax,Banken,,2012-02-24T00:00:14.000+01:00,bdsg34,,,,,[9]
333,Saalesparkasse,Rathausstraße 5,06108,Halle,,http://www.saalesparkasse.de/,,034523200,04.03.2013: lt. Mail d. Datenschutzbeauftragten umgestellt auf manual,approved,2012-02-23T23:59:58.000+01:00,2013-03-04T14:04:37.000+01:00,manual,Banken,,2012-02-23T23:59:58.000+01:00,bdsg34,,,,,[9]
494,Salzlandsparkasse,Lehrter Straße 15,39418,Staßfurt,,http://www.salzlandsparkasse.de/,,03925990,06.02.2013: lt. Mail d. Datenschutzbeauftragten umgestellt auf manual,approved,2012-02-24T00:00:11.000+01:00,2013-03-05T13:04:17.000+01:00,manual,Banken,,2012-02-24T00:00:11.000+01:00,bdsg34,,,,,[9]
693,Santander Consumer Bank AG,Santander-Platz 1,41061,Mönchengladbach,email-service@santander.de,http://www.santander.de,http://www.santander.de/de/global/impressum.html,021616900,,approved,2012-03-03T01:06:47.000+01:00,2012-03-03T13:40:21.000+01:00,fax,Banken,santander-consumer-bank,2012-03-03T13:40:21.000+01:00,bdsg34,,,,,[9]
892,Sparda-Bank Berlin eG,Storkower Strasse 101a,10407,Berlin,sparda-b@sparda.de,https://www.sparda-b.de,https://www.sparda-b.de/impressum.php,030428300,,approved,2012-11-18T14:39:24.000+01:00,2013-06-05T13:33:26.000+02:00,fax,Banken,sparda-bank-berlin,2013-06-05T13:33:26.000+02:00,bdsg34,,,,,[9]
647,Sparda-Bank Hannover eG,Ernst-August-Platz 8,30159,Hannover,sparda@sparda-h.de,https://www.sparda-h.de/,https://www.sparda-h.de/impressum.php,0180525090500,,approved,2012-02-26T20:01:53.000+01:00,2012-02-27T13:41:28.000+01:00,fax,Banken,sparda-bank-hannover,2012-02-27T13:41:28.000+01:00,bdsg34,,,,,[9]
669,Sparda-Bank München eG,Arnulfstraße 15,80335,München,sparda-m@sparda.de,https://www.sparda-m.de/,https://www.sparda-m.de/impressum.php,,,approved,2012-02-28T22:22:50.000+01:00,2012-02-29T01:00:30.000+01:00,fax,Banken,sparda-bank-muenchen,2012-02-29T01:00:30.000+01:00,bdsg34,,,,,[9]
706,Sparda-Bank Nürnberg eG,Eilgutstraße 9,90443,Nürnberg,info@sparda-n.de,https://www.sparda-n.de,https://www.sparda-n.de/impressum.php,091160008000,13.02.2013: lt. Mail des Datenschutzbeauftragten Telefon und Faxnummer aktualisiert,approved,2012-03-03T21:49:49.000+01:00,2013-02-13T09:38:47.000+01:00,fax,Banken,sparda-bank-nuernberg,2012-03-05T09:36:11.000+01:00,bdsg34,,,,,[9]
843,Sparda-Bank West eG,Ludwig-Erhardt-Allee 15,40227,Düsseldorf,info@sparda-west.de,https://sparda-west.de,https://www.sparda-west.de/impressum.php,0211239323333,,approved,2012-06-23T09:00:11.000+02:00,2013-06-05T13:32:22.000+02:00,fax,Banken,sparda-bank-west,2013-06-05T13:32:22.000+02:00,bdsg34,,,,,[9]
302,Sparkasse Aachen,Münsterplatz 7-9,52062,Aachen,,http://www.sparkasse-aachen.de/,,02414440,03.12.15: Lt. Mail d. Datenschutzbeauftragten umgestellt auf manuell,approved,2012-02-23T23:59:16.000+01:00,2015-12-03T09:26:03.000+01:00,manual,Banken,,2012-02-23T23:59:16.000+01:00,bdsg34,,,,,[9]
197,Sparkasse Allgäu - Datenschutz,Königstr. 21,87435,Kempten,,http://www.sparkasse-allgaeu.de,,083120510,28.01.2013: lt. Mail d. Datenschutzbeauftragten Faxnummer/Bezeichnung geändert,approved,2012-02-23T00:19:24.000+01:00,2013-03-05T13:05:17.000+01:00,fax,Banken,,2012-02-23T00:19:24.000+01:00,bdsg34,,,,,[9]
425,Sparkasse Altenburger Land,Wettinerstraße 1,04600,Altenburg,,http://www.sparkasse-altenburg.de/,,034475960,"07.02.2013: umgestellt auf manual:
Da der Sparkasse Altenburger Land das Thema Datenschutz sehr wichtig ist,
bitten wir Sie, Ihrer Auskunftsanfrage eine Kopie Ihres Personalausweises oder eines anderen gültigen Legitimationspapiers beizulegen.
Dies dient der Verifizierung Ihrer Unterschrift und Ihrer Identität, zu der Sie eine Selbstauskunft anfordern und wird nur zu diesem Zweck verwendet.",approved,2012-02-24T00:00:06.000+01:00,2013-02-07T12:45:34.000+01:00,manual,Banken,,2012-02-24T00:00:06.000+01:00,bdsg34,,,,,[9]
410,Sparkasse Altmark West,Wallstraße 1,29410,Salzwedel,,http://www.sparkasse-altmark-west.de/,,039016990,,approved,2012-02-24T00:00:05.000+01:00,2012-02-24T00:00:05.000+01:00,fax,Banken,,2012-02-24T00:00:05.000+01:00,bdsg34,,,,,[9]
198,Sparkasse Altötting-Mühldorf,Katharinenplatz 17,84453,Mühldorf,,http://www.spk-aoe-mue.de,,086316110,"18.01.16: lt. Mail d. Datenschutzbeauftragten umgestellt auf manuell:
""Die Sparkasse bittet Sie, Ihre Anfrage im Original und eigenhändig von Ihnen unterschrieben zukommen zu lassen. Dies dient der Überprüfung Ihrer Unterschrift und Ihrer Identität, zu der Sie eine Selbstauskunft anfordern und wird nur zu diesem Zweck verwendet.

Unter Bezugnahme auf § 34 Absatz 1 Satz 2 BDSG bittet die Sparkasse Sie weiterhin um einen entsprechenden Hinweis, um welche Art von personenbezogenen Daten es Ihnen bei Ihrer Selbstauskunft geht bzw. in welcher Funktion Sie Kontakt mit der Sparkasse hatten (z.B. als Bankkunde, Lieferant, Bewerber, Mitarbeiter, Interessent usw.).""",approved,2012-02-23T00:19:24.000+01:00,2016-01-18T16:04:20.000+01:00,manual,Banken,,2012-02-23T00:19:24.000+01:00,bdsg34,,,,,[9]
199,Sparkasse Amberg-Sulzbach,Marienstr. 10,92224,Amberg,,http://www.sparkasse-amberg-sulzbach.de,,09621300800,,approved,2012-02-23T00:19:24.000+01:00,2012-02-23T00:19:24.000+01:00,fax,Banken,,2012-02-23T00:19:24.000+01:00,bdsg34,,,,,[9]
559,Sparkasse am Niederrhein,Ostring 4-7,47441,Moers,,http://www.sparkasse-am-niederrhein.de/,,028412060,14.02.2013: lt. Mail d. Datenschutzbeauftragten umgestellt auf manual,approved,2012-02-24T00:00:15.000+01:00,2013-02-14T17:32:57.000+01:00,manual,Banken,,2012-02-24T00:00:15.000+01:00,bdsg34,,,,,[9]
499,Sparkasse Arnsberg-Sundern,Hauptstraße 10-12,59755,Arnsberg,,http://www.sparkasse-arnsberg-sundern.de/,,029329100,,approved,2012-02-24T00:00:11.000+01:00,2012-02-24T00:00:11.000+01:00,fax,Banken,,2012-02-24T00:00:11.000+01:00,bdsg34,,,,,[9]
513,Sparkasse Arnstadt-Ilmenau,An der Sparkasse 1-3,98693,Ilmenau,,http://www.spk-arnstadt-ilmenau.de/,,036776600,"05.02.2013: Lt. Mail d. Datenschutzbeauftragten umgestellt auf manual:
""Die Sparkasse Arnstadt-Ilmenau bittet Sie, Ihre Anfrage im Original und eigenhändig von Ihnen unterschrieben zukommen zu lassen.
       
Da ihr das Thema Datenschutz sehr wichtig ist, fügen Sie bitte eine Kopie Ihres Personalausweises oder eines anderen gültigen Legitimationspapiers bei, auf dem insbesondere Name, Anschrift, Geburtsdatum und Gültigkeitsdauer erkennbar und gut lesbar sind. Dies dient der Verifizierung Ihrer Unterschrift und Ihrer Identität, zu der Sie eine Selbstauskunft anfordern und wird nur zu diesem Zweck verwendet.
       
Unter Bezugnahme auf § 34 Absatz 1 Satz 2 BDSG bittet die Sparkasse Sie weiterhin um einen entsprechenden Hinweis, um welche Art von personenbezogenen Daten es Ihnen bei Ihrer Selbstauskunft geht bzw. in welcher Funktion Sie Kontakt mit ihr hatten (z.B. als Bankkunde, Lieferant, Bewerber, Mitarbeiter, Interessent usw.).""",approved,2012-02-24T00:00:12.000+01:00,2013-02-20T15:18:04.000+01:00,manual,Banken,,2012-02-24T00:00:12.000+01:00,bdsg34,,,,,[9]
201,Sparkasse Aschaffenburg-Alzenau,Friedrichstr. 7,63739,Aschaffenburg,,http://www.spk-aschaffenburg.de,,060213970,,approved,2012-02-23T00:19:24.000+01:00,2012-02-23T00:19:24.000+01:00,fax,Banken,,2012-02-23T00:19:24.000+01:00,bdsg34,,,,,[9]
523,Sparkasse Attendorn-Lennestadt-Kirchhundem,Kölner Straße 10,57439,Attendorn,,http://www.sparkasse-alk.de/,,027226930,05.02.2013 lt. Mail d. Datenschutzbeauftragten umgestellt auf manual,approved,2012-02-24T00:00:13.000+01:00,2013-03-05T13:06:27.000+01:00,manual,Banken,,2012-02-24T00:00:13.000+01:00,bdsg34,,,,,[9]
339,Sparkasse Aurich - Norden,Marktplatz 11-15,26603,Aurich,,http://www.sparkasse-aurich-norden.de/,,049411710,06.02.2013: lt. Mail d. Datenschutzbeauftragten umgestellt auf manual,approved,2012-02-23T23:59:58.000+01:00,2013-03-05T13:07:02.000+01:00,manual,Banken,,2012-02-23T23:59:58.000+01:00,bdsg34,,,,,[9]
463,Sparkasse Baden-Baden Gaggenau,Sophienstraße 1,76530,Baden-Baden,,http://www.spk-baden-baden.de/,,072212740,22.11.2013: Lt. Mail d. Datenschutzbeauftragten umgestellt auf manuelle Zustellung.,approved,2012-02-24T00:00:08.000+01:00,2013-11-22T15:42:28.000+01:00,manual,Banken,,2012-02-24T00:00:08.000+01:00,bdsg34,,,,,[9]
375,Sparkasse Bad Hersfeld-Rotenburg,Dudenstrasse 15,36251,Bad Hersfeld,,http://www.sparkasse-bad-hersfeld-rotenburg.de/,,06621850,,approved,2012-02-24T00:00:00.000+01:00,2012-02-24T00:00:00.000+01:00,fax,Banken,,2012-02-24T00:00:00.000+01:00,bdsg34,,,,,[9]
204,Sparkasse Bad Kissingen,Von-Hessing-Str. 10,97688,Bad Kissingen,,http://www.spk-kg.de,,09718280,,approved,2012-02-23T00:19:24.000+01:00,2012-02-23T00:19:24.000+01:00,fax,Banken,,2012-02-23T00:19:24.000+01:00,bdsg34,,,,,[9]
205,Sparkasse Bad Neustadt an der Saale,Meininger Str. 31-37,97616,Bad Neustadt/Saale,,http://www.sparkassebadneustadt.de/,,097716020,,approved,2012-02-23T00:19:24.000+01:00,2012-02-24T00:19:47.000+01:00,fax,Banken,,2012-02-23T00:19:24.000+01:00,bdsg34,,,,,[9]
206,Sparkasse Bad Tölz-Wolfratshausen,Bahnhofplatz 1,83646,Bad Tölz,,http://www.spktw.de,,0804180070,"Lt. Mail d. Datenschutzbeauftragten v. 08.10.2015 umgestellt auf manuell:
""Die Sparkasse bittet Sie, ihr Ihre Anfrage im Original und eigenhändig von Ihnen unterschrieben zukommen zu lassen. Dies dient der Verifizierung Ihrer Unterschrift
und Ihrer Identität, zu der Sie eine Selbstauskunft anfordern und wird nur zu diesem Zweck verwendet.

Unter Bezugnahme auf § 34 Absatz 1 Satz 2 BDSG bittet die Sparkasse Sie weiterhin um einen entsprechenden Hinweis, um welche Art von personenbezogenen Daten es Ihnen bei Ihrer Selbstauskunft geht bzw. in welcher Funktion Sie Kontakt mit ihr hatten (z.B. als Bankkunde, Lieferant, Bewerber,  Mitarbeiter, Interessent usw.)""
",approved,2012-02-23T00:19:24.000+01:00,2015-10-08T11:13:26.000+02:00,manual,Banken,,2012-02-23T00:19:24.000+01:00,bdsg34,,,,,[9]
207,Sparkasse Bamberg,Carl-Meinelt-Str. 10,96050,Bamberg,,http://www.sparkasse-bamberg.de,,095118980,,approved,2012-02-23T00:19:24.000+01:00,2012-02-23T00:19:24.000+01:00,fax,Banken,,2012-02-23T00:19:24.000+01:00,bdsg34,,,,,[9]
305,Sparkasse Barnim,Michaelisstraße 1,16225,Eberswalde,,http://www.spk-barnim.de/,,033342000,,approved,2012-02-23T23:59:16.000+01:00,2012-02-23T23:59:16.000+01:00,fax,Banken,,2012-02-23T23:59:16.000+01:00,bdsg34,,,,,[9]
519,Sparkasse Battenberg,Hauptstraße 5,35088,Battenberg,,http://www.sparkasse-battenberg.de/,,064528030,,approved,2012-02-24T00:00:12.000+01:00,2012-02-24T00:00:12.000+01:00,fax,Banken,,2012-02-24T00:00:12.000+01:00,bdsg34,,,,,[9]
208,Sparkasse Bayreuth,Opernstr. 12,95444,Bayreuth,,http://www.sparkasse-bayreuth.de,,0180177350110,,approved,2012-02-23T00:19:24.000+01:00,2012-02-23T00:19:24.000+01:00,fax,Banken,,2012-02-23T00:19:24.000+01:00,bdsg34,,,,,[9]
362,Sparkasse Beckum-Wadersloh,Weststraße 32,59269,Beckum,,http://www.sparkasse-beckum.de/,,02521270,15.02.2013: lt. Mail d. Datenschutzbeauftragten umgestellt auf manual,approved,2012-02-24T00:00:00.000+01:00,2013-02-15T15:13:05.000+01:00,manual,Banken,,2012-02-24T00:00:00.000+01:00,bdsg34,,,,,[9]
377,Sparkasse Bensheim,Bahnhofstraße 30/32,64625,Bensheim,,http://www.sparkasse-bensheim.de/,,06251180,,approved,2012-02-24T00:00:01.000+01:00,2012-02-24T00:00:01.000+01:00,fax,Banken,,2012-02-24T00:00:01.000+01:00,bdsg34,,,,,[9]
209,Sparkasse Berchtesgadener Land,Bahnhofstr. 17,83435,Bad Reichenhall,,http://www.sparkasse-bgl.de,,086517070,,approved,2012-02-23T00:19:24.000+01:00,2012-02-23T00:19:24.000+01:00,fax,Banken,,2012-02-23T00:19:24.000+01:00,bdsg34,,,,,[9]
306,Sparkasse Bergkamen-Bönen,In der City 133,59192,Bergkamen,,http://www.spk-bergkamen-boenen.de/,,023078210,06.02.2013: lt. Mail d. Datenschutzbeauftragten umgestellt auf manual,approved,2012-02-23T23:59:16.000+01:00,2013-03-05T13:08:21.000+01:00,manual,Banken,,2012-02-23T23:59:16.000+01:00,bdsg34,,,,,[9]
442,Sparkasse Bielefeld,Schweriner Straße 5,33605,Bielefeld,,http://www.sparkasse-bielefeld.de/,,05212940,,approved,2012-02-24T00:00:07.000+01:00,2012-02-24T00:00:07.000+01:00,fax,Banken,,2012-02-24T00:00:07.000+01:00,bdsg34,,,,,[9]
394,Sparkasse Bochum,Dr.-Ruer-Platz 5,44787,Bochum,,http://www.sparkasse-bochum.de/,,02346110,08.03.2013: lt. Mail d. Datenschutzbeauftragten umgestellt auf manual,approved,2012-02-24T00:00:05.000+01:00,2013-03-08T14:49:32.000+01:00,manual,Banken,,2012-02-24T00:00:05.000+01:00,bdsg34,,,,,[9]
502,Sparkasse Bodensee,Marktstätte 1,78462,Konstanz,,http://www.sparkasse-bodensee.de/,,075312850,,approved,2012-02-24T00:00:11.000+01:00,2012-02-24T00:00:11.000+01:00,fax,Banken,,2012-02-24T00:00:11.000+01:00,bdsg34,,,,,[9]
273,Sparkasse Bottrop,Pferdemarkt 8,46236,Bottrop,,http://www.sparkasse-bottrop.de/,,020411040,,approved,2012-02-23T23:59:13.000+01:00,2012-02-23T23:59:13.000+01:00,fax,Banken,,2012-02-23T23:59:13.000+01:00,bdsg34,,,,,[9]
434,Sparkasse Bremen,Am Brill 1-3,28195,Bremen,,https://finanzcenter.sparkasse-bremen.de/pintan/index.php,,04211790,(07.10.2013) tt. Mail d. Datenschutzbeauftragten umgestellt auf manuelle Zustellung.,approved,2012-02-24T00:00:07.000+01:00,2013-10-07T14:13:54.000+02:00,manual,Banken,,2012-02-24T00:00:07.000+01:00,bdsg34,,,,,[9]
579,Sparkasse Bremerhaven,Bürgermeister-Smidt-Straße 24-30,27568,Bremerhaven,,http://www.sparkasse-bremerhaven.de/,,04714790,,approved,2012-02-24T00:00:16.000+01:00,2012-02-24T00:00:16.000+01:00,fax,Banken,,2012-02-24T00:00:16.000+01:00,bdsg34,,,,,[9]
399,Sparkasse Burbach-Neunkirchen,Nassauische Straße 13,57299,Burbach,,http://www.sparkasse-burbach-neunkirchen.de/,,027364970,,approved,2012-02-24T00:00:05.000+01:00,2012-02-24T00:00:05.000+01:00,fax,Banken,,2012-02-24T00:00:05.000+01:00,bdsg34,,,,,[9]
471,Sparkasse Burgenlandkreis,Albrechtstraße 24,06712,Zeitz,,http://www.spk-burgenlandkreis.de/,,018018005300,,approved,2012-02-24T00:00:09.000+01:00,2012-02-24T00:00:09.000+01:00,fax,Banken,,2012-02-24T00:00:09.000+01:00,bdsg34,,,,,[9]
418,Sparkasse Celle,Schlossplatz 10,29221,Celle,,http://www.spk-celle.de/,,051419130,,approved,2012-02-24T00:00:06.000+01:00,2012-02-24T00:00:06.000+01:00,fax,Banken,,2012-02-24T00:00:06.000+01:00,bdsg34,,,,,[9]
271,Sparkasse Chemnitz,Bahnhofstrasse 51,09111,Chemnitz,,http://www.sparkasse-chemnitz.de/,,0371990,,approved,2012-02-23T23:59:13.000+01:00,2012-02-23T23:59:13.000+01:00,fax,Banken,,2012-02-23T23:59:13.000+01:00,bdsg34,,,,,[9]
211,Sparkasse Coburg-Lichtenfels,Markt 2-3,96450,Coburg,,http://www.sparkasse-co-lif.de,,09561700,,approved,2012-02-23T00:19:24.000+01:00,2012-02-23T00:19:24.000+01:00,fax,Banken,,2012-02-23T00:19:24.000+01:00,bdsg34,,,,,[9]
212,Sparkasse Dachau,Sparkassenplatz 1,85221,Dachau,,http://www.sparkasse-dachau.de,,08131730,,approved,2012-02-23T00:19:24.000+01:00,2012-02-23T00:19:24.000+01:00,fax,Banken,,2012-02-23T00:19:24.000+01:00,bdsg34,,,,,[9]
587,Sparkasse Dahme-Spreewald,Bahnhofstraße 12,15711,Königs-Wusterhausen,,http://www.sparkasse-dahme-spreewald.de/,,033752780,,approved,2012-02-24T00:00:16.000+01:00,2012-02-24T00:00:16.000+01:00,fax,Banken,,2012-02-24T00:00:16.000+01:00,bdsg34,,,,,[9]
406,Sparkasse Darmstadt,Rheinstraße 10-12,64283,Darmstadt,,http://www.sparkasse-darmstadt.de/,,0615128160,11.02.2013: lt. Mail d. Datenschutzbeauftragten umgestellt auf manual,approved,2012-02-24T00:00:05.000+01:00,2013-02-11T10:40:52.000+01:00,manual,Banken,,2012-02-24T00:00:05.000+01:00,bdsg34,,,,,[9]
213,Sparkasse Deggendorf,Oberer Stadtplatz 27,94469,Deggendorf,,http://www.sparkassedeggendorf.de,,099136110,,approved,2012-02-23T00:19:24.000+01:00,2012-02-23T00:19:24.000+01:00,fax,Banken,,2012-02-23T00:19:24.000+01:00,bdsg34,,,,,[9]
617,Sparkasse der Homburgischen Gemeinden,Hauptstr. 12-18,51674,Wiehl,,https://www.sparkasse-wiehl.de/,,022629820,"12.03.2013: lt. Mail d. Datenschutzbeauftragten umgestellt auf manuell:
""Die Sparkasse bittet Sie, Ihre Anfrage im Original und eigenhändig von Ihnen unterschrieben zukommen zu lassen.

Da der Sparkasse das Thema Datenschutz sehr wichtig ist, fügen Sie bitte
eine Kopie Ihres Personalausweises oder eines anderen gültigen
Legitimationspapiers bei, auf dem insbesondere Name, Anschrift, Geburtsdatum und Gültigkeitsdauer erkennbar und gut lesbar sind. Dies dient der Verifizierung Ihrer Unterschrift und Ihrer Identität, zu der Sie eine
Selbstauskunft anfordern und wird nur zu diesem Zweck verwendet.

Unter Bezugnahme auf § 34 Absatz 1 Satz 2 BDSG bittet die Sparkasse Sie weiterhin um einen entsprechenden Hinweis, um welche Art von
personenbezogenen Daten es Ihnen bei Ihrer Selbstauskunft geht bzw. in
welcher Funktion Sie Kontakt mit ihr hatten (z.B. als Bankkunde, Lieferant,
Bewerber, Mitarbeiter, Interessent usw.).""",approved,2012-02-24T00:21:32.000+01:00,2013-08-05T13:10:46.000+02:00,manual,Banken,sparkasse-homburgischen-gemeiden,2012-02-24T00:21:32.000+01:00,bdsg34,,,,,[9]
391,Sparkasse der Stadt Iserlohn,Schillerplatz 6,58636,Iserlohn,,http://www.sparkasse-iserlohn.de/,,023712160,,approved,2012-02-24T00:00:04.000+01:00,2012-02-24T00:00:04.000+01:00,fax,Banken,,2012-02-24T00:00:04.000+01:00,bdsg34,,,,,[9]
359,Sparkasse Detmold (Lippische Spar- und Leihekasse),Paulinenstraße 34,32756,Detmold,,http://www.sparkasse-detmold.de/,,052319301,,approved,2012-02-23T23:59:59.000+01:00,2012-02-23T23:59:59.000+01:00,fax,Banken,,2012-02-23T23:59:59.000+01:00,bdsg34,,,,,[9]
403,Sparkasse Dieburg,St.-Péray-Straße 2-4,64823,Groß-Umstadt,,http://www.sparkasse-dieburg.de/,,06078700,,approved,2012-02-24T00:00:05.000+01:00,2012-02-24T00:00:05.000+01:00,fax,Banken,,2012-02-24T00:00:05.000+01:00,bdsg34,,,,,[9]
603,Sparkasse Dillenburg,Untertor 9,35683,Dillenburg,,http://www.sparkasse-dillenburg.de/,,027719350,,approved,2012-02-24T00:00:17.000+01:00,2012-02-24T00:00:17.000+01:00,fax,Banken,,2012-02-24T00:00:17.000+01:00,bdsg34,,,,,[9]
567,Sparkasse Dinslaken-Voerde-Hünxe,Friedrich-Ebert-Straße 31-37,46535,Dinslaken,,http://www.spk-dinslaken.de/,,020644150,,approved,2012-02-24T00:00:15.000+01:00,2012-02-24T00:00:15.000+01:00,fax,Banken,,2012-02-24T00:00:15.000+01:00,bdsg34,,,,,[9]
216,Sparkasse Donauwörth,Reichsstr. 31/33,86609,Donauwörth,,http://www.sparkasse-donauwoerth.de,,09067810,,approved,2012-02-23T00:19:24.000+01:00,2012-02-23T00:19:24.000+01:00,fax,Banken,,2012-02-23T00:19:24.000+01:00,bdsg34,,,,,[9]
594,Sparkasse Donnersberg,Damian-Kreichgauer-Straße 7,67806,Rockenhausen,,http://www.sparkasse-donnersberg.de/,,063614530,,approved,2012-02-24T00:00:17.000+01:00,2012-02-24T00:00:17.000+01:00,fax,Banken,,2012-02-24T00:00:17.000+01:00,bdsg34,,,,,[9]
288,Sparkasse Dortmund,Freistuhl 2,44137,Dortmund,,http://www.stadtsparkasse-dortmund.de/,,02311830,08.02.2013: lt. Mail d. Datenschutzbeauftragten umgestellt aus manual,approved,2012-02-23T23:59:14.000+01:00,2013-02-08T16:43:53.000+01:00,manual,Banken,,2012-02-23T23:59:14.000+01:00,bdsg34,,,,,[9]
585,Sparkasse Duderstadt,Bahnhofstraße 41,37115,Duderstadt,,http://www.sparkasse-duderstadt.de/,,0552783200,,approved,2012-02-24T00:00:16.000+01:00,2012-02-24T00:00:16.000+01:00,fax,Banken,,2012-02-24T00:00:16.000+01:00,bdsg34,,,,,[9]
282,Sparkasse Duisburg,Königstraße 23-25,47051,Duisburg,,http://www.sparkasse-duisburg.de/,,020328150,04.08.15: lt. Mail d. Datenschutzbeauftragten umgestellt auf manuell,approved,2012-02-23T23:59:14.000+01:00,2015-08-04T10:00:42.000+02:00,manual,Banken,,2012-02-23T23:59:14.000+01:00,bdsg34,,,,,[9]
280,Sparkasse Düren,Ecke Schenkel-/ Zehnthofstraße,52349,Düren,,http://www.sparkasse-dueren.de/,,024211270,,approved,2012-02-23T23:59:14.000+01:00,2012-02-23T23:59:14.000+01:00,fax,Banken,,2012-02-23T23:59:14.000+01:00,bdsg34,,,,,[9]
217,Sparkasse Eichstätt,Gabrielistr. 5,85072,Eichstätt,,http://www.sparkasse-eichstaett.de,,084216040,,approved,2012-02-23T00:19:24.000+01:00,2012-02-23T00:19:24.000+01:00,fax,Banken,,2012-02-23T00:19:24.000+01:00,bdsg34,,,,,[9]
450,Sparkasse Einbeck,Marktplatz 16 / 18,37574,Einbeck,,http://www.sparkasse-einbeck.de/,,055613180,07.02.2013: lt. Mail d. Datenschutzbeauftragten umgestellt auf manual,approved,2012-02-24T00:00:08.000+01:00,2013-02-07T09:42:40.000+01:00,manual,Banken,,2012-02-24T00:00:08.000+01:00,bdsg34,,,,,[9]
368,Sparkasse Elbe - Elster,Berliner Straße 43,03238,Finsterwalde,,http://www.spk-elbe-elster.de/,,035317850,11.02.2013: lt. Mail d. Datenschutzbeauftragten umgestellt auf manual,approved,2012-02-24T00:00:00.000+01:00,2013-02-11T11:41:31.000+01:00,manual,Banken,,2012-02-24T00:00:00.000+01:00,bdsg34,,,,,[9]
287,Sparkasse Elmshorn,Königstraße 21,25336,Elmshorn,,http://www.sparkasse-elmshorn.de/,,041212920,,approved,2012-02-23T23:59:14.000+01:00,2012-02-23T23:59:14.000+01:00,fax,Banken,,2012-02-23T23:59:14.000+01:00,bdsg34,,,,,[9]
404,Sparkasse Emden,Am Delft 2-3,26721,Emden,,http://www.sparkasse-emden.de/,,049218060,,approved,2012-02-24T00:00:05.000+01:00,2012-02-24T00:00:05.000+01:00,fax,Banken,,2012-02-24T00:00:05.000+01:00,bdsg34,,,,,[9]
414,Sparkasse Emsland,Obergerichtsstrasse 22,49716,Meppen,,http://www.sparkasse-emsland.de/,,059311511,"07.02.2013: umgestellt auf manual:
Die Sparkasse bittet Sie, Ihre Anfrage im Original und eigenhändig von
Ihnen unterschrieben zukommen zu lassen.

Da ihr das Thema Datenschutz sehr wichtig ist, fügen Sie bitte eine Kopie
Ihres Personalausweises oder eines anderen gültigen Legitimationspapiers
bei, auf dem insbesondere Name, Anschrift, Geburtsdatum und
Gültigkeitsdauer erkennbar und gut lesbar sind. Dies dient der
Verifizierung Ihrer Unterschrift und Ihrer Identität, zu der Sie eine
Selbstauskunft anfordern und wird nur zu diesem Zweck verwendet.

Unter Bezugnahme auf § 34 Absatz 1 Satz 2 BDSG bittet die Sparkasse Sie
weiterhin um einen entsprechenden Hinweis, um welche Art von
personenbezogenen Daten es Ihnen bei Ihrer Selbstauskunft geht bzw. in
welcher Funktion Sie Kontakt mit ihr hatten (z.B. als Bankkunde, Lieferant,
Bewerber, Mitarbeiter, Interessent usw.).",approved,2012-02-24T00:00:06.000+01:00,2013-02-07T12:16:36.000+01:00,manual,Banken,,2012-02-24T00:00:06.000+01:00,bdsg34,,,,,[9]
433,Sparkasse Engen-Gottmadingen,Bahnhofstrasse 1,78234,Engen,,http://www.sparkasse-engo.de/,,077339490,,approved,2012-02-24T00:00:07.000+01:00,2012-02-24T00:00:07.000+01:00,fax,Banken,,2012-02-24T00:00:07.000+01:00,bdsg34,,,,,[9]
366,Sparkasse Ennepetal-Breckerfeld,Voerder Straße 79-83,58256,Ennepetal,,http://www.sparkasse-ennepetal.de/,,023339860,,approved,2012-02-24T00:00:00.000+01:00,2013-03-27T11:17:16.000+01:00,manual,Banken,,2012-02-24T00:00:00.000+01:00,bdsg34,,,,,[9]
436,Sparkasse Erlangen,Werner-von-Siemens-Straße81,91052,Erlangen,,http://www.sparkasse-erlangen.de/,,09131824138,,approved,2012-02-24T00:00:07.000+01:00,2012-02-24T00:00:07.000+01:00,fax,Banken,,2012-02-24T00:00:07.000+01:00,bdsg34,,,,,[9]
492,Sparkasse Erzgebirge,Große Kirchgasse 18,09456,Annaberg,,http://www.sparkasse-erzgebirge.de/,,037331390,,approved,2012-02-24T00:00:11.000+01:00,2012-02-24T00:00:11.000+01:00,fax,Banken,,2012-02-24T00:00:11.000+01:00,bdsg34,,,,,[9]
401,Sparkasse Finnentrop,Bamenohler Straße 252,57413,Finnentrop,,http://www.sparkasse-finnentrop.de/,,027219700,,approved,2012-02-24T00:00:05.000+01:00,2012-02-24T00:00:05.000+01:00,fax,Banken,,2012-02-24T00:00:05.000+01:00,bdsg34,,,,,[9]
221,Sparkasse Forchheim,Klosterstr. 14,91301,Forchheim,,http://www.sparkasse-forchheim.de,,09191880,,approved,2012-02-23T00:19:24.000+01:00,2012-02-23T00:19:24.000+01:00,fax,Banken,,2012-02-23T00:19:24.000+01:00,bdsg34,,,,,[9]
326,Sparkasse Freiburg - Nördlicher Breisgau,Kaiser-Joseph-Strasse 186-190,79098,Freiburg,,http://www.sparkasse-freiburg.de/,,07612150,,approved,2012-02-23T23:59:57.000+01:00,2012-02-23T23:59:57.000+01:00,fax,Banken,,2012-02-23T23:59:57.000+01:00,bdsg34,,,,,[9]
222,Sparkasse Freising,Untere Hauptstr. 29,85354,Freising,,http://www.sparkasse-freising.de,,08161560,,approved,2012-02-23T00:19:24.000+01:00,2012-02-23T00:19:24.000+01:00,fax,Banken,,2012-02-23T00:19:24.000+01:00,bdsg34,,,,,[9]
223,Sparkasse Freyung-Grafenau,Passauer Str. 8,94078,Freyung,,http://www.spk-frg.de,,085515810,,approved,2012-02-23T00:19:24.000+01:00,2012-02-23T00:19:24.000+01:00,fax,Banken,,2012-02-23T00:19:24.000+01:00,bdsg34,,,,,[9]
470,Sparkasse Fröndenberg,Im Stift 12,58730,Fröndenberg,,http://www.sparkasse-froendenberg.de/,,0237375010,01.03.2013: lt. Mail d. Datenschutzbeauftragten umgestellt auf manual,approved,2012-02-24T00:00:09.000+01:00,2013-03-01T09:40:21.000+01:00,manual,Banken,,2012-02-24T00:00:09.000+01:00,bdsg34,,,,,[9]
480,Sparkasse Fulda,Buttermarkt 2-6,36037,Fulda,,http://www.sparkasse-fulda.de/,,06618570,,approved,2012-02-24T00:00:10.000+01:00,2012-02-24T00:00:10.000+01:00,fax,Banken,,2012-02-24T00:00:10.000+01:00,bdsg34,,,,,[9]
224,Sparkasse Fürstenfeldbruck,Hauptstr. 8,82256,Fürstenfeldbruck,,http://www.sparkasse-ffb.de,,081414070,,approved,2012-02-23T00:19:24.000+01:00,2012-02-23T00:19:24.000+01:00,fax,Banken,,2012-02-23T00:19:24.000+01:00,bdsg34,,,,,[9]
225,Sparkasse Fürth,Maxstr. 32,90762,Fürth,,http://www.sparkasse-fuerth.de,,091178780,,approved,2012-02-23T00:19:24.000+01:00,2012-02-23T00:19:24.000+01:00,fax,Banken,,2012-02-23T00:19:24.000+01:00,bdsg34,,,,,[9]
304,Sparkasse Geldern,Markt 12-15,47608,Geldern,,http://www.sparkasse-geldern.de/,,028313930,,approved,2012-02-23T23:59:16.000+01:00,2012-02-23T23:59:16.000+01:00,fax,Banken,,2012-02-23T23:59:16.000+01:00,bdsg34,,,,,[9]
609,Sparkasse Gelsenkirchen,Neumarkt 2,45879,Gelsenkirchen,,http://www.sparkasse-gelsenkirchen.de/,,02091610,08.02.2012: lt. Mail d. Datenschutzbeauftragten umgestellt auf manual,approved,2012-02-24T00:00:18.000+01:00,2013-02-08T15:26:31.000+01:00,manual,Banken,,2012-02-24T00:00:18.000+01:00,bdsg34,,,,,[9]
568,Sparkasse Gengenbach,Hauptstraße 29,77723,Gengenbach,,http://www.spk-gengenbach.de/,,07803830,,approved,2012-02-24T00:00:15.000+01:00,2013-03-27T11:14:13.000+01:00,manual,Banken,,2012-02-24T00:00:15.000+01:00,bdsg34,,,,,[9]
308,Sparkasse Gera-Greiz,Schloßstraße 11,07545,Gera,,http://www.sparkasse-gera-greiz.de/,,036582200,,approved,2012-02-23T23:59:16.000+01:00,2012-02-23T23:59:16.000+01:00,fax,Banken,,2012-02-23T23:59:16.000+01:00,bdsg34,,,,,[9]
575,Sparkasse Germersheim-Kandel,Gartenstraße 3,76870,Kandel,,http://www.sparkasse-ger-kandel.de/,,072759610,11.02.2013: lt. Mail d. Datenschutzbeauftragten umgestellt auf manual.,approved,2012-02-24T00:00:16.000+01:00,2013-02-11T12:24:55.000+01:00,manual,Banken,,2012-02-24T00:00:16.000+01:00,bdsg34,,,,,[9]
566,Sparkasse Geseke,Bachstraße 35,59590,Geseke,,http://www.sparkasse-geseke.de/,,029425090,06.02.2013: lt. Mail d. Datenschutzbeauftragten umgestellt auf manual,approved,2012-02-24T00:00:15.000+01:00,2013-03-05T13:11:39.000+01:00,manual,Banken,,2012-02-24T00:00:15.000+01:00,bdsg34,,,,,[9]
547,Sparkasse Gießen,Johannesstraße 3,35390,Gießen,,http://www.sparkasse-giessen.de/,,0641704422,,approved,2012-02-24T00:00:14.000+01:00,2012-02-24T00:00:14.000+01:00,fax,Banken,,2012-02-24T00:00:14.000+01:00,bdsg34,,,,,[9]
524,Sparkasse Gifhorn-Wolfsburg,Schlossplatz 3,38518,Gifhorn,,http://www.spk-gifhorn-wolfsburg.de/,,05371841,06.02.2013: Lt. Mail d. Datenschutzbeauftragten umgestellt auf manual,approved,2012-02-24T00:00:13.000+01:00,2013-03-05T13:12:08.000+01:00,manual,Banken,,2012-02-24T00:00:13.000+01:00,bdsg34,,,,,[9]
269,Sparkasse Goslar/Harz,Rammelsberger Straße 2,38640,Goslar,,https://www.sparkasse-goslar-harz.de/,,053217060,,approved,2012-02-23T23:59:13.000+01:00,2013-03-27T11:14:53.000+01:00,manual,Banken,,2012-02-23T23:59:13.000+01:00,bdsg34,,,,,[9]
346,Sparkasse Göttingen,Weender Straße 13,37073,Göttingen,,http://www.spk-goettingen.de/,,05514050,,approved,2012-02-23T23:59:58.000+01:00,2012-02-23T23:59:58.000+01:00,fax,Banken,,2012-02-23T23:59:58.000+01:00,bdsg34,,,,,[9]
400,Sparkasse Grünberg,Gießener Straße 8,35305,Grünberg,,http://www.sparkasse-gruenberg.de/,,064019290,,approved,2012-02-24T00:00:05.000+01:00,2012-02-24T00:00:05.000+01:00,fax,Banken,,2012-02-24T00:00:05.000+01:00,bdsg34,,,,,[9]
477,Sparkasse Gummersbach-Bergneustadt,Hindenburgstraße 4-8,51643,Gummersbach,,http://www.sparkasse-gm.de/,,02261310,,approved,2012-02-24T00:00:09.000+01:00,2012-02-24T00:00:09.000+01:00,fax,Banken,,2012-02-24T00:00:09.000+01:00,bdsg34,,,,,[9]
227,Sparkasse Günzburg-Krumbach,An der Kapuzinermauer 2,89312,Günzburg,,http://www.sparkasse-guenzburg-krumbach.de,,08221920,,approved,2012-02-23T00:19:25.000+01:00,2012-02-23T00:19:25.000+01:00,fax,Banken,,2012-02-23T00:19:25.000+01:00,bdsg34,,,,,[9]
505,Sparkasse Gütersloh,Konrad-Adenauer-Platz 1,33330,Gütersloh,,http://www.sparkasse-guetersloh.de/,,052411011,06.02.2013: lt. Mail d. Datenschutzbeauftragten umgestellt auf manual,approved,2012-02-24T00:00:11.000+01:00,2013-03-05T13:12:58.000+01:00,manual,Banken,,2012-02-24T00:00:11.000+01:00,bdsg34,,,,,[9]
343,Sparkasse Hagen,Körnerstraße 24,58095,Hagen,,http://www.sparkasse-hagen.de/,,023312060,22.03.2013: Lt. Mail d. Datenschutzbeauftragten umgestellt auf manual.,approved,2012-02-23T23:59:58.000+01:00,2013-03-22T14:46:00.000+01:00,manual,Banken,,2012-02-23T23:59:58.000+01:00,bdsg34,,,,,[9]
351,Sparkasse Hamm,Weststraße 5-7,59065,Hamm,,http://www.sparkasse-hamm.de/,,023811030,,approved,2012-02-23T23:59:59.000+01:00,2012-02-23T23:59:59.000+01:00,fax,Banken,,2012-02-23T23:59:59.000+01:00,bdsg34,,,,,[9]
539,Sparkasse Hanau,Am Markt 1,63450,Hanau,,http://www.sparkasse-hanau.de/,,061812980,,approved,2012-02-24T00:00:14.000+01:00,2012-02-24T00:00:14.000+01:00,fax,Banken,,2012-02-24T00:00:14.000+01:00,bdsg34,,,,,[9]
349,Sparkasse Hanauerland,Hauptstrasse 88,77694,Kehl,,http://www.sparkasse-kehl.de/,,078518600,,approved,2012-02-23T23:59:59.000+01:00,2012-02-23T23:59:59.000+01:00,fax,Banken,,2012-02-23T23:59:59.000+01:00,bdsg34,,,,,[9]
611,Sparkasse Hannover,Aegidientorplatz 1,30159,Hannover,,http://www.sparkasse-hannover.de/,,051130000,,approved,2012-02-24T00:00:18.000+01:00,2012-02-24T00:00:18.000+01:00,fax,Banken,,2012-02-24T00:00:18.000+01:00,bdsg34,,,,,[9]
370,Sparkasse Harburg-Buxtehude,Sand 2,21073,Hamburg,,http://www.sparkasse-harburg-buxtehude.de/,,040766910,06.02.2013: lt. Mail d. Datenschutzbeauftragten umgestellt auf manual,approved,2012-02-24T00:00:00.000+01:00,2013-03-05T13:13:39.000+01:00,manual,Banken,,2012-02-24T00:00:00.000+01:00,bdsg34,,,,,[9]
531,Sparkasse Haslach-Zell,Hauptstraße 12,77716,Haslach i.K.,,http://www.sparkasse-haslach-zell.de/,,078327010,,approved,2012-02-24T00:00:13.000+01:00,2012-02-24T00:00:13.000+01:00,fax,Banken,,2012-02-24T00:00:13.000+01:00,bdsg34,,,,,[9]
475,Sparkasse Hattingen,Roonstraße 1,45525,Hattingen,,http://www.sparkasse-hattingen.de/,,023242030,,approved,2012-02-24T00:00:09.000+01:00,2012-02-24T00:00:09.000+01:00,fax,Banken,,2012-02-24T00:00:09.000+01:00,bdsg34,,,,,[9]
290,Sparkasse Heidelberg,Kurfürsten-Anlage 10-12,69115,Heidelberg,,http://www.sparkasse-heidelberg.de/,,062215110,06.02.2013: lt. Mail d. Datenschutzbeauftragten umgestellt auf manual,approved,2012-02-23T23:59:15.000+01:00,2013-03-05T13:14:11.000+01:00,manual,Banken,,2012-02-23T23:59:15.000+01:00,bdsg34,,,,,[9]
602,Sparkasse Heiligenhaus,Hauptstraße 160,42579,Heiligenhaus,,http://www.sparkasse-heiligenhaus.de/,,020569160,,approved,2012-02-24T00:00:17.000+01:00,2012-02-24T00:00:17.000+01:00,fax,Banken,,2012-02-24T00:00:17.000+01:00,bdsg34,,,,,[9]
570,Sparkasse Hennef,Frankfurter Straße 112,53773,Hennef,,http://www.sparkasse-hennef.de/,,0224288010,,approved,2012-02-24T00:00:15.000+01:00,2012-02-24T00:00:15.000+01:00,fax,Banken,,2012-02-24T00:00:15.000+01:00,bdsg34,,,,,[9]
334,Sparkasse Hennstedt-Wesselburen,Mühlenstraße 18,25779,Hennstedt,,http://www.spk-hennstedt-wesselburen.de/,,04836880,,approved,2012-02-23T23:59:58.000+01:00,2012-02-23T23:59:58.000+01:00,fax,Banken,,2012-02-23T23:59:58.000+01:00,bdsg34,,,,,[9]
525,Sparkasse Herford,Auf der Freiheit 20,32052,Herford,,http://www.sparkasse-herford.de/,,05221160,,approved,2012-02-24T00:00:13.000+01:00,2012-02-24T00:00:13.000+01:00,fax,Banken,,2012-02-24T00:00:13.000+01:00,bdsg34,,,,,[9]
488,Sparkasse Hilden·Ratingen·Velbert,Friedrichstraße 181,42551,Velbert,,https://www.sparkasse-hrv.de/,,020513150,"12.03.2013: lt. Mail d. Datenschutzbeauftragten umgestellt auf manuell:
""Die Sparkasse bittet Sie, Ihre Anfrage im Original und eigenhändig von Ihnen unterschrieben zukommen zu lassen.

Da der Sparkasse das Thema Datenschutz sehr wichtig ist, fügen Sie bitte
eine Kopie Ihres Personalausweises oder eines anderen gültigen
Legitimationspapiers bei, auf dem insbesondere Name, Anschrift, Geburtsdatum und Gültigkeitsdauer erkennbar und gut lesbar sind. Dies dient der Verifizierung Ihrer Unterschrift und Ihrer Identität, zu der Sie eine
Selbstauskunft anfordern und wird nur zu diesem Zweck verwendet.

Unter Bezugnahme auf § 34 Absatz 1 Satz 2 BDSG bittet die Sparkasse Sie weiterhin um einen entsprechenden Hinweis, um welche Art von
personenbezogenen Daten es Ihnen bei Ihrer Selbstauskunft geht bzw. in
welcher Funktion Sie Kontakt mit ihr hatten (z.B. als Bankkunde, Lieferant,
Bewerber, Mitarbeiter, Interessent usw.).""",approved,2012-02-24T00:00:10.000+01:00,2013-08-05T13:10:00.000+02:00,manual,Banken,,2012-02-24T00:00:10.000+01:00,bdsg34,,,,,[9]
511,Sparkasse Hildesheim,Rathausstraße 21-23,31134,Hildesheim,,http://sparkassen-partner.de/dyn/f9af9bf08b86012e54630024215f219a/redirect,,051215800,,approved,2012-02-24T00:00:12.000+01:00,2012-02-24T00:00:12.000+01:00,fax,Banken,,2012-02-24T00:00:12.000+01:00,bdsg34,,,,,[9]
229,Sparkasse Hochfranken,Schillerstr. 3,95100,Selb,,http://www.sparkasse-hochfranken.de,,09287840,,approved,2012-02-23T00:19:25.000+01:00,2012-02-23T00:19:25.000+01:00,fax,Banken,,2012-02-23T00:19:25.000+01:00,bdsg34,,,,,[9]
376,Sparkasse Hochrhein,Bismarckstraße 7,79761,Waldshut-Tiengen,,http://www.sparkasse-hochrhein.de/,,077518820,12.02.2013: lt. Mail d. Datenschutzbeauftragten umgestellt auf manual,approved,2012-02-24T00:00:00.000+01:00,2013-02-12T10:06:27.000+01:00,manual,Banken,,2012-02-24T00:00:00.000+01:00,bdsg34,,,,,[9]
382,Sparkasse Hochsauerland,Am Markt 4,59929,Brilon,,http://www.sparkasse-hochsauerland.de/,,029617930,,approved,2012-02-24T00:00:01.000+01:00,2012-02-24T00:00:01.000+01:00,fax,Banken,,2012-02-24T00:00:01.000+01:00,bdsg34,,,,,[9]
321,Sparkasse Hochschwarzwald,Am Postplatz 10,79822,Titisee-Neustadt,,http://www.sparkasse-hochschwarzwald.de/,,076519000,,approved,2012-02-23T23:59:57.000+01:00,2012-02-23T23:59:57.000+01:00,fax,Banken,,2012-02-23T23:59:57.000+01:00,bdsg34,,,,,[9]
508,Sparkasse Hohenlohekreis,Konsul-Uebele-Straße11,74653,Künzelsau,,http://www.spk-hohenlohekreis.de/,,079401200,,approved,2012-02-24T00:00:12.000+01:00,2012-02-24T00:00:12.000+01:00,fax,Banken,,2012-02-24T00:00:12.000+01:00,bdsg34,,,,,[9]
526,Sparkasse Hohenwestedt,Lindenstraße 32,24594,Hohenwestedt,,http://www.spk-hohenwestedt.de/,,048714040,,approved,2012-02-24T00:00:13.000+01:00,2012-02-24T00:00:13.000+01:00,fax,Banken,,2012-02-24T00:00:13.000+01:00,bdsg34,,,,,[9]
507,Sparkasse Holstein,Am Rosengarten 3,23701,Eutin,,http://www.sparkasse-holstein.de/,,018033667733,,approved,2012-02-24T00:00:12.000+01:00,2012-02-24T00:00:12.000+01:00,fax,Banken,,2012-02-24T00:00:12.000+01:00,bdsg34,,,,,[9]
398,Sparkasse Höxter,Nieheimer Straße 2,33034,Brakel,,http://www.sparkasse-hoexter.de/,,052723660,05.02.2013 lt. Mail d. Datenschutzbeauftragten umgestellt auf manual,approved,2012-02-24T00:00:05.000+01:00,2013-03-05T13:15:33.000+01:00,manual,Banken,,2012-02-24T00:00:05.000+01:00,bdsg34,,,,,[9]
210,Sparkasse im Landkreis Cham,Further Str. 1,93413,Cham,,http://www.spk-cham.de,,099714810,,approved,2012-02-23T00:19:24.000+01:00,2012-02-23T00:19:24.000+01:00,fax,Banken,,2012-02-23T00:19:24.000+01:00,bdsg34,,,,,[9]
247,Sparkasse im Landkreis Neustadt a. d. Aisch- Bad Windsheim,Sparkassenplatz 1,91413,Neustadt a. d. Aisch,,http://www.sparkasse-nea.de,,09161910,,approved,2012-02-23T00:19:25.000+01:00,2012-02-23T00:19:25.000+01:00,fax,Banken,,2012-02-23T00:19:25.000+01:00,bdsg34,,,,,[9]
263,Sparkasse im Landkreis Schwandorf,Postgartenstr. 4-6,92421,Schwandorf,,http://www.sparkasseschwandorf.de,,094317200,,approved,2012-02-23T00:19:25.000+01:00,2012-02-23T00:19:25.000+01:00,fax,Banken,,2012-02-23T00:19:25.000+01:00,bdsg34,,,,,[9]
231,Sparkasse Ingolstadt,Rathausplatz 6,85049,Ingolstadt,,http://www.sparkasse-ingolstadt.de,,08413044040,,approved,2012-02-23T00:19:25.000+01:00,2012-02-23T00:19:25.000+01:00,fax,Banken,,2012-02-23T00:19:25.000+01:00,bdsg34,,,,,[9]
500,Sparkasse Jena-Saale-Holzland,Ludwig-Weimar-Gasse 5,07743,Jena,,http://www.s-jena.de/,,036416790,,approved,2012-02-24T00:00:11.000+01:00,2012-02-24T00:00:11.000+01:00,fax,Banken,,2012-02-24T00:00:11.000+01:00,bdsg34,,,,,[9]
490,Sparkasse Jerichower Land,Schartauer Straße 5,39288,Burg,,http://www.sparkasse-jerichower-land.de/,,039219280,,approved,2012-02-24T00:00:11.000+01:00,2013-03-27T11:15:56.000+01:00,manual,Banken,,2012-02-24T00:00:11.000+01:00,bdsg34,,,,,[9]
294,Sparkasse Karlsruhe Ettlingen,Kaiserstraße 223,76133,Karlsruhe,,http://www.sparkasse-ka.de/,,07211460,,approved,2012-02-23T23:59:15.000+01:00,2012-02-23T23:59:15.000+01:00,fax,Banken,,2012-02-23T23:59:15.000+01:00,bdsg34,,,,,[9]
606,Sparkasse Kierspe-Meinerzhagen,Thingslindestraße 1,58566,Kierspe,,http://www.sparkasse-kierspe-meinerzhagen.de/,,0235991700,,approved,2012-02-24T00:00:17.000+01:00,2012-02-24T00:00:17.000+01:00,fax,Banken,,2012-02-24T00:00:17.000+01:00,bdsg34,,,,,[9]
443,Sparkasse Kleve,Hagsche Straße 33,47533,Kleve,,http://www.sparkasse-kleve.de/,,02821880,,approved,2012-02-24T00:00:07.000+01:00,2012-02-24T00:00:07.000+01:00,fax,Banken,,2012-02-24T00:00:07.000+01:00,bdsg34,,,,,[9]
423,Sparkasse Koblenz,Bahnhofstraße 11,56068,Koblenz,,http://www.sparkasse-koblenz.de/,,02613930,,approved,2012-02-24T00:00:06.000+01:00,2012-02-24T00:00:06.000+01:00,fax,Banken,,2012-02-24T00:00:06.000+01:00,bdsg34,,,,,[9]
728,Sparkasse KölnBonn,Hahnenstraße 57,50667,Köln,kontakt@sparkasse-koelnbonn.de,https://www.sparkasse-koelnbonn.de/,https://www.sparkasse-koelnbonn.de/Impressum.aspx,02212260,06.02.2013: lt. Mail d. Datenschutzbeauftragten umgestellt auf manual,approved,2012-03-05T13:56:49.000+01:00,2013-03-05T13:24:37.000+01:00,manual,Banken,sparkasse-koeln-bonn,2012-03-07T10:14:38.000+01:00,bdsg34,,,,,[9]
605,Sparkasse Krefeld,Ostwall 155,47798,Krefeld,,http://www.sparkasse-krefeld.de/,,02151680,,approved,2012-02-24T00:00:17.000+01:00,2012-02-24T00:00:17.000+01:00,fax,Banken,,2012-02-24T00:00:17.000+01:00,bdsg34,,,,,[9]
234,Sparkasse Kulmbach-Kronach,Fritz-Hornschuch-Str. 10,95326,Kulmbach,,http://www.s-kukc.de,,092616600,,approved,2012-02-23T00:19:25.000+01:00,2012-02-23T00:19:25.000+01:00,fax,Banken,,2012-02-23T00:19:25.000+01:00,bdsg34,,,,,[9]
235,Sparkasse Landsberg-Dießen,Hauptplatz 1-7,86899,Landsberg,,http://www.sparkasse-landsberg.de,,081911240,,approved,2012-02-23T00:19:25.000+01:00,2012-02-23T00:19:25.000+01:00,fax,Banken,,2012-02-23T00:19:25.000+01:00,bdsg34,,,,,[9]
236,Sparkasse Landshut,Bischof-Sailer-Platz 431,84028,Landshut,,http://www.sparkasse-landshut.de,,08718250,,approved,2012-02-23T00:19:25.000+01:00,2012-02-23T00:19:25.000+01:00,fax,Banken,,2012-02-23T00:19:25.000+01:00,bdsg34,,,,,[9]
388,Sparkasse Laubach-Hungen,August-Krieger-Straße 19,35321,Laubach,,http://www.spk-laubach-hungen.de/,,064058290,,approved,2012-02-24T00:00:01.000+01:00,2012-02-24T00:00:01.000+01:00,fax,Banken,,2012-02-24T00:00:01.000+01:00,bdsg34,,,,,[9]
514,Sparkasse Leer-Weener,Mühlenstraße 93,26789,Leer,,http://www.sparkasse-leer.de/,,049198980,,approved,2012-02-24T00:00:12.000+01:00,2012-02-24T00:00:12.000+01:00,fax,Banken,,2012-02-24T00:00:12.000+01:00,bdsg34,,,,,[9]
458,Sparkasse Leipzig,Humboldtstraße 25,04105,Leipzig,,http://www.sparkasse-leipzig.de/,,03419860,07.02.2013: lt. Datenschutzbeauftragten umgestellt auf manual,approved,2012-02-24T00:00:08.000+01:00,2013-02-07T14:04:52.000+01:00,manual,Banken,,2012-02-24T00:00:08.000+01:00,bdsg34,,,,,[9]
607,Sparkasse Lemgo,Mittelstraße 73-79,32657,Lemgo,,http://www.sparkasse-lemgo.de/,,052612140,,approved,2012-02-24T00:00:17.000+01:00,2012-02-24T00:00:17.000+01:00,fax,Banken,,2012-02-24T00:00:17.000+01:00,bdsg34,,,,,[9]
515,Sparkasse Leverkusen,Friedrich-Ebert-Straße 39,51373,Leverkusen,,https://www.sparkasse-lev.de/,,02143550,,approved,2012-02-24T00:00:12.000+01:00,2012-02-24T00:00:12.000+01:00,fax,Banken,,2012-02-24T00:00:12.000+01:00,bdsg34,,,,,[9]
437,Sparkasse Lippstadt,Spielplatzstraße 10,59555,Lippstadt,,http://www.sparkasse-lippstadt.de/,,029417570,,approved,2012-02-24T00:00:07.000+01:00,2012-02-24T00:00:07.000+01:00,fax,Banken,,2012-02-24T00:00:07.000+01:00,bdsg34,,,,,[9]
543,Sparkasse Lörrach-Rheinfelden,Haagener Straße 2,79539,Lörrach,,http://www.spk-loerrach-rheinfelden.de/,,076214110,,approved,2012-02-24T00:00:14.000+01:00,2012-02-24T00:00:14.000+01:00,fax,Banken,,2012-02-24T00:00:14.000+01:00,bdsg34,,,,,[9]
487,Sparkasse Lüdenscheid Zweckverbandssparkasse,Sauerfelder Straße 7-11,58511,Lüdenscheid,,http://www.sparkasse-luedenscheid.de/,,023511520,,approved,2012-02-24T00:00:10.000+01:00,2012-02-24T00:00:10.000+01:00,fax,Banken,,2012-02-24T00:00:10.000+01:00,bdsg34,,,,,[9]
551,Sparkasse Lüneburg,An der Münze 4-6,21335,Lüneburg,,http://www.die-sparkasse.de/,,041312880,,approved,2012-02-24T00:00:14.000+01:00,2012-02-24T00:00:14.000+01:00,fax,Banken,,2012-02-24T00:00:14.000+01:00,bdsg34,,,,,[9]
378,Sparkasse Lünen,Graf-Adolf-Straße 39,44530,Lünen,,http://www.sparkasse-luenen.de/,,023061050,,approved,2012-02-24T00:00:01.000+01:00,2012-02-24T00:00:01.000+01:00,fax,Banken,,2012-02-24T00:00:01.000+01:00,bdsg34,,,,,[9]
237,Sparkasse Mainfranken Würzburg,Hofstr. 9,97070,Würzburg,,http://www.sparkassemainfranken.de,,09313820,,approved,2012-02-23T00:19:25.000+01:00,2012-02-23T00:19:25.000+01:00,fax,Banken,,2012-02-23T00:19:25.000+01:00,bdsg34,,,,,[9]
501,Sparkasse Mainz,Bahnhofstraße 1,55116,Mainz,,http://www.sparkasse-mainz.de/,,061369202646,,approved,2012-02-24T00:00:11.000+01:00,2012-02-24T00:00:11.000+01:00,fax,Banken,,2012-02-24T00:00:11.000+01:00,bdsg34,,,,,[9]
312,Sparkasse Mansfelder Land,Markt 2-4,06295,Eisleben,,http://www.sparkasse-mansfelder-land.de/,,0347567590,,approved,2012-02-23T23:59:57.000+01:00,2012-02-23T23:59:57.000+01:00,fax,Banken,,2012-02-23T23:59:57.000+01:00,bdsg34,,,,,[9]
347,Sparkasse Markgräflerland,Werderstraße 42-44,79379,Müllheim,,http://www.sparkasse-markgraeflerland.de/,,07631870,,approved,2012-02-23T23:59:58.000+01:00,2012-02-23T23:59:58.000+01:00,fax,Banken,,2012-02-23T23:59:58.000+01:00,bdsg34,,,,,[9]
521,Sparkasse Märkisch-Oderland,Große Straße 2-3,15344,Strausberg,,http://www.sparkasse-mol.de/,,033413400,,approved,2012-02-24T00:00:12.000+01:00,2012-02-24T00:00:12.000+01:00,fax,Banken,,2012-02-24T00:00:12.000+01:00,bdsg34,,,,,[9]
284,Sparkasse Mecklenburg-Nordwest,Am Markt 15,23966,Wismar,,http://www.spk-mecklenburg-nordwest.de/,,038412400,05.02.2013: lt. Mail d. Datenschutzbeauftragten umgestellt auf manual,approved,2012-02-23T23:59:14.000+01:00,2013-03-05T13:27:05.000+01:00,manual,Banken,,2012-02-23T23:59:14.000+01:00,bdsg34,,,,,[9]
395,Sparkasse Mecklenburg-Schwerin,Marienplatz 9,19053,Schwerin,,http://www.sparkasse-mecklenburg-schwerin.de/,,0180514052000,,approved,2012-02-24T00:00:05.000+01:00,2012-02-24T00:00:05.000+01:00,fax,Banken,,2012-02-24T00:00:05.000+01:00,bdsg34,,,,,[9]
405,Sparkasse Mecklenburg-Strelitz,Strelitzer Straße 27,17235,Neustrelitz,,http://www.spk-mecklenburg-strelitz.de/,,039812740,06.02.2013: lt. Mail d. Datenschutzbeauftragten umgestellt auf manual,approved,2012-02-24T00:00:05.000+01:00,2013-03-05T13:27:38.000+01:00,manual,Banken,,2012-02-24T00:00:05.000+01:00,bdsg34,,,,,[9]
428,Sparkasse Meißen,Hauptstraße 70,01587,Riesa,,http://www.sparkasse-meissen.de/,,0352551500,,approved,2012-02-24T00:00:06.000+01:00,2013-03-27T11:16:09.000+01:00,manual,Banken,,2012-02-24T00:00:06.000+01:00,bdsg34,,,,,[9]
238,Sparkasse Memmingen-Lindau-Mindelheim,St.-Josefs-Kirchplatz 6-8,87700,Memmingen,,http://www.spk-mm-li-mn.de,,083316090,,approved,2012-02-23T00:19:25.000+01:00,2012-02-23T00:19:25.000+01:00,fax,Banken,,2012-02-23T00:19:25.000+01:00,bdsg34,,,,,[9]
369,Sparkasse Menden,Papenhausenstraße 15,58706,Menden,,http://www.sparkasse-menden.de/,,023731620,,approved,2012-02-24T00:00:00.000+01:00,2012-02-24T00:00:00.000+01:00,fax,Banken,,2012-02-24T00:00:00.000+01:00,bdsg34,,,,,[9]
374,Sparkasse Meschede,Winziger Platz 6,59872,Meschede,,http://www.sparkasse-meschede.de/,,02912080,,approved,2012-02-24T00:00:00.000+01:00,2012-02-24T00:00:00.000+01:00,fax,Banken,,2012-02-24T00:00:00.000+01:00,bdsg34,,,,,[9]
240,Sparkasse Miltenberg-Obernburg,Mainstr. 15,63897,Miltenberg,,http://www.s-mil.de,,060225010,,approved,2012-02-23T00:19:25.000+01:00,2012-02-23T00:19:25.000+01:00,fax,Banken,,2012-02-23T00:19:25.000+01:00,bdsg34,,,,,[9]
552,Sparkasse Minden-Lübbecke,Scharn 9,32423,Minden,,http://www.sparkasse-minden-luebbecke.de/,,05718060,,approved,2012-02-24T00:00:14.000+01:00,2012-02-24T00:00:14.000+01:00,fax,Banken,,2012-02-24T00:00:14.000+01:00,bdsg34,,,,,[9]
241,Sparkasse Mittelfranken-Süd,Westring 38,91154,Roth,,http://www.sparkasse-mittelfranken-sued.de,,09171820,,approved,2012-02-23T00:19:25.000+01:00,2012-02-23T00:19:25.000+01:00,fax,Banken,,2012-02-23T00:19:25.000+01:00,bdsg34,,,,,[9]
478,Sparkasse Mittelholstein AG,Röhlingsplatz 1,24768,Rendsburg,,http://www.spk-mittelholstein.de/,,043315950,,approved,2012-02-24T00:00:09.000+01:00,2012-02-24T00:00:09.000+01:00,fax,Banken,,2012-02-24T00:00:09.000+01:00,bdsg34,,,,,[9]
484,Sparkasse Mittelmosel - Eifel Mosel Hunsrück,Cusanusstraße 24a,54470,Bernkastel-Kues,,http://www.sparkasse-emh.de/,,065319590,,approved,2012-02-24T00:00:10.000+01:00,2012-02-24T00:00:10.000+01:00,fax,Banken,,2012-02-24T00:00:10.000+01:00,bdsg34,,,,,[9]
481,Sparkasse Mittelthüringen,Anger 25/26,99084,Erfurt,,http://www.sparkasse-mittelthueringen.de/,,01803545000,,approved,2012-02-24T00:00:10.000+01:00,2012-02-24T00:00:10.000+01:00,fax,Banken,,2012-02-24T00:00:10.000+01:00,bdsg34,,,,,[9]
454,Sparkasse Mittleres Erzgebirge,Hanischallee 11,09496,Marienberg,,http://www.sparkasse-mittleres-erzgebirge.de/,,037356690,,approved,2012-02-24T00:00:08.000+01:00,2012-02-24T00:00:08.000+01:00,fax,Banken,,2012-02-24T00:00:08.000+01:00,bdsg34,,,,,[9]
329,Sparkasse Muldental,Straße des Friedens 25,04662,Grimma,,http://www.spk-muldental.de/,,034379910,"07.02.2013: umgestellt auf manual:
Die Sparkasse bittet Sie, Ihre Anfrage im Original und eigenhändig von Ihnen unterschrieben zukommen zu lassen.
       
Da der Sparkasse das Thema Datenschutz sehr wichtig ist, fügen Sie bitte eine Kopie Ihres Personalausweises oder eines anderen gültigen Legitimationspapiers bei, auf dem insbesondere Name, Anschrift, Geburtsdatum und Gültigkeitsdauer erkennbar und gut lesbar sind. Dies dient der Verifizierung Ihrer Unterschrift und Ihrer Identität, zu der Sie eine Selbstauskunft anfordern und wird nur zu diesem Zweck verwendet.
       
Unter Bezugnahme auf § 34 Absatz 1 Satz 2 BDSG bittet die Sparkasse Sie weiterhin um einen entsprechenden Hinweis, um welche Art von personenbezogenen Daten es Ihnen bei Ihrer Selbstauskunft geht bzw. in welcher Funktion Sie Kontakt mit ihr hatten (z.B. als Bankkunde, Lieferant, Bewerber, Mitarbeiter, Interessent usw.).",approved,2012-02-23T23:59:58.000+01:00,2013-02-07T12:15:12.000+01:00,manual,Banken,,2012-02-23T23:59:58.000+01:00,bdsg34,,,,,[9]
432,Sparkasse Mülheim an der Ruhr,Berliner Platz 1,45466,Mülheim an der Ruhr,,http://www.sparkasse-muelheim-ruhr.de/,,020830050,"12.03.2013: lt. Mail d. Datenschutzbeauftragten umgestellt auf ""manuell"":
""Die Sparkasse bittet Sie, Ihre Anfrage im Original und eigenhändig von Ihnen unterschrieben zukommen zu lassen.

Da der Sparkasse das Thema Datenschutz sehr wichtig ist, fügen Sie bitte
eine Kopie Ihres Personalausweises oder eines anderen gültigen
Legitimationspapiers bei, auf dem insbesondere Name, Anschrift, Geburtsdatum und Gültigkeitsdauer erkennbar und gut lesbar sind. Dies dient der Verifizierung Ihrer Unterschrift und Ihrer Identität, zu der Sie eine
Selbstauskunft anfordern und wird nur zu diesem Zweck verwendet.

Unter Bezugnahme auf § 34 Absatz 1 Satz 2 BDSG bittet die Sparkasse Sie weiterhin um einen entsprechenden Hinweis, um welche Art von
personenbezogenen Daten es Ihnen bei Ihrer Selbstauskunft geht bzw. in
welcher Funktion Sie Kontakt mit ihr hatten (z.B. als Bankkunde, Lieferant,
Bewerber, Mitarbeiter, Interessent usw.).""",approved,2012-02-24T00:00:07.000+01:00,2013-08-05T11:50:39.000+02:00,manual,Banken,,2012-02-24T00:00:07.000+01:00,bdsg34,,,,,[9]
311,Sparkasse Münden,Bahnhofstraße 21/23,34346,Hann. Münden,,http://www.spk-muenden.de/,,055417080,,approved,2012-02-23T23:59:16.000+01:00,2013-03-27T11:15:31.000+01:00,manual,Banken,,2012-02-23T23:59:16.000+01:00,bdsg34,,,,,[9]
564,Sparkasse Münsterland Ost,Weseler Straße 230,48151,Münster,,http://www.sparkasse-muensterland-ost.de/,,02515980,,approved,2012-02-24T00:00:15.000+01:00,2012-02-24T00:00:15.000+01:00,fax,Banken,,2012-02-24T00:00:15.000+01:00,bdsg34,,,,,[9]
460,Sparkasse Musterstadt,Sauerwiesen 6,67661,Kaiserslautern,,http://www.snet.de/,,063017080,,approved,2012-02-24T00:00:08.000+01:00,2012-02-24T00:00:08.000+01:00,fax,Banken,,2012-02-24T00:00:08.000+01:00,bdsg34,,,,,[9]
550,Sparkasse Neckartal-Odenwald,Hauptstraße 5,74821,Mosbach,,http://www.sparkasse-neckartal-odenwald.de/,,06261860,,approved,2012-02-24T00:00:14.000+01:00,2012-02-24T00:00:14.000+01:00,fax,Banken,,2012-02-24T00:00:14.000+01:00,bdsg34,,,,,[9]
245,Sparkasse Neuburg-Rain,Theresienstr. B 186,86633,Neuburg/Donau,,http://www.sparkasse-neuburg-rain.de,,084315050,,approved,2012-02-23T00:19:25.000+01:00,2012-02-23T00:19:25.000+01:00,fax,Banken,,2012-02-23T00:19:25.000+01:00,bdsg34,,,,,[9]
246,Sparkasse Neumarkt i. d. OPf.-Parsberg,Obere Marktstr. 52,92318,Neumarkt / OPf.,,http://www.sparkasse-neumarkt.de,,091812100,,approved,2012-02-23T00:19:25.000+01:00,2012-02-23T00:19:25.000+01:00,fax,Banken,,2012-02-23T00:19:25.000+01:00,bdsg34,,,,,[9]
415,Sparkasse Neuss,Oberstrasse 110-124,41460,Neuss,,http://www.sparkasse-neuss.de/,,021319701,,approved,2012-02-24T00:00:06.000+01:00,2012-02-24T00:00:06.000+01:00,fax,Banken,,2012-02-24T00:00:06.000+01:00,bdsg34,,,,,[9]
248,Sparkasse Neu-Ulm - Illertissen,Insel 13,89231,Neu-Ulm,,http://www.sparkasse-neu-ulm-illertissen.de,,07317090,,approved,2012-02-23T00:19:25.000+01:00,2012-02-23T00:19:25.000+01:00,fax,Banken,,2012-02-23T00:19:25.000+01:00,bdsg34,,,,,[9]
598,Sparkasse Neuwied,Hermannstraße20,56564,Neuwied,,http://www.sparkasse-neuwied.de/,,026318064773,06.02.2013: lt. Mail d. Datenschutzbeauftragten umgestellt auf manual,approved,2012-02-24T00:00:17.000+01:00,2013-03-05T13:30:59.000+01:00,manual,Banken,,2012-02-24T00:00:17.000+01:00,bdsg34,,,,,[9]
249,Sparkasse Niederbayern-Mitte,Theresienplatz 11/17,94315,Straubing,,http://www.sparkasse-niederbayern-mitte.de,,094218630,,approved,2012-02-23T00:19:25.000+01:00,2012-02-23T00:19:25.000+01:00,fax,Banken,,2012-02-23T00:19:25.000+01:00,bdsg34,,,,,[9]
386,Sparkasse Niederlausitz,Markt 2,01968,Senftenberg,,http://www.sparkasse-niederlausitz.de/,,035737020,,approved,2012-02-24T00:00:01.000+01:00,2012-02-24T00:00:01.000+01:00,fax,Banken,,2012-02-24T00:00:01.000+01:00,bdsg34,,,,,[9]
520,Sparkasse Nienburg,Goetheplatz 4,31582,Nienburg,,http://www.sparkasse-nienburg.de/,,050219690,,approved,2012-02-24T00:00:12.000+01:00,2012-02-24T00:00:12.000+01:00,fax,Banken,,2012-02-24T00:00:12.000+01:00,bdsg34,,,,,[9]
250,Sparkasse Nördlingen,Bei den Kornschrannen 1,86720,Nördlingen,,http://www.sparkasse-noerdlingen.de,,090818020,,approved,2012-02-23T00:19:25.000+01:00,2012-02-23T00:19:25.000+01:00,fax,Banken,,2012-02-23T00:19:25.000+01:00,bdsg34,,,,,[9]
251,Sparkasse Nürnberg,Lorenzer Platz 12,90402,Nürnberg,,http://www.sparkasse-nuernberg.de,,09112300,05.02.2013 lt. Mail d. Datenschutzbeauftragten umgestellt auf manual,approved,2012-02-23T00:19:25.000+01:00,2013-03-05T13:45:25.000+01:00,manual,Banken,,2012-02-23T00:19:25.000+01:00,bdsg34,,,,,[9]
472,Sparkasse Oberhessen,Kaiserstraße 155,61169,Friedberg,,http://www.sparkasse-oberhessen.de/,,06031860,05.02.2013 lt. Mail d. Datenschutzbeauftragten umgestellt auf manual,approved,2012-02-24T00:00:09.000+01:00,2013-03-05T13:46:01.000+01:00,manual,Banken,,2012-02-24T00:00:09.000+01:00,bdsg34,,,,,[9]
595,Sparkasse Oberlausitz-Niederschlesien,Frauenstraße 21,02763,Zittau,,http://www.ksk-loebau-zittau.de/,,035836030,"(07.02.2014): lt. Mail d. Datenschutzbeauftragten umgestellt auf ""manuell"".",approved,2012-02-24T00:00:17.000+01:00,2014-02-07T11:29:40.000+01:00,manual,Banken,,2012-02-24T00:00:17.000+01:00,bdsg34,,,,,[9]
252,Sparkasse Oberpfalz Nord,Sparkassenplatz 1,92637,Weiden,,http://www.sparkasse-oberpfalz-nord.de,,0961830,,approved,2012-02-23T00:19:25.000+01:00,2012-02-23T00:19:25.000+01:00,fax,Banken,,2012-02-23T00:19:25.000+01:00,bdsg34,,,,,[9]
380,Sparkasse Odenwaldkreis,Martin-Luther-Straße 53/55,64711,Erbach,,http://www.sparkasse-odenwaldkreis.de/,,06062500,,approved,2012-02-24T00:00:01.000+01:00,2012-02-24T00:00:01.000+01:00,fax,Banken,,2012-02-24T00:00:01.000+01:00,bdsg34,,,,,[9]
453,Sparkasse Oder-Spree,Franz-Mehring-Straße 22,15230,Frankfurt (Oder),,http://www.s-os.de/,,033641510,,approved,2012-02-24T00:00:08.000+01:00,2012-02-24T00:00:08.000+01:00,fax,Banken,,2012-02-24T00:00:08.000+01:00,bdsg34,,,,,[9]
529,Sparkasse Offenburg/Ortenau,Bertha-von-Suttner-Straße 8,77654,Offenburg,,http://www.sparkasse-offenburg.de/,,07812000,,approved,2012-02-24T00:00:13.000+01:00,2012-02-24T00:00:13.000+01:00,fax,Banken,,2012-02-24T00:00:13.000+01:00,bdsg34,,,,,[9]
379,Sparkasse Olpe-Drolshagen-Wenden,Westfälische Straße 9,57462,Olpe,,http://www.sparkasse-olpe.de/,,027618980,,approved,2012-02-24T00:00:01.000+01:00,2012-02-24T00:00:01.000+01:00,fax,Banken,,2012-02-24T00:00:01.000+01:00,bdsg34,,,,,[9]
535,Sparkasse Osnabrück,Wittekindstraße 17-19,49074,Osnabrück,,http://www.sparkasse-osnabrueck.de/,,05413240,,approved,2012-02-24T00:00:13.000+01:00,2012-02-24T00:00:13.000+01:00,fax,Banken,,2012-02-24T00:00:13.000+01:00,bdsg34,,,,,[9]
331,Sparkasse Osterode am Harz,Eisensteinstraße 8-10,37520,Osterode am Harz,,http://www.sparkasse-osterode.de/,,055229690,05.02.2013 lt. Mail d. Datenschutzbeauftragten umgestellt auf manual,approved,2012-02-23T23:59:58.000+01:00,2013-03-05T13:46:49.000+01:00,manual,Banken,,2012-02-23T23:59:58.000+01:00,bdsg34,,,,,[9]
468,Sparkasse Ostprignitz-Ruppin,Fontaneplatz 1,16816,Neuruppin,,http://www.sparkasse-opr.de/,,03391811118,05.02.2013 lt. Mail d. Datenschutzbeauftragten umgestellt auf manual,approved,2012-02-24T00:00:09.000+01:00,2013-03-05T13:47:16.000+01:00,manual,Banken,,2012-02-24T00:00:09.000+01:00,bdsg34,,,,,[9]
253,Sparkasse Ostunterfranken,Marktplatz 14-15,97437,Haßfurt,,http://www.spk-ostunterfranken.de,,09521580,,approved,2012-02-23T00:19:25.000+01:00,2012-02-23T00:19:25.000+01:00,fax,Banken,,2012-02-23T00:19:25.000+01:00,bdsg34,,,,,[9]
365,Sparkasse Paderborn,Hathumarstraße 15-19,33098,Paderborn,,http://www.sparkasse-paderborn.de/,,052512920,,approved,2012-02-24T00:00:00.000+01:00,2012-02-24T00:00:00.000+01:00,fax,Banken,,2012-02-24T00:00:00.000+01:00,bdsg34,,,,,[9]
469,Sparkasse Parchim-Lübz,Moltkeplatz 1,19370,Parchim,,http://www.sparkasse-parchim.de/,,038717210,,approved,2012-02-24T00:00:09.000+01:00,2012-02-24T00:00:09.000+01:00,fax,Banken,,2012-02-24T00:00:09.000+01:00,bdsg34,,,,,[9]
254,Sparkasse Passau,Nikolastr. 1,94032,Passau,,http://www.sparkasse-passau.de,,08513980,,approved,2012-02-23T00:19:25.000+01:00,2012-02-23T00:19:25.000+01:00,fax,Banken,,2012-02-23T00:19:25.000+01:00,bdsg34,,,,,[9]
255,Sparkasse Pfaffenhofen,Sparkassenplatz 11-13,85276,Pfaffenhofen/Ilm,,http://www.sparkasse-pfaffenhofen.de,,084417550,,approved,2012-02-23T00:19:25.000+01:00,2012-02-23T00:19:25.000+01:00,fax,Banken,,2012-02-23T00:19:25.000+01:00,bdsg34,,,,,[9]
371,Sparkasse Pforzheim Calw,Poststraße 3,75172,Pforzheim,,http://www.sparkasse-pforzheim-calw.de/,,07231990,,approved,2012-02-24T00:00:00.000+01:00,2012-02-24T00:00:00.000+01:00,fax,Banken,,2012-02-24T00:00:00.000+01:00,bdsg34,,,,,[9]
449,Sparkasse Pfullendorf-Meßkirch,Bahnhofstraße 14,88630,Pfullendorf,,http://www.sparkasse-pm.de/,,075522630,,approved,2012-02-24T00:00:08.000+01:00,2012-02-24T00:00:08.000+01:00,fax,Banken,,2012-02-24T00:00:08.000+01:00,bdsg34,,,,,[9]
448,Sparkasse Prignitz,Rostocker Straße 4,16928,Pritzwalk,,http://www.spk-prignitz.de/,,033957460,,approved,2012-02-24T00:00:08.000+01:00,2012-02-24T00:00:08.000+01:00,fax,Banken,,2012-02-24T00:00:08.000+01:00,bdsg34,,,,,[9]
491,Sparkasse Radevormwald-Hückeswagen,Hohenfuhrstraße 19-21,42477,Radevormwald,,http://www.sparkasse-radevormwald.de/,,021956010,,approved,2012-02-24T00:00:11.000+01:00,2012-02-24T00:00:11.000+01:00,fax,Banken,,2012-02-24T00:00:11.000+01:00,bdsg34,,,,,[9]
473,Sparkasse Rastatt-Gernsbach,Kaiserstraße 37,76437,Rastatt,,http://www.spk-rastatt-gernsbach.de/,,072223840,,approved,2012-02-24T00:00:09.000+01:00,2012-02-24T00:00:09.000+01:00,fax,Banken,,2012-02-24T00:00:09.000+01:00,bdsg34,,,,,[9]
256,Sparkasse Regensburg,Lilienthalstr. 5,93049,Regensburg,,http://www.sparkasse-regensburg.de,,09413010,,approved,2012-02-23T00:19:25.000+01:00,2012-02-23T00:19:25.000+01:00,fax,Banken,,2012-02-23T00:19:25.000+01:00,bdsg34,,,,,[9]
257,Sparkasse Regen-Viechtach,Ludwigsbrücke 2,94209,Regen,,http://www.sparkasse-regen-viechtach.de,,099216020,,approved,2012-02-23T00:19:25.000+01:00,2012-02-23T00:19:25.000+01:00,fax,Banken,,2012-02-23T00:19:25.000+01:00,bdsg34,,,,,[9]
393,Sparkasse Rheine,Kardinal-Galen-Ring 33,48431,Rheine,,http://www.sparkasse-rheine.de/,,05971590,,approved,2012-02-24T00:00:04.000+01:00,2012-02-24T00:00:04.000+01:00,fax,Banken,,2012-02-24T00:00:04.000+01:00,bdsg34,,,,,[9]
427,Sparkasse Rhein-Haardt,Philipp-Fauth-Straße 9,67098,Bad Dürkheim,,http://www.sparkasse-rhein-haardt.de/,,063229370,,approved,2012-02-24T00:00:06.000+01:00,2012-02-24T00:00:06.000+01:00,fax,Banken,,2012-02-24T00:00:06.000+01:00,bdsg34,,,,,[9]
315,Sparkasse Rhein Neckar Nord,"D 1, 1-3",68159,Mannheim,,http://www.sparkasse-rhein-neckar-nord.de/,,06212980,,approved,2012-02-23T23:59:57.000+01:00,2012-02-23T23:59:57.000+01:00,fax,Banken,,2012-02-23T23:59:57.000+01:00,bdsg34,,,,,[9]
582,Sparkasse Rietberg,Bahnhofstraße 39,33397,Rietberg,,http://www.sparkasse-rietberg.de/,,052449865,,approved,2012-02-24T00:00:16.000+01:00,2012-02-24T00:00:16.000+01:00,fax,Banken,,2012-02-24T00:00:16.000+01:00,bdsg34,,,,,[9]
258,Sparkasse Rosenheim-Bad Aibling,Kufsteiner Str. 1-5,83022,Rosenheim,,http://www.spk-ro-aib.de,,080311820,,approved,2012-02-23T00:19:25.000+01:00,2012-02-23T00:19:25.000+01:00,fax,Banken,,2012-02-23T00:19:25.000+01:00,bdsg34,,,,,[9]
583,Sparkasse Rotenburg-Bremervörde,Am Markt 10,27404,Zeven,,http://www.spkrb.de/,,042819400,,approved,2012-02-24T00:00:16.000+01:00,2012-02-24T00:00:16.000+01:00,fax,Banken,,2012-02-24T00:00:16.000+01:00,bdsg34,,,,,[9]
260,Sparkasse Rottal-Inn,Pfarrkirchener Str. 16,84307,Eggenfelden,,http://www.sparkasse-rottal-inn.de,,0872112000,,approved,2012-02-23T00:19:25.000+01:00,2012-02-23T00:19:25.000+01:00,fax,Banken,,2012-02-23T00:19:25.000+01:00,bdsg34,,,,,[9]
545,Sparkasse Rügen,Billrothstraße4,18528,Bergen/Rügen,,http://www.sparkasse-ruegen.de/,,038388180,,approved,2012-02-24T00:00:14.000+01:00,2012-02-24T00:00:14.000+01:00,fax,Banken,,2012-02-24T00:00:14.000+01:00,bdsg34,,,,,[9]
319,Sparkasse Salem-Heiligenberg,Schlossseeallee 30,88682,Salem,,http://www.spk-salem.de/,,075538210,,approved,2012-02-23T23:59:57.000+01:00,2012-02-23T23:59:57.000+01:00,fax,Banken,,2012-02-23T23:59:57.000+01:00,bdsg34,,,,,[9]
338,Sparkasse Schaumburg,Klosterstraße 11,31737,Rinteln,,http://www.spk-schaumburg.de/,,057217090,,approved,2012-02-23T23:59:58.000+01:00,2012-02-23T23:59:58.000+01:00,fax,Banken,,2012-02-23T23:59:58.000+01:00,bdsg34,,,,,[9]
608,Sparkasse Scheeßel,An der Sparkasse 1,27383,Scheeßel,,http://www.spk-scheessel.de/,,042639350,,approved,2012-02-24T00:00:18.000+01:00,2012-02-24T00:00:18.000+01:00,fax,Banken,,2012-02-24T00:00:18.000+01:00,bdsg34,,,,,[9]
324,Sparkasse Schmallenberg,Weststraße 30-32,57392,Schmallenberg,,http://www.sparkasse-schmallenberg.de/,,029723040,,approved,2012-02-23T23:59:57.000+01:00,2012-02-23T23:59:57.000+01:00,fax,Banken,,2012-02-23T23:59:57.000+01:00,bdsg34,,,,,[9]
610,Sparkasse Schönau-Todtnau,Friedrichstrasse 10,79674,Todtnau,,http://www.sparkasse-schoenau-todtnau-.de/,,076719940,,approved,2012-02-24T00:00:18.000+01:00,2012-02-24T00:00:18.000+01:00,fax,Banken,,2012-02-24T00:00:18.000+01:00,bdsg34,,,,,[9]
438,Sparkasse Schopfheim,Adolf-Müller-Strasse 1,79650,Schopfheim,,http://www.sparkasse-schopfheim.de/,,076226960,,approved,2012-02-24T00:00:07.000+01:00,2012-02-24T00:00:07.000+01:00,fax,Banken,,2012-02-24T00:00:07.000+01:00,bdsg34,,,,,[9]
459,Sparkasse Schwäbisch Hall - Crailsheim,Hafenmarkt 1,74523,Schwäbisch Hall,,http://www.sparkasse-sha.de/,,07917540,30.01.2015: lt. Mail umgestellt auf manuell,approved,2012-02-24T00:00:08.000+01:00,2015-01-30T12:13:59.000+01:00,manual,Banken,,2012-02-24T00:00:08.000+01:00,bdsg34,,,,,[9]
264,Sparkasse Schweinfurt,Jägersbrunnen 1-7,97421,Schweinfurt,,http://www.sparkasse-sw.de,,097217210,,approved,2012-02-23T00:19:25.000+01:00,2012-02-23T00:19:25.000+01:00,fax,Banken,,2012-02-23T00:19:25.000+01:00,bdsg34,,,,,[9]
327,Sparkasse Schwerte,Postplatz 3,58239,Schwerte,,http://www.sparkasse-schwerte.de/,,023041030,"(24.02.2015) Lt. Mail d. Datenschutzbeauftragten umgestellt auf manuell:
Die Sparkasse bittet Sie, Ihre Anfrage im Original und eigenhändig von Ihnen unterschrieben zukommen zu lassen.
Da der Sparkasse das Thema Datenschutz sehr wichtig ist, fügen Sie bitte eine Kopie Ihres Personalausweis oder eines anderen gültigen
Legitimationspapiers bei, auf dem insbesondere Name, Anschrift, Geburtsdatum und Gültigkeitsdauer erkennbar und gut lesbar sind. Dies dient der Verifizierung Ihrer Unterschrift und Ihrer Identität, zu der Sie eine Selbstauskunft anfordern und wird nur zu diesem Zweck verwendet.

Unter Bezugnahme auf §34 Absatz 1 Satz 2 BDSG bittet die Sparkasse Sie weiterhin um einen entsprechenden Hinweis, um welche Art von
personenbezogenen Daten es Ihnen bei Ihrer Selbstauskunft geht bzw. in welcher Funktion Sie Kontakt mit ihr hatten (z.B. als Bankkunde, Lieferant,
Bewerber, Mitarbeiter, Interessent usw.).",approved,2012-02-23T23:59:57.000+01:00,2015-02-24T10:11:12.000+01:00,manual,Banken,,2012-02-23T23:59:57.000+01:00,bdsg34,,,,,[9]
528,Sparkasse Siegen,Morleystraße 2-6,57072,Siegen,,http://www.sparkasse-siegen.de/,,02715960,01.03.2013: lt. Mail d. Datenschutzbeauftragten umgestellt auf manual,approved,2012-02-24T00:00:13.000+01:00,2013-03-01T09:39:00.000+01:00,manual,Banken,,2012-02-24T00:00:13.000+01:00,bdsg34,,,,,[9]
517,Sparkasse Singen-Radolfzell,Erzbergerstraße 2a,78224,Singen,,http://www.sparkasse-singen-radolfzell.de/,,077318210,,approved,2012-02-24T00:00:12.000+01:00,2012-02-24T00:00:12.000+01:00,fax,Banken,,2012-02-24T00:00:12.000+01:00,bdsg34,,,,,[9]
565,Sparkasse Soest,Puppenstraße 7-9,59494,Soest,,http://www.sparkasse-soest.de/,,029211090,,approved,2012-02-24T00:00:15.000+01:00,2012-02-24T00:00:15.000+01:00,fax,Banken,,2012-02-24T00:00:15.000+01:00,bdsg34,,,,,[9]
557,Sparkasse Sonneberg,Bahnhofstraße 61,96515,Sonneberg,,http://www.spkson.de/,,036758880,,approved,2012-02-24T00:00:15.000+01:00,2012-02-24T00:00:15.000+01:00,fax,Banken,,2012-02-24T00:00:15.000+01:00,bdsg34,,,,,[9]
345,Sparkasse Spree-Neiße,Breitscheidplatz 3,03046,Cottbus,,http://www.sparkasse-spree-neisse.de/,,03556100,,approved,2012-02-23T23:59:58.000+01:00,2012-02-23T23:59:58.000+01:00,fax,Banken,,2012-02-23T23:59:58.000+01:00,bdsg34,,,,,[9]
320,Sparkasse Stade-Altes Land,Pferdemarkt 11a,21682,Stade,,http://www.sparkasse-stade-altes-land.de/,,041414900,"07.02.2013: umgestellt auf manual:
Die Sparkasse Stade-Altes Land bittet Sie, Ihre Anfrage im Original und
eigenhändig von Ihnen unterschrieben zukommen zu lassen.

Da der Sparkasse das Thema Datenschutz sehr wichtig ist, fügen Sie bitte
eine Kopie Ihres Personalausweises oder eines anderen gültigen
Legitimationspapiers bei, auf dem insbesondere Name, Anschrift,
Geburtsdatum und Gültigkeitsdauer erkennbar und gut lesbar sind. Dies dient
der Verifizierung Ihrer Unterschrift und Ihrer Identität, zu der Sie eine
Selbstauskunft anfordern und wird nur zu diesem Zweck verwendet.

Unter Bezugnahme auf § 34 Absatz 1 Satz 2 BDSG bittet die Sparkasse Sie
weiterhin um einen entsprechenden Hinweis, um welche Art von
personenbezogenen Daten es Ihnen bei Ihrer Selbstauskunft geht bzw. in
welcher Funktion Sie Kontakt mit ihr hatten (z.B. als Bankkunde, Lieferant,
Bewerber, Mitarbeiter, Interessent usw.).",approved,2012-02-23T23:59:57.000+01:00,2013-02-07T12:13:14.000+01:00,manual,Banken,,2012-02-23T23:59:57.000+01:00,bdsg34,,,,,[9]
581,Sparkasse Stadtlohn,Eschstraße 18,48703,Stadtlohn,,http://www.sparkasse-stadtlohn.de/,,025634030,"28.01.2013: lt. Mail v. Fr. Mechthild Pieper hat die Sparkasse Stadtlohn zum 31.08.2011 mit der Sparkasse Westmünsterland fusioniert; die o.g. Website verweist tatsächlich auf: www.sparkasse-westmuensterland.de
und da akt. keine Löschung vorgenommen werden kann, wurde sie auf ""blocked"" gesetzt, da die SPK Westmünsterland die Anfragen sonst doppelt erhält.",blocked,2012-02-24T00:00:16.000+01:00,2013-01-28T16:58:34.000+01:00,,Banken,,2012-02-24T00:00:16.000+01:00,bdsg34,,,,,[9]
592,Sparkasse Starkenburg,An der Sparkasse,64646,Heppenheim,,http://www.sparkasse-starkenburg.de/,,062521200,,approved,2012-02-24T00:00:17.000+01:00,2012-02-24T00:00:17.000+01:00,fax,Banken,,2012-02-24T00:00:17.000+01:00,bdsg34,,,,,[9]
420,Sparkasse Staufen-Breisach,Münstertäler Straße2,79219,Staufen,,http://www.sparkasse-staufen-breisach.de/,,0766794500,,approved,2012-02-24T00:00:06.000+01:00,2012-02-24T00:00:06.000+01:00,fax,Banken,,2012-02-24T00:00:06.000+01:00,bdsg34,,,,,[9]
439,Sparkasse St. Blasien,Menzenschwander Straße 1,79837,St. Blasien,,http://www.sparkasse-st-blasien.de/,,076724150,,approved,2012-02-24T00:00:07.000+01:00,2012-02-24T00:04:16.000+01:00,fax,Banken,,2012-02-24T00:00:07.000+01:00,bdsg34,,,,,[9]
446,Sparkasse Stockach,Schillerstraße 8,78333,Stockach,,http://www.sparkasse-stockach.de/,,077718080,,approved,2012-02-24T00:00:08.000+01:00,2012-02-24T00:00:08.000+01:00,fax,Banken,,2012-02-24T00:00:08.000+01:00,bdsg34,,,,,[9]
322,Sparkasse Südholstein,Kieler Straße 1,24534,Neumünster,,http://www.spk-suedholstein.de/,,01801010900,09.10.2014: Lt. Mail d. Datenschutzbeauftragten umgestellt auf manuell,approved,2012-02-23T23:59:57.000+01:00,2014-10-09T09:31:34.000+02:00,manual,Banken,,2012-02-23T23:59:57.000+01:00,bdsg34,,,,,[9]
555,Sparkasse Südliche Weinstraße,Marie-Curie-Straße 5,76829,Landau,,http://www.sparkasse-suew.de/,,06341180,,approved,2012-02-24T00:00:14.000+01:00,2012-02-24T00:00:14.000+01:00,fax,Banken,,2012-02-24T00:00:14.000+01:00,bdsg34,,,,,[9]
466,Sparkasse Südwestpfalz,Bahnhofstraße 23-27,66953,Pirmasens,,http://www.spk-swp.de/,,063315420,,approved,2012-02-24T00:00:09.000+01:00,2012-02-24T00:00:09.000+01:00,fax,Banken,,2012-02-24T00:00:09.000+01:00,bdsg34,,,,,[9]
283,Sparkasse Tauberfranken,Hauptstrasse 68,97941,Tauberbischofsheim,,http://www.sparkasse-tauberfranken.de/,,09341840,08.02.2013: lt. mail d. Datenschutzbeauftragten umgestellt auf manual,approved,2012-02-23T23:59:14.000+01:00,2013-02-08T09:50:43.000+01:00,manual,Banken,,2012-02-23T23:59:14.000+01:00,bdsg34,,,,,[9]
332,Sparkasse Trier,Theodor-Heuss-Allee 1,54292,Trier,,http://www.sparkasse-trier.de/,,06517121111,,approved,2012-02-23T23:59:58.000+01:00,2012-02-23T23:59:58.000+01:00,fax,Banken,,2012-02-23T23:59:58.000+01:00,bdsg34,,,,,[9]
426,Sparkasse Uckermark,Georg-Dreke-Ring 62,17291,Prenzlau,,http://www.spk-uckermark.de/,,039843659400,,approved,2012-02-24T00:00:06.000+01:00,2012-02-24T00:00:06.000+01:00,fax,Banken,,2012-02-24T00:00:06.000+01:00,bdsg34,,,,,[9]
586,Sparkasse Uecker-Randow,Stettiner Straße 13,17309,Pasewalk,,http://www.sparkasse-uecker-randow.de/,,039734340,,approved,2012-02-24T00:00:16.000+01:00,2012-02-24T00:00:16.000+01:00,fax,Banken,,2012-02-24T00:00:16.000+01:00,bdsg34,,,,,[9]
530,Sparkasse Uelzen Lüchow-Dannenberg,Veerßer Straße 42,29525,Uelzen,,http://www.sparkasse-uelzen-luechow-dannenberg.de/,,0581840,21.02.2013: lt. Mail d. Datenschutzbeauftragten umgestellt auf manual,approved,2012-02-24T00:00:13.000+01:00,2013-02-21T14:59:38.000+01:00,manual,Banken,,2012-02-24T00:00:13.000+01:00,bdsg34,,,,,[9]
483,Sparkasse Ulm,Neue Straße 66,89073,Ulm,,http://www.sparkasse-ulm.de/,,07311010,,approved,2012-02-24T00:00:10.000+01:00,2012-02-24T00:00:10.000+01:00,fax,Banken,,2012-02-24T00:00:10.000+01:00,bdsg34,,,,,[9]
367,Sparkasse Unna,Bahnhofstraße 37,59423,Unna,,http://www.sparkasse-unna.de/,,023031040,,approved,2012-02-24T00:00:00.000+01:00,2012-02-24T00:00:00.000+01:00,fax,Banken,,2012-02-24T00:00:00.000+01:00,bdsg34,,,,,[9]
462,Sparkasse Unstrut-Hainich,Untermarkt 18,99974,Mühlhausen,,http://www.sparkasse-unstrut-hainich.de/,,036014950,,approved,2012-02-24T00:00:08.000+01:00,2012-02-24T00:00:08.000+01:00,fax,Banken,,2012-02-24T00:00:08.000+01:00,bdsg34,,,,,[9]
421,Sparkasse Vogtland,Komturhof 2,08527,Plauen,,http://www.sparkasse-vogtland.de/,,037411230,,approved,2012-02-24T00:00:06.000+01:00,2012-02-24T00:00:06.000+01:00,fax,Banken,,2012-02-24T00:00:06.000+01:00,bdsg34,,,,,[9]
597,Sparkasse Vorpommern,An der Sparkasse 1,17489,Greifswald,,http://www.spk-vorpommern.de/,,038345570,,approved,2012-02-24T00:00:17.000+01:00,2012-02-24T00:00:17.000+01:00,fax,Banken,,2012-02-24T00:00:17.000+01:00,bdsg34,,,,,[9]
489,Sparkasse Waldeck-Frankenberg,Nordwall 6-8,34497,Korbach,,http://www.sparkasse-waldeck-frankenberg.de/,,056319520,07.02.2013: lt. Mail d. Datenschutzbeauftragten umgestellt auf manual,approved,2012-02-24T00:00:10.000+01:00,2013-03-05T13:50:34.000+01:00,manual,Banken,,2012-02-24T00:00:10.000+01:00,bdsg34,,,,,[9]
474,Sparkasse Warstein-Rüthen,Hauptstraße 68,59581,Warstein,,http://www.sparkasse-warstein-ruethen.de/,,0290297500,,approved,2012-02-24T00:00:09.000+01:00,2012-02-24T00:00:09.000+01:00,fax,Banken,,2012-02-24T00:00:09.000+01:00,bdsg34,,,,,[9]
435,Sparkasse Werl,Engelhardstraße 4,59457,Werl,,http://www.sparkasse-werl.de/,,029228020,,approved,2012-02-24T00:00:07.000+01:00,2012-02-24T00:00:07.000+01:00,fax,Banken,,2012-02-24T00:00:07.000+01:00,bdsg34,,,,,[9]
503,Sparkasse Werra-Meißner,Friedrich-Wilhelm-Straße 40-42,37269,Eschwege,,http://www.spk-wm.de/,,056513060,,approved,2012-02-24T00:00:11.000+01:00,2012-02-24T00:00:11.000+01:00,fax,Banken,,2012-02-24T00:00:11.000+01:00,bdsg34,,,,,[9]
429,Sparkasse Weserbergland,Am Markt 4,31785,Hameln,,https://banking.sparkasse-weserbergland.de/,,0180125450110,,approved,2012-02-24T00:00:07.000+01:00,2012-02-24T00:00:07.000+01:00,fax,Banken,,2012-02-24T00:00:07.000+01:00,bdsg34,,,,,[9]
274,Sparkasse Westholstein,Dithmarscher Platz 2,25524,Itzehoe,,http://www.spk-westholstein.de/,,048216040,(25.02.2014): Lt. Mail d. Datenschutzbeauftragten umgestellt auf manuell,approved,2012-02-23T23:59:13.000+01:00,2014-02-25T14:21:42.000+01:00,manual,Banken,,2012-02-23T23:59:13.000+01:00,bdsg34,,,,,[9]
352,Sparkasse Westmünsterland,Bahnhofstr. 1,48683,Ahaus,,http://www.sparkasse-westmuensterland.de/,,018040154530,,approved,2012-02-23T23:59:59.000+01:00,2012-02-24T00:18:01.000+01:00,fax,Banken,,2012-02-23T23:59:59.000+01:00,bdsg34,,,,,[9]
300,Sparkasse Wetzlar,Seibertstraße 10,35576,Wetzlar,,http://www.sparkasse-wetzlar.de/,,064414090,,approved,2012-02-23T23:59:16.000+01:00,2012-02-23T23:59:16.000+01:00,fax,Banken,,2012-02-23T23:59:16.000+01:00,bdsg34,,,,,[9]
353,Sparkasse Wiehl,Hauptstraße 12-18,51674,Wiehl,,http://www.sparkasse-wiehl.de/,,022629820,,approved,2012-02-23T23:59:59.000+01:00,2012-02-23T23:59:59.000+01:00,fax,Banken,,2012-02-23T23:59:59.000+01:00,bdsg34,,,,,[9]
350,Sparkasse Wilhelmshaven,Theaterplatz 1,26382,Wilhelmshaven,,http://www.sparkasse-wilhelmshaven.de/,,044214010,,approved,2012-02-23T23:59:59.000+01:00,2013-03-27T11:15:44.000+01:00,manual,Banken,,2012-02-23T23:59:59.000+01:00,bdsg34,,,,,[9]
286,Sparkasse Witten,Ruhrstraße 45,58452,Witten,,http://www.sparkasse-witten.de/,,023021740,01.03.2013: lt. Mail d. Datenschutzbeauftragten umgestellt auf manual,approved,2012-02-23T23:59:14.000+01:00,2013-03-01T10:51:29.000+01:00,manual,Banken,,2012-02-23T23:59:14.000+01:00,bdsg34,,,,,[9]
340,Sparkasse Wittenberg,Am Alten Bahnhof 3,06886,Wittenberg,,http://www.sparkasse-wittenberg.de/,,034914620,,approved,2012-02-23T23:59:58.000+01:00,2012-02-23T23:59:58.000+01:00,fax,Banken,,2012-02-23T23:59:58.000+01:00,bdsg34,,,,,[9]
360,Sparkasse Wittgenstein,Poststraße 15,57319,Bad Berleburg,,http://www.sparkasse-wittgenstein.de/,,027519220,,approved,2012-02-24T00:00:00.000+01:00,2012-02-24T00:00:00.000+01:00,fax,Banken,,2012-02-24T00:00:00.000+01:00,bdsg34,,,,,[9]
422,Sparkasse Zell im Wiesental,Schönauer Straße 13,79669,Zell i.W.,,http://www.sparkasse-zell.de/,,076251360,,approved,2012-02-24T00:00:06.000+01:00,2012-02-24T00:00:06.000+01:00,fax,Banken,,2012-02-24T00:00:06.000+01:00,bdsg34,,,,,[9]
390,Sparkasse Zollernalb,Friedrichstraße 3,72336,Balingen,,http://www.sparkasse-zollernalb.de/,,07433130,06.02.2013: lt. Mail d. Datenschutzbeauftragten umgestellt auf manual,approved,2012-02-24T00:00:01.000+01:00,2013-02-07T11:52:31.000+01:00,manual,Banken,,2012-02-24T00:00:01.000+01:00,bdsg34,,,,,[9]
574,Sparkasse zu Lübeck AG,Breite Straße 18-28,23552,Lübeck,,http://www.spk-luebeck.de/,,0451147147,,approved,2012-02-24T00:00:15.000+01:00,2012-02-24T00:00:15.000+01:00,fax,Banken,,2012-02-24T00:00:15.000+01:00,bdsg34,,,,,[9]
601,Sparkasse Zwickau,Crimmitschauer Straße 1,08009,Zwickau,,http://www.sparkasse-zwickau.de/,,03753234222,,approved,2012-02-24T00:00:17.000+01:00,2012-02-24T00:00:17.000+01:00,fax,Banken,,2012-02-24T00:00:17.000+01:00,bdsg34,,,,,[9]
553,Spar- und Leihkasse zu Bredstedt,Markt 29,25821,Bredstedt,,http://www.sparkasse-bredstedt.de/,,046714090,,approved,2012-02-24T00:00:14.000+01:00,2012-02-24T00:00:14.000+01:00,fax,Banken,,2012-02-24T00:00:14.000+01:00,bdsg34,,,,,[9]
495,Städtische Sparkasse Kamen,Willy-Brandt-Platz 9,59174,Kamen,,http://www.spkkamen.de/,,023071450,,approved,2012-02-24T00:00:11.000+01:00,2012-02-24T00:00:11.000+01:00,fax,Banken,,2012-02-24T00:00:11.000+01:00,bdsg34,,,,,[9]
556,Städtische Sparkasse Offenbach am Main,Berliner Straße 46,63065,Offenbach am Main,,http://www.sparkasse-offenbach.de/,,06980671,05.02.2013 lt. Mail d. Datenschutzbeauftragten umgestellt auf manual,approved,2012-02-24T00:00:15.000+01:00,2013-03-05T13:52:16.000+01:00,manual,Banken,,2012-02-24T00:00:15.000+01:00,bdsg34,,,,,[9]
196,Stadtsparkasse Aichach,Donauwörther Str. 9-13,86551,Aichach,,http://www.stadtsparkasse-aichach.de,,08251940,,approved,2012-02-23T00:19:24.000+01:00,2013-03-27T11:14:33.000+01:00,manual,Banken,,2012-02-23T00:19:24.000+01:00,bdsg34,,,,,[9]
203,Stadtsparkasse Augsburg,Halderstr. 1-5,86150,Augsburg,,http://www.sska.de,,082132550,"12.02.2013: lt. Mail d. Datenschutzbeauftragten umgestellt auf manual:
""Die Sparkasse bittet Sie, Ihre Anfrage im Original und eigenhändig von Ihnen unterschrieben zukommen zu lassen. Dies dient der Verifizierung Ihrer Unterschrift und Ihrer Identität, zu der Sie eine Selbstauskunft anfordern und wird nur zu diesem Zweck verwendet.

       
Unter Bezugnahme auf § 34 Absatz 1 Satz 2 BDSG bittet die Sparkasse Sie weiterhin um einen entsprechenden Hinweis, um welche Art von personenbezogenen Daten es Ihnen bei Ihrer Selbstauskunft geht bzw. in welcher Funktion Sie Kontakt mit ihr hatten (z.B. als Bankkunde, Lieferant, Bewerber, Mitarbeiter, Interessent usw.).""",approved,2012-02-23T00:19:24.000+01:00,2013-02-12T10:07:39.000+01:00,manual,Banken,,2012-02-23T00:19:24.000+01:00,bdsg34,,,,,[9]
361,Stadtsparkasse Bad Honnef,Hauptstraße 34,53604,Bad Honnef,,http://www.sparkasse-honnef.de/,,022241810,,approved,2012-02-24T00:00:00.000+01:00,2012-02-24T00:00:00.000+01:00,fax,Banken,,2012-02-24T00:00:00.000+01:00,bdsg34,,,,,[9]
396,Stadtsparkasse Bad Oeynhausen,Portastraße 8-14,32545,Bad Oeynhausen,,http://www.sskbo.de/,,05731160,,approved,2012-02-24T00:00:05.000+01:00,2012-03-23T11:07:29.000+01:00,fax,Banken,,2012-02-24T00:00:05.000+01:00,bdsg34,,,,,[9]
612,Stadtsparkasse Bad Pyrmont,Brunnenstraße 2,31812,Bad Pyrmont,,http://www.ssk-bad-pyrmont.de/,,05281140,,approved,2012-02-24T00:00:18.000+01:00,2012-02-24T00:00:18.000+01:00,fax,Banken,,2012-02-24T00:00:18.000+01:00,bdsg34,,,,,[9]
569,Stadtsparkasse Bad Sachsa,Poststraße 6/7,37441,Bad Sachsa,,http://www.ssk-bad-sachsa.de/,,0552394300,,approved,2012-02-24T00:00:15.000+01:00,2013-03-27T11:15:09.000+01:00,manual,Banken,,2012-02-24T00:00:15.000+01:00,bdsg34,,,,,[9]
330,Stadtsparkasse Blomberg/Lippe,Rosenstraße 5,32825,Blomberg,,http://www.sparkasse-blomberg.de/,,052359650,,approved,2012-02-23T23:59:58.000+01:00,2012-02-23T23:59:58.000+01:00,fax,Banken,,2012-02-23T23:59:58.000+01:00,bdsg34,,,,,[9]
358,Stadtsparkasse Bocholt,Markt 8,46399,Bocholt,,http://www.stadtsparkasse-bocholt.de/,,02871970,,approved,2012-02-23T23:59:59.000+01:00,2012-02-23T23:59:59.000+01:00,fax,Banken,,2012-02-23T23:59:59.000+01:00,bdsg34,,,,,[9]
316,Stadtsparkasse Burgdorf,Marktstrasse 59,31303,Burgdorf,,http://www.stadtsparkasse-burgdorf.de/,,051368030,,approved,2012-02-23T23:59:57.000+01:00,2012-02-23T23:59:57.000+01:00,fax,Banken,,2012-02-23T23:59:57.000+01:00,bdsg34,,,,,[9]
457,Stadtsparkasse Cuxhaven,Rohdestraße 6,27472,Cuxhaven,,http://www.ssk-cuxhaven.de/,,047211090,,approved,2012-02-24T00:00:08.000+01:00,2012-02-24T00:00:08.000+01:00,fax,Banken,,2012-02-24T00:00:08.000+01:00,bdsg34,,,,,[9]
372,Stadtsparkasse Delbrück,Lange Straße 17,33129,Delbrück,,http://www.sparkasse-delbrueck.de/,,052505190,,approved,2012-02-24T00:00:00.000+01:00,2012-02-24T00:00:00.000+01:00,fax,Banken,,2012-02-24T00:00:00.000+01:00,bdsg34,,,,,[9]
510,Stadtsparkasse Dessau,Poststraße 8,06844,Dessau,,http://www.sparkasse-dessau.de/,,034025070,,approved,2012-02-24T00:00:12.000+01:00,2012-02-24T00:00:12.000+01:00,fax,Banken,,2012-02-24T00:00:12.000+01:00,bdsg34,,,,,[9]
615,Stadtsparkasse Düsseldorf,Berliner Allee 33,40212,Düsseldorf,,http://www.sskduesseldorf.de/,,02118780,,approved,2012-02-24T00:00:18.000+01:00,2012-02-24T00:00:18.000+01:00,fax,Banken,,2012-02-24T00:00:18.000+01:00,bdsg34,,,,,[9]
573,Stadtsparkasse Felsberg,Steinweg 4,34587,Felsberg,,http://www.ssk-felsberg.de/,,0566250090,,approved,2012-02-24T00:00:15.000+01:00,2012-02-24T00:00:15.000+01:00,fax,Banken,,2012-02-24T00:00:15.000+01:00,bdsg34,,,,,[9]
578,Stadtsparkasse Freudenberg,Trulichstraße 2,57258,Freudenberg,,http://www.stadtsparkasse-freudenberg.de/,,02734410,,approved,2012-02-24T00:00:16.000+01:00,2012-02-24T00:00:16.000+01:00,fax,Banken,,2012-02-24T00:00:16.000+01:00,bdsg34,,,,,[9]
381,Stadtsparkasse Gevelsberg,Mittelstraße 2-4,58285,Gevelsberg,,http://www.sparkasse-gevelsberg.de/,,023327020,,approved,2012-02-24T00:00:01.000+01:00,2012-02-24T00:00:01.000+01:00,fax,Banken,,2012-02-24T00:00:01.000+01:00,bdsg34,,,,,[9]
296,Stadtsparkasse Gladbeck,Friedrich-Ebert-Strasse 2,45964,Gladbeck,,http://www.sparkasse-gladbeck.de/,,020432710,13.02.2013: lt. Mail d. Datenschutzbeauftragten umgestellt auf manual.,approved,2012-02-23T23:59:16.000+01:00,2013-02-13T11:21:39.000+01:00,manual,Banken,,2012-02-23T23:59:16.000+01:00,bdsg34,,,,,[9]
590,Stadtsparkasse Grebenstein,Marktstraße 30,34393,Grebenstein,,http://www.stadtsparkasse-grebenstein.de/,,056747060,,approved,2012-02-24T00:00:16.000+01:00,2012-02-24T00:00:16.000+01:00,fax,Banken,,2012-02-24T00:00:16.000+01:00,bdsg34,,,,,[9]
407,Stadtsparkasse Gronau,Johann-Christian-Eberle-Platz 1,48599,Gronau,,http://www.sparkasse.gronau.de/,,025629290,,approved,2012-02-24T00:00:05.000+01:00,2012-02-24T00:00:05.000+01:00,fax,Banken,,2012-02-24T00:00:05.000+01:00,bdsg34,,,,,[9]
600,Stadt-Sparkasse Haan (Rheinl.),Kaiserstraße 37,42781,Haan,,http://www.stadt-sparkasse-haan.de/,,021295750,,approved,2012-02-24T00:00:17.000+01:00,2012-02-24T00:00:17.000+01:00,fax,Banken,,2012-02-24T00:00:17.000+01:00,bdsg34,,,,,[9]
383,Stadtsparkasse Haltern,Koeppstraße 2,45721,Haltern,,http://www.stadtsparkasse-haltern.de/,,023649360,,approved,2012-02-24T00:00:01.000+01:00,2012-02-24T00:00:01.000+01:00,fax,Banken,,2012-02-24T00:00:01.000+01:00,bdsg34,,,,,[9]
544,Stadtsparkasse Hemer,Hauptstraße 206,58675,Hemer,,http://www.sparkasse-hemer.de/,,023725080,,approved,2012-02-24T00:00:14.000+01:00,2012-02-24T00:00:14.000+01:00,fax,Banken,,2012-02-24T00:00:14.000+01:00,bdsg34,,,,,[9]
447,Stadtsparkasse Herdecke,Stiftsstraße 7-13,58313,Herdecke,,http://www.sparkasse-herdecke.de/,,02330660,,approved,2012-02-24T00:00:08.000+01:00,2012-03-23T11:07:58.000+01:00,fax,Banken,,2012-02-24T00:00:08.000+01:00,bdsg34,,,,,[9]
497,Stadtsparkasse Hilchenbach,Markt 10/12,57271,Hilchenbach,,http://www.stadtsparkasse-hilchenbach.de/,,027332850,05.02.2013: lt. Mail d. Datenschutzbeauftragten umgestellt auf manual,approved,2012-02-24T00:00:11.000+01:00,2013-03-05T13:56:15.000+01:00,manual,Banken,,2012-02-24T00:00:11.000+01:00,bdsg34,,,,,[9]
604,Stadtsparkasse Kaarst-Büttgen,Robert-Grootens-Platz 2-4,41564,Kaarst,,http://www.ssk-kaarst-buettgen.de/,,021319701,,approved,2012-02-24T00:00:17.000+01:00,2012-02-24T00:00:17.000+01:00,fax,Banken,,2012-02-24T00:00:17.000+01:00,bdsg34,,,,,[9]
689,Stadtsparkasse Kaiserslautern,Stiftsplatz 10 ,67655,Kaiserslautern,info@stadtsparkasse-kaiserslautern.de,https://www.stadtsparkasse-kaiserslautern.de,https://www.stadtsparkasse-kaiserslautern.de/module/static/impressum/index.php?n=%2Fmodule%2Fstatic%2Fimpressum%2F&IFLBSERVERID=IF@@061@@IF,063184060,,approved,2012-03-02T02:11:23.000+01:00,2012-03-02T11:27:24.000+01:00,fax,Banken,stadtsparkasse-kaiserslautern,2012-03-02T11:27:24.000+01:00,bdsg34,,,,,[9]
323,Stadt-Sparkasse Langenfeld,Solinger Straße 51-55,40764,Langenfeld,,http://www.sparkasse-langenfeld.de/,,021739090,,approved,2012-02-23T23:59:57.000+01:00,2012-02-23T23:59:57.000+01:00,fax,Banken,,2012-02-23T23:59:57.000+01:00,bdsg34,,,,,[9]
527,Stadtsparkasse Lengerich,Rathausplatz 5-7,49525,Lengerich,,http://www.stadtsparkasse-lengerich.de/,,054818020,,approved,2012-02-24T00:00:13.000+01:00,2012-02-24T00:00:13.000+01:00,fax,Banken,,2012-02-24T00:00:13.000+01:00,bdsg34,,,,,[9]
384,Stadtsparkasse Magdeburg,Lübecker Strasse 126,39124,Magdeburg,,http://www.sparkasse-magdeburg.de/,,039125060,,approved,2012-02-24T00:00:01.000+01:00,2012-02-24T00:00:01.000+01:00,fax,Banken,,2012-02-24T00:00:01.000+01:00,bdsg34,,,,,[9]
416,Stadtsparkasse Mönchengladbach,Bismarckplatz 10,41061,Mönchengladbach,,http://www.sparkasse-moenchengladbach.de/,,021612790,,approved,2012-02-24T00:00:06.000+01:00,2012-02-24T00:00:06.000+01:00,fax,Banken,,2012-02-24T00:00:06.000+01:00,bdsg34,,,,,[9]
244,Stadtsparkasse München,Sparkassenstr. 2,80331,München,,http://www.sskm.de,,08921670,,approved,2012-02-23T00:19:25.000+01:00,2012-02-23T00:19:25.000+01:00,fax,Banken,,2012-02-23T00:19:25.000+01:00,bdsg34,,,,,[9]
465,Stadtsparkasse Oberhausen,Marktstraße 97,46045,Oberhausen,,http://www.stadtsparkasse-oberhausen.de/,,02088340,"12.03.2013: lt. Mail d. Datenschutzbeauftragten umgestellt auf manuell:
""Die Sparkasse bittet Sie, Ihre Anfrage im Original und eigenhändig von Ihnen unterschrieben zukommen zu lassen.

Da der Sparkasse das Thema Datenschutz sehr wichtig ist, fügen Sie bitte
eine Kopie Ihres Personalausweises oder eines anderen gültigen
Legitimationspapiers bei, auf dem insbesondere Name, Anschrift, Geburtsdatum und Gültigkeitsdauer erkennbar und gut lesbar sind. Dies dient der Verifizierung Ihrer Unterschrift und Ihrer Identität, zu der Sie eine
Selbstauskunft anfordern und wird nur zu diesem Zweck verwendet.

Unter Bezugnahme auf § 34 Absatz 1 Satz 2 BDSG bittet die Sparkasse Sie weiterhin um einen entsprechenden Hinweis, um welche Art von
personenbezogenen Daten es Ihnen bei Ihrer Selbstauskunft geht bzw. in
welcher Funktion Sie Kontakt mit ihr hatten (z.B. als Bankkunde, Lieferant,
Bewerber, Mitarbeiter, Interessent usw.).""",approved,2012-02-24T00:00:09.000+01:00,2013-08-05T13:09:21.000+02:00,manual,Banken,,2012-02-24T00:00:09.000+01:00,bdsg34,,,,,[9]
561,Stadtsparkasse Porta Westfalica,Kirchsiek 5,32457,Porta Westfalica,,http://www.sparkasse-porta-westfalica.de/,,057197470,,approved,2012-02-24T00:00:15.000+01:00,2012-02-24T00:00:15.000+01:00,fax,Banken,,2012-02-24T00:00:15.000+01:00,bdsg34,,,,,[9]
313,Stadtsparkasse Rahden,Gerichtsstraße 1,32369,Rahden,,http://www.stadtsparkasse-rahden.de/,,057719720,,approved,2012-02-23T23:59:57.000+01:00,2012-02-23T23:59:57.000+01:00,fax,Banken,,2012-02-23T23:59:57.000+01:00,bdsg34,,,,,[9]
275,Stadtsparkasse Remscheid,Alleestraße 76/88,42853,Remscheid,,http://www.stadtsparkasse-remscheid.de/,,021911660,"12.03.2013: lt. Mail d. Datenschutzbeauftragten umgestellt auf manuell:
""Die Sparkasse bittet Sie, Ihre Anfrage im Original und eigenhändig von Ihnen unterschrieben zukommen zu lassen.

Da der Sparkasse das Thema Datenschutz sehr wichtig ist, fügen Sie bitte
eine Kopie Ihres Personalausweises oder eines anderen gültigen
Legitimationspapiers bei, auf dem insbesondere Name, Anschrift, Geburtsdatum und Gültigkeitsdauer erkennbar und gut lesbar sind. Dies dient der Verifizierung Ihrer Unterschrift und Ihrer Identität, zu der Sie eine
Selbstauskunft anfordern und wird nur zu diesem Zweck verwendet.

Unter Bezugnahme auf § 34 Absatz 1 Satz 2 BDSG bittet die Sparkasse Sie weiterhin um einen entsprechenden Hinweis, um welche Art von
personenbezogenen Daten es Ihnen bei Ihrer Selbstauskunft geht bzw. in
welcher Funktion Sie Kontakt mit ihr hatten (z.B. als Bankkunde, Lieferant,
Bewerber, Mitarbeiter, Interessent usw.).""",approved,2012-02-23T23:59:13.000+01:00,2013-08-05T13:10:22.000+02:00,manual,Banken,,2012-02-23T23:59:13.000+01:00,bdsg34,,,,,[9]
262,Stadtsparkasse Schrobenhausen,Lenbachplatz 1,86529,Schrobenhausen,,http://www.spk-schrobenhausen.de,,08252950,,approved,2012-02-23T00:19:25.000+01:00,2012-02-23T00:19:25.000+01:00,fax,Banken,,2012-02-23T00:19:25.000+01:00,bdsg34,,,,,[9]
303,Stadtsparkasse Schwalmstadt,Bahnhofstraße 16 + 18,34613,Schwalmstadt,,http://www.stadtsparkasse-schwalmstadt.de/,,066918000,,approved,2012-02-23T23:59:16.000+01:00,2012-02-23T23:59:16.000+01:00,fax,Banken,,2012-02-23T23:59:16.000+01:00,bdsg34,,,,,[9]
533,Stadtsparkasse Schwedt,Dr.-Theodor-Neubauer-Straße 44,16303,Schwedt,,http://www.sparkasse-schwedt.de/,,033322890,,approved,2012-02-24T00:00:13.000+01:00,2012-02-24T00:00:13.000+01:00,fax,Banken,,2012-02-24T00:00:13.000+01:00,bdsg34,,,,,[9]
419,Stadtsparkasse Schwelm,Hauptstraße 63,58332,Schwelm,,http://www.sparkasse-schwelm.de/,,023369170,,approved,2012-02-24T00:00:06.000+01:00,2012-02-24T00:00:06.000+01:00,fax,Banken,,2012-02-24T00:00:06.000+01:00,bdsg34,,,,,[9]
293,Stadt-Sparkasse Solingen,Kölner Straße 68-72,42648,Solingen,,http://www.sparkasse-solingen.de/,,02122860,"24.06.2013: lt. Mail d. Datenschutzbeauftragten umgestellt auf ""manual""",approved,2012-02-23T23:59:15.000+01:00,2013-06-24T09:52:30.000+02:00,manual,Banken,,2012-02-23T23:59:15.000+01:00,bdsg34,,,,,[9]
482,Stadtsparkasse Sprockhövel,Hauptstraße 68,45549,Sprockhövel,,http://www.sparkasse-sprockhoevel.de/,,023249090,,approved,2012-02-24T00:00:10.000+01:00,2012-02-24T00:00:10.000+01:00,fax,Banken,,2012-02-24T00:00:10.000+01:00,bdsg34,,,,,[9]
560,Stadtsparkasse Versmold,Münsterstraße 15a,33775,Versmold,,http://www.stadtsparkasse-versmold.de/,,054232080,,approved,2012-02-24T00:00:15.000+01:00,2013-03-27T11:17:04.000+01:00,manual,Banken,,2012-02-24T00:00:15.000+01:00,bdsg34,,,,,[9]
392,Stadtsparkasse Wedel,Gorch-Fock-Straße 2,22880,Wedel,,http://www.sparkasse-wedel.de/,,041039660,,approved,2012-02-24T00:00:04.000+01:00,2012-02-24T00:00:04.000+01:00,fax,Banken,,2012-02-24T00:00:04.000+01:00,bdsg34,,,,,[9]
357,Stadtsparkasse Wermelskirchen,Telegrafenstraße 5-9,42929,Wermelskirchen,,http://www.sparkasse-wermelskirchen.de/,,021969400,,approved,2012-02-23T23:59:59.000+01:00,2012-02-23T23:59:59.000+01:00,fax,Banken,,2012-02-23T23:59:59.000+01:00,bdsg34,,,,,[9]
344,Stadtsparkasse Werne,Markt 17-19,59368,Werne,,http://www.Sparkasse-Werne.de/,,023897890,,approved,2012-02-23T23:59:58.000+01:00,2012-02-23T23:59:58.000+01:00,fax,Banken,,2012-02-23T23:59:58.000+01:00,bdsg34,,,,,[9]
335,Stadtsparkasse Wetter (Ruhr),Kaiserstraße78,58300,Wetter (Ruhr),,http://www.sparkasse-wetter.de/,,02335830,,approved,2012-02-23T23:59:58.000+01:00,2012-02-23T23:59:58.000+01:00,fax,Banken,,2012-02-23T23:59:58.000+01:00,bdsg34,,,,,[9]
417,Stadtsparkasse Wunstorf,Lange Strasse 2,31515,Wunstorf,,http://www.ssk-wunstorf.de/,,050311020,02.05.2013 lt. Mail d. Datenschutzbeauftragten umgestellt auf manual,approved,2012-02-24T00:00:06.000+01:00,2013-03-05T13:59:01.000+01:00,manual,Banken,,2012-02-24T00:00:06.000+01:00,bdsg34,,,,,[9]
584,Stadtsparkasse Wuppertal,Islandufer 15,42103,Wuppertal,,http://www.sparkasse-wuppertal.de/,,02024881,,approved,2012-02-24T00:00:16.000+01:00,2012-02-24T00:00:16.000+01:00,fax,Banken,,2012-02-24T00:00:16.000+01:00,bdsg34,,,,,[9]
219,Stadt- und Kreissparkasse Erlangen,Hugenottenplatz 5,91054,Erlangen,,http://www.sparkasse-erlangen.de,,091318240,,approved,2012-02-23T00:19:24.000+01:00,2012-02-24T14:45:07.000+01:00,fax,Banken,,2012-02-23T00:19:24.000+01:00,bdsg34,,,,,[9]
242,Stadt- und Kreissparkasse Moosburg a.d. Isar,Stadtplatz 16,85368,Moosburg,,http://www.sparkasse-moosburg.de,,08761810,,approved,2012-02-23T00:19:25.000+01:00,2012-02-23T00:19:25.000+01:00,fax,Banken,,2012-02-23T00:19:25.000+01:00,bdsg34,,,,,[9]
259,Stadt- und Kreissparkasse Rothenburg ob der Tauber,Kapellenplatz 7,91541,Rothenburg/Tauber,,http://www.sparkasse-rothenburg.de,,098614010,,approved,2012-02-23T00:19:25.000+01:00,2012-02-23T00:19:25.000+01:00,fax,Banken,,2012-02-23T00:19:25.000+01:00,bdsg34,,,,,[9]
297,SWN Kreissparkasse Waiblingen,Alter Postplatz 8,71332,Waiblingen,,http://www.swn-online.de/,,01801602500,19.03.2013: lt. Mail d. Datenschutzbeauftragten umgestellt auf manual.,approved,2012-02-23T23:59:16.000+01:00,2013-03-19T12:13:36.000+01:00,manual,Banken,,2012-02-23T23:59:16.000+01:00,bdsg34,,,,,[9]
645,TARGOBANK AG & Co. KGaA,Kasernenstr. 10,40213,Düsseldorf,kontakt@targobank.de,https://www.targobank.de/,https://www.targobank.de/de/service/kontakt.html,021189840,"Kontaktseite: https://www.targobank.de/de/service/kontakt.html
Impressum: https://www.targobank.de/de/service/rechtliche-hinweise.html?flap=2",approved,2012-02-26T15:58:51.000+01:00,2012-02-26T18:59:28.000+01:00,fax,Banken,targobank,2012-02-26T18:59:28.000+01:00,bdsg34,,,,,[9]
563,TaunusSparkasse,Ludwig-Erhard-Anlage 6+7,61352,Bad Homburg v.d. Höhe,,http://www.taunus-sparkasse.de/,,01802252522,,approved,2012-02-24T00:00:15.000+01:00,2012-02-24T00:00:15.000+01:00,fax,Banken,,2012-02-24T00:00:15.000+01:00,bdsg34,,,,,[9]
644,UniCredit Bank AG (Hypovereinsbank),Arabellastraße 12,81925,München,,http://www.hypovereinsbank.de/,https://www.hypovereinsbank.de/portal?view=/de/footer/kontakt.jsp,0893780,"UniCredit Bank, bei den meisten noch als HypoVereinsbank bekannt.",approved,2012-02-26T15:12:36.000+01:00,2018-02-13T09:14:34.305+01:00,manual,Banken,unicredit-hypovereinsbank,2012-02-26T15:15:41.000+01:00,bdsg34,,,,,[9]
452,Verbands-Sparkasse Wesel,Bismarckstraße 5,46483,Wesel,,http://www.verbands-sparkasse-wesel.de/,,02812051,,approved,2012-02-24T00:00:08.000+01:00,2012-02-24T00:00:08.000+01:00,fax,Banken,,2012-02-24T00:00:08.000+01:00,bdsg34,,,,,[9]
385,VerbundSparkasse Emsdetten-Ochtrup,Kirchstraße 30-34,48282,Emsdetten,,http://www.spkeo.de/,,025728720,,approved,2012-02-24T00:00:01.000+01:00,2012-02-24T00:00:01.000+01:00,fax,Banken,,2012-02-24T00:00:01.000+01:00,bdsg34,,,,,[9]
277,Vereinigte Sparkasse im Märkischen Kreis,Umlauf 7,58840,Plettenberg,,http://www.vereinigte-sparkasse-im-mk.de/,,0239192940,,approved,2012-02-23T23:59:14.000+01:00,2012-02-23T23:59:14.000+01:00,fax,Banken,,2012-02-23T23:59:14.000+01:00,bdsg34,,,,,[9]
220,Vereinigte Sparkassen Eschenbach i. d. OPf. Neustadt a.d. Waldnaab Vohenstrauß,Sparkassenplatz,92660,Neustadt a. d. Waldnaab,,http://www.vspk-neustadt.de,,096029360,,approved,2012-02-23T00:19:24.000+01:00,2012-02-23T00:19:24.000+01:00,fax,Banken,,2012-02-23T00:19:24.000+01:00,bdsg34,,,,,[9]
228,Vereinigte Sparkassen Gunzenhausen,Marktplatz 43-45,91710,Gunzenhausen,,http://www.sparkasse-gunzenhausen.de,,09831570,,approved,2012-02-23T00:19:25.000+01:00,2012-02-23T00:19:25.000+01:00,fax,Banken,,2012-02-23T00:19:25.000+01:00,bdsg34,,,,,[9]
389,Vereinigte Sparkassen i.Lkr. Weilheim i.OB,Marienplatz 2-6,82360,Weilheim i. OB,,http://www.vereinigte-sparkassen.de/,,08816410,,approved,2012-02-24T00:00:01.000+01:00,2012-02-24T00:00:01.000+01:00,fax,Banken,,2012-02-24T00:00:01.000+01:00,bdsg34,,,,,[9]
267,Vereinigte Sparkassen im Landkreis Weilheim i. OB,Marienplatz 2-6,82362,Weilheim,,http://www.vereinigte-sparkassen.de,,08816410,,approved,2012-02-23T00:19:25.000+01:00,2012-02-23T00:19:25.000+01:00,fax,Banken,,2012-02-23T00:19:25.000+01:00,bdsg34,,,,,[9]
200,Vereinigte Sparkassen Stadt und Landkreis Ansbach,Promenade 20,91522,Ansbach,,http://www.sparkasse-ansbach.de/,,09811890,,approved,2012-02-23T00:19:24.000+01:00,2012-02-24T14:45:20.000+01:00,fax,Banken,,2012-02-23T00:19:24.000+01:00,bdsg34,,,,,[9]
750,Volksbank Düsseldorf Neuss eG,Königsallee 98a ,40215,Düsseldorf,privat@deine-volksbank.de,http://www.deine-volksbank.de/,http://www.deine-volksbank.de/Privatkunden_Kopie/formular-center/kontakt_kanaele.html,021138020,,approved,2012-03-12T22:37:19.000+01:00,2012-03-16T15:50:08.000+01:00,fax,Banken,volksbank-duesseldorf-neuss,2012-03-16T15:50:08.000+01:00,bdsg34,,,,,[9]
635,Volksbank Geest eG,Buxtehuder Straße 5 ,21641,Apensen ,info@vbgeest.de,http://www.vbgeest.de/,http://www.vbgeest.de/service/impressum0.html,0416790080,,approved,2012-02-24T15:30:57.000+01:00,2012-02-24T20:17:28.000+01:00,fax,Banken,volksbank-geest,2012-02-24T20:17:28.000+01:00,bdsg34,,,,,[9]
932,Volksbank Göppingen eG,Poststraße 4 ,73033,Göppingen,info@volksbank-goeppingen.de,https://www.volksbank-goeppingen.de,https://genoformular-31.finanzportal.fiducia.de/f0780-0/privatkunden0/formular-center/0.html,071616200,,approved,2013-02-04T00:07:14.000+01:00,2013-07-24T02:00:31.000+02:00,fax,Banken,volksbank-goeppingen,2013-07-24T02:00:31.000+02:00,bdsg34,,,,,[9]
758,Volksbank im Harz eG,Sösepromenade 12-14,37520,Osterode am Harz,info@vbimharz.de,http://www.vbimharz.de,https://swebc3.gad.de/vbimharz/meine_bank/formulare_wir_fuer/0.html,0552250060,,approved,2012-03-16T12:45:49.000+01:00,2012-03-16T15:42:41.000+01:00,fax,Banken,volksbank-im-harz,2012-03-16T15:42:40.000+01:00,bdsg34,,,,,[9]
648,Volksbank Minden eG,Poststr. 4,32423,Minden,info@volksbank-minden.de,http://www.volksbank-minden.de/,http://www.volksbank-minden.de/service/impressum0.html,0571888070,Hat mit der Volksbank Eisbergen eG zur Volksbank Minden eG fusioniert,approved,2012-02-26T20:04:47.000+01:00,2012-02-26T23:34:08.000+01:00,fax,Banken,volksbank-minden,2012-02-26T23:34:08.000+01:00,bdsg34,,,,,[9]
637,Volksbank Müllheim eG,Werderstr. 29 ,79379,Müllheim,info@volksbank-muellheim.de,http://www.volksbank-muellheim.de,http://www.volksbank-muellheim.de/service/impressum_mehrfachvermittler.html,076318080,,approved,2012-02-25T07:16:49.000+01:00,2012-02-26T14:16:35.000+01:00,fax,Banken,volksbank-muellheim,2012-02-26T14:16:35.000+01:00,bdsg34,,,,,[9]
632,Volksbank Raiffeisenbank Ismaning eG,Bahnhofstraße 3,85737,Ismaning,hotline@vr-ismaning.de,http://www.vr-ismaning.de/,https://geno-formular2.finanzportal.fiducia.de/vr-ismaning/privatkunden0/formular-center/0.html,089960950,"Impressum:
http://www.vr-ismaning.de/wir_fuer_sie/impressum.html",approved,2012-02-24T13:49:54.000+01:00,2012-02-24T20:29:31.000+01:00,fax,Banken,volksbank-raiffeisenbank-ismaning,2012-02-24T20:29:31.000+01:00,bdsg34,,,,,[9]
873,Volksbank Weserbergland eG,Neue Straße 14/16,37603,Holzminden,info@voweb.de,http://www.voweb.de,https://mgl.swbcform.gad.de/g1305-0/privatkunden/formular-center/0.html,0553112920,,approved,2012-10-08T01:38:07.000+02:00,2013-07-24T02:02:06.000+02:00,fax,Banken,volksbank-weserbergland,2013-07-24T02:02:06.000+02:00,bdsg34,,,,,[9]
725,Volkswagen Bank GmbH,Gifhorner Straße 57,38112,Braunschweig,info@vwfs.com,https://www.volkswagenbank.de,https://www.volkswagenbank.de/de/privatkunden/kundenservice/kontakt0/kontakt/allgemeines/telefon_fax.html,053121202,Impressum: https://www.volkswagenbank.de/de/metaseiten/impressum.html,approved,2012-03-05T13:45:20.000+01:00,2012-03-07T10:12:48.000+01:00,fax,Banken,volkswagen-bank,2012-03-07T10:12:48.000+01:00,bdsg34,,,,,[9]
731,VR Bank Untertaunus eG,Wiesbadener Str. 16,65510,Idstein,info@vrbank-untertaunus.de,http://www.vrbank-untertaunus.de,http://www.vrbank-untertaunus.de/privatkunden/formular-center/0.html,061265810,,approved,2012-03-06T13:36:42.000+01:00,2012-03-29T16:27:45.000+02:00,fax,Banken,vr-bank-untertaunus,2012-03-29T16:27:45.000+02:00,bdsg34,,,,,[9]
318,Wartburg-Sparkasse,Karlstraße 2-4,99817,Eisenach,,http://www.wartburg-sparkasse.de/,,0180184055050,08.02.2013: lt. Mail d. Datenschutzbeauftragten umgestellt auf manual,approved,2012-02-23T23:59:57.000+01:00,2013-02-08T12:17:04.000+01:00,manual,Banken,,2012-02-23T23:59:57.000+01:00,bdsg34,,,,,[9]
