id,name,street,pcode,city,email,url,contact_url,phone,comment,state,created_at,updated_at,mailing_mode,cached_tag_list,slug,approved_at,inquiry_kind,department,objection_kind,gv_numer,gv_number,tag_ids
9,DeMDa Deutsche Mieter Datenbank KG,Langenstr. 52-54,28195,Bremen,info@demda.de,,,04213801050,"""Durch das Zusammenwirken möglichst aller Vermieter, Hausverwaltungen und Makler, haben Kunden der Mietercheck-Pakete die Möglichkeit, auf einen ständig wachsenden Datenbestand dieses bundesweit flächendeckenden Informations-systems zuzugreifen.""
(https://www.demda.de/index.php?ids=194 abgerufen am 23.10.2012)
23.10.2012: Umgestellt auf Fax-Versand
05.11.2012: Umgestellt auf Postversand, Faxe kommen nicht mehr an
22.03.2013: Umgestellt auf Fax-Versand
30.03.2013: Umgestellt auf manuellen Versand, Faxe kommen nicht mehr an",approved,2010-04-08T18:05:34.000+02:00,2013-03-30T21:00:59.000+01:00,manual,Mieterauskünfte,,2010-04-08T18:05:34.000+02:00,bdsg34,,,,,[3]
144,Deutsches Mietnomaden Melderegister,Unter den Linden 14,10117,Berlin,,http://dmm.reeu.org/,,030745609837,"""Bei DMM.reeu.org handelt es sich um ein gemmeinnützige Auskunftsdatenbank von Vermietern für Vermieter. Hier können Mietnomaden und Einmietbetrüger gemeldet werden die durch Beschädigung von Wohneigentum und umfangreiche Mietzinszahlungs-Rückstände auffällig geworden sind.""

19.01.2012 Faxzustellung unterbrochen - wer kennt eine gültige Faxnummer?
16.07.2012 Post nicht zustellbar: http://blog.selbstauskunft.net/2012/07/mietnomaden-melderegister/",blocked,2011-08-26T12:25:32.000+02:00,2012-10-23T16:25:16.000+02:00,,Mieterauskünfte,,2011-08-26T12:25:32.000+02:00,bdsg34,,,,,[3]
54,IMODA24 GmbH,Landrat-Trimborn-Str. 36-38,42783,Leichlingen,kontakt@IMODA24.de,http://www.imoda24.de/,http://www.imoda24.de/content/impressum.php,02175166660,"betreibt eine Mietnomaden-Datenbank
vormals Vpaz GmbH",proposed,2010-04-16T04:39:30.000+02:00,2012-02-22T17:13:12.000+01:00,fax,Mieterauskünfte,,,bdsg34,,,,,[3]
105,Mieterauskunft24,-,66701,Beckingen-Reimsbach,,,,,"Die Auskunftei wurd einzwischen eingestellt.

19.01.2012 Faxzustellung unterbrochen - wer kennt eine gültige Faxnummer?
06.07.2011 Faxnummer von http://web2.cylex.de/firma-home/mieterauskunft24-3535845.html übernommen
08.07.2011 Auskunftei besteht auf eine Unterschrift und wurde daher vorübergehend deaktivert.
19.07.2011 Auskunftei wieder aktiv, Anfragen sind jetzt unterschrieben.
13.02.2012 Das Unternehmen hat den Betrieb der Auskunftei zum 31.01 eingestellt. Wir haben die noch nicht zugestellten Anfragen gelöscht.",blocked,2011-02-28T15:27:25.000+01:00,2013-10-30T17:12:23.000+01:00,,Mieterauskünfte,,,bdsg34,,,,,[3]
1004,Mietnomaden-Stop (Inh. Jan Sussujew),Thälmannstr. 88,15366,Hönow,info@mietnomaden-stop.com,http://www.mietnomaden-stop.com/,http://www.mietnomaden-stop.com/impressum.html,03342424585,"""Unser Portal listet in einer Datenbank, die stetig aktualisiert wird, die Namen vertragsbrüchiger Mieter und Mietnomaden auf, sodass diese von Vermietern gegen ein kleines Entgelt aus der Datenbank abgerufen werden können.""
https://www.mietnomaden-stop.com/ (abgerufen am 04.06.2013)

07.06.2013: Neuer Betreiber (Moers U.G) http://blog.selbstauskunft.net/2013/06/mieterauskunfteien/",blocked,2013-06-04T12:00:56.000+02:00,2013-06-10T12:49:40.000+02:00,,Mieterauskünfte,,2013-06-04T12:06:03.000+02:00,bdsg34,,,,,[3]
1010,Mietnomaden-Stop (Moers UG haftungsbeschränkt),Zugasse 29,50678,Köln,,https://www.mietnomaden-stop.com/,https://www.mietnomaden-stop.com/impressum.html?section=impressum,,"http://blog.selbstauskunft.net/2013/06/mieterauskunfteien/
02.12.16 Unternehmen deaktiviert, da lt. Mail nicht mehr tätig; Internetseite ist auch abgeschaltet",blocked,2013-06-10T12:48:44.000+02:00,2016-12-02T10:52:37.000+01:00,,Mieterauskünfte,mietnomaden-stop,2013-06-10T12:49:18.000+02:00,bdsg34,,,,,[3]
76,MietPROfil GbR,Marie-Curie-Str. 12,21337,Lüneburg,mail@mietprofil.com,https://www.mietprofil.com/,https://www.mietprofil.com/info/impressum/,04131158975,"""Die MietPROfil-Auskunft beinhaltet sämtliche Einträge, die ggf. von Ihren Vor-Vermietern oder aktuellen Vermietern über Sie eingetragen wurden.""

09.02.2012: Unternehmen hat nur Daten aus externen Datenbanken, daher deaktiviert.",blocked,2010-05-03T10:52:21.000+02:00,2012-02-22T17:13:13.000+01:00,,Mieterauskünfte,,,bdsg34,,,,,[3]
77,VSK Vermieterschutzkartei Deutschland-GmbH & Co. KG,Denkendorfer Str. 11,70771,Leinfelden-Echterdingen,info@vermieterschutzkartei.de,http://www.vermieterschutzkartei.de/,http://www.vermieterschutzkartei.de/auskunft0.html,0711997607979,20.03.2014: Anschrift lt. Impressum aktualisiert,approved,2010-05-03T10:58:06.000+02:00,2014-03-20T17:00:49.000+01:00,fax,Mieterauskünfte,,2010-05-03T10:58:06.000+02:00,bdsg34,,,,,[3]
78,Zentrale VermieterSchutz Datenbank GmbH,Lindenthaler Allee 30,14163,Berlin,info@zvsd-online.de,https://www.zvsd-online.de/,https://www.zvsd-online.de/sonstiges/impressum.html,030810542700,"19.01.2012 Faxzustellung unterbrochen - wer kennt eine gültige Faxnummer?
23.08.2012 Anschrift ungültig: http://blog.selbstauskunft.net/2012/08/annahme-verweigert/",blocked,2010-05-03T11:05:03.000+02:00,2012-10-23T16:27:54.000+02:00,,Mieterauskünfte,,2010-05-03T11:05:03.000+02:00,bdsg34,,,,,[3]
