id,name,street,pcode,city,email,url,contact_url,phone,comment,state,created_at,updated_at,mailing_mode,cached_tag_list,slug,approved_at,inquiry_kind,department,objection_kind,gv_numer,gv_number,tag_ids
673,Amazon.de GmbH,Marcel-Breuer-Str.  12,80807,München,info@amazon.de,http://www.amazon.de/,http://www.amazon.de/gp/help/customer/display.html?ie=UTF8&nodeId=505050,089358030,,approved,2012-02-28T23:12:23.000+01:00,2012-02-29T18:36:23.000+01:00,fax,Versandhäuser,amazon,2012-02-29T00:58:28.000+01:00,bdsg34,,,,,[2]
739,eBay International AG,Albert-Einstein-Ring 2-6,14532,Kleinmachnow,,http://www.ebay.de/,,08006665722,"02.11.2012: auf Postversand umgestellt, da die Faxnummer ungültig ist
19.11.2012: Faxnummer aktualisiert",approved,2012-03-09T17:54:45.000+01:00,2012-11-19T11:07:38.000+01:00,fax,Versandhäuser,ebay,2012-11-02T11:11:34.000+01:00,bdsg34,,,,,[2]
130,Gothia Deutschland GmbH,Wilhelm-Theodor-Römheld-Straße 26,55130,Mainz,info.de@gothiagroup.com,http://www.gothiagroup.com/de/,http://www.gothiagroup.com/de/kontakt,0613190750,"""Geschäfte mit Konsumenten können Sie bei der Gothia je nach Zielgruppe mit Informationen von verschiedenen Partnerunternehmen absichern. [...] Die eine Auskunftei zeigt Ihnen sowohl harte Negativmerkmale als auch weiche Zahlungsstörungen ihrer Kunden auf. Die angefragte Adresse wird zudem gegen die Datenbank der Deutsche Post Adress GmbH geprüft. Enthält die Adresse Fehler, können Sie sofort reagieren. [...]
Die dritte Möglichkeit der B2C Prüfung liefert Ihnen verfügbare (ggfs. korrigierte und ergänzte) Namens- und Adressdaten der angefragten Privatperson aus der aktuellen Datenbank. Einen Scorewert inklusive eines Scoretextes, evtl. vorhandene Negativmerkmale und Verbindungen der Person zu Unternehmen werden ebenfalls aufgeführt.""
http://www.gothiagroup.com/de/unsere-dienstleistungen/bonitatsprufung (abgerufen am 07.07.2011)",approved,2011-07-05T15:34:51.000+02:00,2012-02-22T17:13:14.000+01:00,fax,"Inkasso,Auskunftshändler",,2011-07-05T15:34:51.000+02:00,bdsg34,,,,,"[2, 7]"
838,Libri.de Internet GmbH,Friesenweg 1,22763,Hamburg,service@ebook.de,http://www.ebook.de,http://www.ebook.de/de/category/59475/kontakt_impressum.html,08001004200,29.11.2012 lt. eMail von Herrn Sven Rose vom Mi. 28.11.201 22:46 Uhr: Telefonnummer und URLs aktualisiert.,approved,2012-06-08T19:27:07.000+02:00,2012-11-29T09:23:02.000+01:00,fax,Versandhäuser,libri,2012-10-23T17:10:53.000+02:00,bdsg34,,,,,[2]
771,neckermann.de GmbH,Hanauer Landstraße 360 ,80386,Frankfurt am Main,service@neckermann.de,http://www.neckermann.de,http://www.neckermann.de/on/demandware.store/Sites-DE-Site/de_DE/Service-Contact,06940401,,approved,2012-03-24T21:34:43.000+01:00,2012-03-30T00:03:00.000+02:00,fax,Versandhäuser,neckermann-de-gmbh,2012-03-30T00:03:00.000+02:00,bdsg34,,,,,[2]
194,Otto GmbH & Co KG,Wandsbeker Straße 3-7,22172,Hamburg,,http://www.otto.com/,http://www.otto.com/Impressum.37.0.html,04064610,,approved,2012-02-22T17:52:30.000+01:00,2012-02-24T01:23:21.000+01:00,fax,Versandhäuser,otto,2012-02-22T17:52:30.000+01:00,bdsg34,,,,,[2]
782,Verlagsgruppe Weltbild GmbH,Steinerne Furt 70,86167,Augsburg,info@weltbild.de,http://www.weltbild.de,http://www.weltbild.de/1/sh.kontaktoverview/kontakt-overview.html,082170044715,"Impressum:
http://www.weltbild.de/1/sh.impressum/page.html

Datenschutz:
Datenschutzbeauftragter Herr Thomas Seelmann

http://www.weltbild.de/1/sh.datenschutz/datenschutz-datensicherheit.html

",approved,2012-03-31T13:59:48.000+02:00,2012-11-02T11:24:24.000+01:00,fax,Versandhäuser,weltbild,2012-11-02T11:24:24.000+01:00,bdsg34,,,,,[2]
963,Zalando GmbH,Sonnenburger Str. 73,10437,Berlin,service@zalando.de,http://www.zalando.de/,https://www.zalando.de/kontakt/,,"Fordert trotz Zahlungsart Vorkasse, Auskunft über Scorewert von ""Bürgel Wirtschaftsinformationen"" an!",approved,2013-04-14T09:01:33.000+02:00,2013-05-28T11:59:12.000+02:00,fax,Versandhäuser,zalando,2013-05-21T03:01:21.000+02:00,bdsg34,,,,,[2]
